,lat,long,type,site,code,xrubio_id,,,city,country
0,-1.983333,51.733333,Dressel 20,Cirencester,CPCAMO,16590,,,Cirencester,UK
1,1.333333,51.283333,Dressel 20,Edinburgh,ACIRGI,15497,,,Edinburgh,UK
2,-0.093145,51.514248,Mortarium,London,VRBANVSTIBERF,30734,,,London,UK
3,0.9,51.883333,Dressel 20,Colchester,CANTONIQVIETI,15567,,,Colchester,UK
4,-2.016667,54.966667,Dressel 20,Corbridge,PMPM,16345,,,Corbridge,UK
5,-0.093145,51.514248,Dressel 20,London,PORLAR,15458,,,London,UK
6,-0.093145,51.514248,Dressel 20,London,QANTRVG,15615,,,London,UK
7,-1.083333,53.966667,Dressel 20,York,LIVNIMELISSI,16259,,,York,UK
8,-2.016667,54.966667,Dressel 20,Corbridge,OICSVPVRO,17196,,,Corbridge,UK
9,-2.916667,53.2,Dressel 20,Chester,CS,17189,,,Chester,UK
10,-0.25,51.833333,Dressel 20,St. Albans,LANTSVRI,15619,,,St. Albans,UK
11,1.333333,51.283333,Dressel 20,Edinburgh,QANTRVG,15614,,,Edinburgh,UK
12,-0.25,51.833333,Dressel 20,St. Albans,QCCI,15736,,,St. Albans,UK
13,0.2,52.066667,Dressel 20,Chesterford,CAMILIMELISSI,15845,,,Chesterford,UK
14,-2.916667,53.2,Dressel 20,Chester,AAFAAE,15383,,,Chester,UK
15,1.083333,51.266667,Dressel 6,Canterbury,HERMES,27982,,,Canterbury,UK
16,-0.093145,51.514248,Dressel 20,London,QFLAVIFLAVIANI,16647,,,London,UK
17,-1.083333,53.966667,Dressel 20,York,PMOCVFIGEDO,16439,,,York,UK
18,-1.066667,51.35,Dressel 20,Silchester,TFA,15949,,,Silchester,UK
19,0.9,51.883333,Dressel 20,Colchester,SATVRNINI,16833,,,Colchester,UK
20,-2.958889,51.613333,Dressel 20,Caerleon,BELLVC,15698,,,Caerleon,UK
21,-0.093145,51.514248,Dressel 20,London,PAH,15423,,,London,UK
22,-2.016667,54.966667,Dressel 20,Corbridge,MFF,16005,,,Corbridge,UK
23,-2.75,54.316667,Dressel 20,Watercrook,MMCS,15801,,,Watercrook,UK
24,-0.093145,51.514248,Dressel 20,London,CAPF,15632,,,London,UK
25,-2.766667,51.61,Dressel 20,Caerwent,ACIR,15504,,,Caerwent,UK
26,-1.066667,51.35,Dressel 20,Silchester,LIT,16205,,,Silchester,UK
27,-0.533333,53.233333,Dressel 20,Lincoln,LFC,15972,,,Lincoln,UK
28,0.9,51.883333,Dressel 20,Colchester,PARVA,15636,,,Colchester,UK
29,-0.093145,51.514248,Dressel 20,London,IIIMINICIOR,16432,,,London,UK
30,1.333333,51.283333,Dressel 20,Edinburgh,QIA,16086,,,Edinburgh,UK
31,-0.093145,51.514248,Dressel 20,London,CALPVRNIB,15838,,,London,UK
32,-0.25,51.833333,Dressel 20,St. Albans,CA,17118,,,St. Albans,UK
33,-0.093145,51.514248,Amphora incerta,London,HAL,20533,,,London,UK
34,-0.25,51.833333,Dressel 20,St. Albans,GRA,16685,,,St. Albans,UK
35,-2.016667,54.966667,Dressel 20,Corbridge,IIIMINICIOR,16437,,,Corbridge,UK
36,-2.65,52.666667,Dressel 20,Wroxeter,CMARISILVANI,16423,,,Wroxeter,UK
37,-0.533333,53.233333,Dressel 20,Lincoln,PMANISVP,16416,,,Lincoln,UK
38,-2.678333,51.007222,Dressel 20,Ilchester,PNN,16460,,,Ilchester,UK
39,0.9,51.883333,Dressel 20,Colchester,MIM,16137,,,Colchester,UK
40,-1.421389,54.987778,Dressel 20,South Shields,LIVNIMELISSI,16255,,,South Shields,UK
41,-0.093145,51.514248,Mortarium,London,PLNEAS,30702,,,London,UK
42,-0.093145,51.514248,Amphora incerta,London,SEXMTC,30710,,,London,UK
43,-2.016667,54.966667,Dressel 20,Corbridge,PMMASS,16364,,,Corbridge,UK
44,-0.093145,51.514248,Dressel 20,London,THALI,17010,,,London,UK
45,-1.983333,51.733333,Dressel 20,Cirencester,POROCODV,16567,,,Cirencester,UK
46,-0.093145,51.514248,Mortarium,London,ANDIDFECIT,30685,,,London,UK
47,-2.933333,54.883333,Dressel 20,Carlisle,DOM,32257,,,Carlisle,UK
48,1.333333,51.283333,Dressel 20,Edinburgh,MAEME,15525,,,Edinburgh,UK
49,-3.533333,50.7,Dressel 20,Exeter,CEFP,15902,,,Exeter,UK
50,-2.933333,54.883333,Dressel 20,Carlisle,PANNIRVFI,15558,,,Carlisle,UK
51,-0.25,51.833333,Dressel 20,St. Albans,C,17115,,,St. Albans,UK
52,-3,53.166667,Dressel 20,Broughton,GRA,16683,,,Broughton,UK
53,-0.093145,51.514248,Dressel 20,London,CAPF,15629,,,London,UK
54,1.333333,51.283333,Dressel 20,Edinburgh,LHRR,16056,,,Edinburgh,UK
55,-0.093145,51.514248,Dressel 20,London,ACIRGI,15496,,,London,UK
56,-2.016667,54.966667,Dressel 20,Corbridge,LCAX,32742,,,Corbridge,UK
57,-0.6,53.65,Dressel 20,Winterton,MAR,15469,,,Winterton,UK
58,1.333333,51.283333,Dressel 20,Edinburgh,VRITTIPV,17103,,,Edinburgh,UK
59,-2.333333,55.016667,Dressel 20,Housesteads,FSCIMNIANO,16931,,,Housesteads,UK
60,-2.016667,54.966667,Dressel 20,Corbridge,FSCIMNIANO,16927,,,Corbridge,UK
61,-1.75,54.666667,Dressel 20,Durhamshire,DOM,16543,,,Durhamshire,UK
62,0.9,51.883333,Dressel 20,Colchester,PNN,16492,,,Colchester,UK
63,-2.766667,51.61,Dressel 20,Caerwent,SATVRNINI,16845,,,Caerwent,UK
64,-0.093145,51.514248,Dressel 20,London,QSP,16789,,,London,UK
65,-1.083333,53.966667,Dressel 20,York,LAT,15424,,,York,UK
66,-2.016667,54.966667,Dressel 20,Corbridge,LVL,17029,,,Corbridge,UK
67,-1.083333,53.966667,Dressel 20,York,MFS,15907,,,York,UK
68,-0.093145,51.514248,Dressel 20,London,QSP,16787,,,London,UK
69,-2.533333,53.8,Dressel 20,Ribchester,GAVFL,15481,,,Ribchester,UK
70,-1.083333,53.966667,Dressel 20,York,BARBA,16686,,,York,UK
71,-2.333333,54.966667,Dressel 20,Bardon Mill,SERM,18735,,,Bardon Mill,UK
72,-0.25,51.833333,Dressel 20,St. Albans,APM,16600,,,St. Albans,UK
73,-2.016667,54.966667,Dressel 20,Corbridge,QIA,16085,,,Corbridge,UK
74,0.9,51.883333,Dressel 20,Colchester,CSEMPRONIPOLYCLITI,16975,,,Colchester,UK
75,-2.333333,54.966667,Dressel 20,Bardon Mill,EL,18739,,,Bardon Mill,UK
76,-0.093145,51.514248,Dressel 20,London,OLMEN,15904,,,London,UK
77,-2.916667,53.2,Dressel 20,Chester,MSM,16768,,,Chester,UK
78,-2.65,52.666667,Dressel 20,Wroxeter,LVC,17020,,,Wroxeter,UK
79,1.333333,51.283333,Dressel 20,Edinburgh,CANTONIQVIETI,15576,,,Edinburgh,UK
80,-1.983333,51.733333,Dressel 20,Cirencester,ASP,17180,,,Cirencester,UK
81,-2.65,52.666667,Dressel 20,Wroxeter,VRITTI,17102,,,Wroxeter,UK
82,-0.25,51.833333,Dressel 20,St. Albans,VV,17012,,,St. Albans,UK
83,-0.093145,51.514248,Amphora incerta,London,ADBVCIVSF,37011,,,London,UK
84,-2.016667,54.966667,Dressel 20,Corbridge,SCA,16875,,,Corbridge,UK
85,0.9,51.883333,Dressel 20,Colchester,SISEN,25439,,,Colchester,UK
86,-1.083333,53.966667,Dressel 20,York,LCM,15765,,,York,UK
87,-0.093145,51.514248,Dressel 20,London,APCF,16586,,,London,UK
88,-1.983333,51.733333,Dressel 20,Cirencester,SATVRNINI,16836,,,Cirencester,UK
89,-2.033333,50.783333,Dressel 20,Corfe Mullen,LFS,16019,,,Corfe Mullen,UK
90,-2.016667,54.966667,Dressel 20,Corbridge,QCM,15773,,,Corbridge,UK
91,-0.093145,51.514248,Dressel 20,London,PEP,17144,,,London,UK
92,0.9,51.883333,Dressel 20,Colchester,QS,16792,,,Colchester,UK
93,-2.916667,53.2,Dressel 20,Chester,MIAPC,16112,,,Chester,UK
94,-0.093145,51.514248,Dressel 20,London,LSLVPI,16764,,,London,UK
95,-2.916667,53.2,Dressel 20,Chester,LMVE,16406,,,Chester,UK
96,0.9,51.883333,Dressel 20,Colchester,IIIMINICIOR,16434,,,Colchester,UK
97,-1.421389,54.987778,Dressel 20,South Shields,A,17169,,,South Shields,UK
98,-2.333333,54.966667,Dressel 20,Bardon Mill,PANNIRVFI,18688,,,Bardon Mill,UK
99,-2.016667,54.966667,Dressel 20,Corbridge,LIT,16197,,,Corbridge,UK
100,-0.093145,51.514248,Amphora incerta,London,AXII,30683,,,London,UK
101,-0.25,52.583333,Dressel 20,Peterborough,CLK,15858,,,Peterborough,UK
102,-3.533333,50.7,Dressel 20,Exeter,GEMELLI,15855,,,Exeter,UK
103,1.083333,51.266667,Dressel 20,Canterbury,SAXOFERREO,16850,,,Canterbury,UK
104,0.9,51.883333,Dressel 20,Colchester,FFVTI,16045,,,Colchester,UK
105,1.333333,51.283333,Dressel 20,Edinburgh,QFF,16008,,,Edinburgh,UK
106,-2.016667,54.966667,Dressel 20,Corbridge,ACIRGI,15494,,,Corbridge,UK
107,-0.093145,51.514248,Amphora incerta,London,SCO,20728,,,London,UK
108,0.9,51.883333,Dressel 20,Colchester,CVVA,17041,,,Colchester,UK
109,-2.333333,55.016667,Amphora incerta,Housesteads,AE,20637,,,Housesteads,UK
110,-2.016667,54.966667,Dressel 20,Corbridge,ENNIORVMIVLIORVM,15922,,,Corbridge,UK
111,-1.421389,54.987778,Dressel 20,South Shields,LCM,15771,,,South Shields,UK
112,-4.064722,51.662222,Dressel 20,Loughor,CANNIRVFINI,15554,,,Loughor,UK
113,-1.066667,51.35,Dressel 20,Silchester,COLOBRARIA,20503,,,Silchester,UK
114,-2.016667,54.966667,Dressel 20,Corbridge,SCAL,16872,,,Corbridge,UK
115,-0.093145,51.514248,Dressel 20,London,PIVLICRISPI,16225,,,London,UK
116,1.333333,51.283333,Dressel 20,Edinburgh,PRISAENI,16821,,,Edinburgh,UK
117,-2.7,52.2,Dressel 20,Stoke Prior,QIC,16117,,,Stoke Prior,UK
118,-1.083333,53.966667,Mortarium,York,GRATIA,30699,,,York,UK
119,-0.093145,51.514248,Dressel 20,London,PHOEBUS,16055,,,London,UK
120,0.9,51.883333,Dressel 20,Colchester,AELIFVSCIANI,15909,,,Colchester,UK
121,-0.093145,51.514248,Dressel 20,London,MIM,16133,,,London,UK
122,-1.133333,52.633333,Dressel 20,Leicester,LAVRELIGERMANI,15411,,,Leicester,UK
123,-2.916667,53.2,Dressel 20,Chester,PCHO,15758,,,Chester,UK
124,-2.333333,54.966667,Dressel 20,Bardon Mill,AVRELIHERACLAE,33387,,,Bardon Mill,UK
125,-2.016667,54.966667,Dressel 20,Corbridge,QMR,16386,,,Corbridge,UK
126,-2.65,52.666667,Dressel 20,Wroxeter,QANTRVG,15618,,,Wroxeter,UK
127,1.333333,51.283333,Dressel 20,Edinburgh,MAI,17138,,,Edinburgh,UK
128,-2.966667,50.733333,Dressel 20,Uplyme,CAVFL,15674,,,Uplyme,UK
129,-0.093145,51.514248,Amphora incerta,London,PMS,20667,,,London,UK
130,-3.533333,50.7,Dressel 20,Exeter,LSERM,16766,,,Exeter,UK
131,-0.093145,51.514248,Dressel 20,London,POROCODV,16564,,,London,UK
132,-1.666667,54.65,Dressel 20,Bishop Auckland,VRITTIFAV,17101,,,Bishop Auckland,UK
133,-2.016667,54.966667,Dressel 20,Corbridge,ALFO,16310,,,Corbridge,UK
134,-1.983333,51.733333,Dressel 20,Cirencester,PHILEROF,16047,,,Cirencester,UK
135,-0.093145,51.514248,Dressel 20,London,VFV,17168,,,London,UK
136,1.333333,51.283333,Dressel 20,Edinburgh,I,17194,,,Edinburgh,UK
137,-2.6,53.383333,Dressel 20,Warrington,MIM,16129,,,Warrington,UK
138,-1.083333,53.966667,Dressel 20,York,RM,16346,,,York,UK
139,-0.093145,51.514248,Dressel 20,London,C,15701,,,London,UK
140,-0.083333,51.5,Dressel 20,Southwark,ARVA,15643,,,Southwark,UK
141,-2.45,50.6,Amphora incerta,Weymouth,P,20621,,,Weymouth,UK
142,0.9,51.883333,Dressel 20,Colchester,AGRICOLAE,15548,,,Colchester,UK
143,-2.016667,54.966667,Dressel 20,Corbridge,LIT,16213,,,Corbridge,UK
144,-1.216667,53.066667,Dressel 20,Newstead,MON,16441,,,Newstead,UK
145,-0.093145,51.514248,Amphora incerta,London,CVH,30729,,,London,UK
146,-0.25,51.833333,Dressel 20,St. Albans,ALFO,37019,,,St. Albans,UK
147,-0.093145,51.514248,Dressel 20,London,LSSEX,16804,,,London,UK
148,-0.093145,51.514248,Dressel 20,London,QFVLNIC,16011,,,London,UK
149,-0.093145,51.514248,Dressel 20,London,PAH,15422,,,London,UK
150,1.333333,51.283333,Dressel 20,Edinburgh,CAQVIE,20488,,,Edinburgh,UK
151,-2.333333,54.966667,Dressel 20,Bardon Mill,SCBC,18743,,,Bardon Mill,UK
152,-0.093145,51.514248,Amphora incerta,London,LVIOPIM,30732,,,London,UK
153,-0.25,51.833333,Dressel 20,St. Albans,DIA,16079,,,St. Albans,UK
154,-1.983333,51.733333,Dressel 20,Cirencester,QFALBELQFALBETN,15946,,,Cirencester,UK
155,-0.093145,51.514248,Mortarium,London,LIICINIITAS,30705,,,London,UK
156,1.333333,51.283333,Dressel 20,Edinburgh,AEALEX,15518,,,Edinburgh,UK
157,-0.093145,51.514248,Dressel 20,London,PMR,16373,,,London,UK
158,-3.383333,51.95,Dressel 20,Brecon,SALS,15431,,,Brecon,UK
159,0.9,51.883333,Dressel 20,Colchester,PNN,16493,,,Colchester,UK
160,-1.216667,53.066667,Dressel 20,Newstead,DOM,16538,,,Newstead,UK
161,-2.958889,51.613333,Dressel 20,Caerleon,IIIMINICIOR,16438,,,Caerleon,UK
162,-1.066667,51.35,Dressel 20,Silchester,LQS,16673,,,Silchester,UK
163,-3.533333,50.7,Dressel 20,Exeter,QCR,15797,,,Exeter,UK
164,-2.333333,54.966667,Dressel 20,Bardon Mill,APH,18723,,,Bardon Mill,UK
165,-3.533333,50.7,Dressel 20,Exeter,CEFP,15895,,,Exeter,UK
166,0.9,51.883333,Dressel 20,Colchester,SATVRNINI,16843,,,Colchester,UK
167,1.333333,51.283333,Dressel 20,Edinburgh,PORCPR,16614,,,Edinburgh,UK
168,-1.983333,51.733333,Dressel 20,Cirencester,PCI,15763,,,Cirencester,UK
169,-2.016667,54.966667,Dressel 20,Corbridge,LFC,15961,,,Corbridge,UK
170,0.9,51.883333,Dressel 20,Colchester,CANTONIQVIETI,15597,,,Colchester,UK
171,-2.333333,54.966667,Dressel 20,Bardon Mill,QSP,18731,,,Bardon Mill,UK
172,-2.016667,54.966667,Dressel 20,Corbridge,VIRAV,17080,,,Corbridge,UK
173,-3.45,50.683333,Dressel 20,Topsham,LVALERIVITALIS,17134,,,Topsham,UK
174,-0.093145,51.514248,Dressel 20,London,IVLITEREN,16231,,,London,UK
175,-1.748246,50.71376,Dressel 20,Hengistbury Head,QSERVIBROC,16985,,,Hengistbury Head,UK
176,-2.15,55.016667,Dressel 20,Chesters,PNN,16480,,,Chesters,UK
177,-0.25,51.833333,Dressel 20,St. Albans,PATV,15664,,,St. Albans,UK
178,1.333333,51.283333,Dressel 20,Edinburgh,CANTONIQVIETI,15590,,,Edinburgh,UK
179,-1.066667,51.35,Dressel 20,Silchester,LIT,16206,,,Silchester,UK
180,-4.064722,51.662222,Dressel 20,Loughor,LICISPE,16343,,,Loughor,UK
181,-1.083333,53.966667,Dressel 20,York,FSCIMNIANO,16895,,,York,UK
182,-3.383333,51.95,Dressel 20,Brecon,ENNIORVMIVLIORVM,15931,,,Brecon,UK
183,-2.5,53.266667,Dressel 20,Northwich,AVIH,17073,,,Northwich,UK
184,-2.016667,54.966667,Dressel 20,Corbridge,QSA,16828,,,Corbridge,UK
185,-2.333333,55.016667,Dressel 20,Housesteads,B,16104,,,Housesteads,UK
186,-1.066667,51.35,Dressel 20,Silchester,MS,17140,,,Silchester,UK
187,-2.766667,51.61,Dressel 20,Caerwent,CANTONIQVIETI,15565,,,Caerwent,UK
188,-1.316667,51.016667,Dressel 20,Winchester,PCVCC,17149,,,Winchester,UK
189,1.333333,51.283333,Dressel 20,Edinburgh,QSESA,16937,,,Edinburgh,UK
190,-0.093145,51.514248,Dressel 20,London,FIPC,16171,,,London,UK
191,-0.783333,50.833333,Dressel 20,Chicester,C,17190,,,Chicester,UK
192,-0.093145,51.514248,Dressel 20,London,LVIBICHROMIS,17077,,,London,UK
193,1.333333,51.283333,Dressel 20,Edinburgh,BAETICI,15690,,,Edinburgh,UK
194,-2.333333,54.966667,Dressel 20,Bardon Mill,PVALERIFAVSTINI,20447,,,Bardon Mill,UK
195,-0.25,51.833333,Dressel 20,St. Albans,LICISPE,16341,,,St. Albans,UK
196,1.333333,51.283333,Dressel 20,Edinburgh,DI,17122,,,Edinburgh,UK
197,-1.083333,53.966667,Amphora incerta,York,VEVVEN,30731,,,York,UK
198,-2.65,52.666667,Dressel 20,Wroxeter,RIVESRM,16695,,,Wroxeter,UK
199,-0.25,51.833333,Dressel 20,St. Albans,SNTE,16518,,,St. Albans,UK
200,-1.083333,53.966667,Mortarium,York,INOMENC,30715,,,York,UK
201,-2.933333,54.883333,Dressel 20,Carlisle,QMR,33315,,,Carlisle,UK
202,-0.093145,51.514248,Dressel 20,London,PNN,16489,,,London,UK
203,-0.093145,51.514248,Dressel 20,London,VAS,15479,,,London,UK
204,-2.65,51.483333,Dressel 20,Sea Mills,FSCIMNIANO,16892,,,Sea Mills,UK
205,-0.533333,53.233333,Dressel 20,Lincoln,PNN,16486,,,Lincoln,UK
206,0.9,51.883333,Dressel 20,Colchester,PN,16481,,,Colchester,UK
207,-2.016667,54.966667,Dressel 20,Corbridge,TFA,15444,,,Corbridge,UK
208,-1.133333,52.633333,Dressel 20,Leicester,QIM,16158,,,Leicester,UK
209,-1.133333,52.633333,Dressel 20,Leicester,PMH,16361,,,Leicester,UK
210,-2.65,52.666667,Dressel 20,Wroxeter,ENNIORVMIVLIORVM,15930,,,Wroxeter,UK
211,-1.816667,53.916667,Dressel 20,Ilkley,BABPOR,20675,,,Ilkley,UK
212,-0.516667,51.433333,Dressel 20,Staines,MCLS,15861,,,Staines,UK
213,-0.783333,50.833333,Dressel 20,Chicester,LSLSEN,16977,,,Chicester,UK
214,-1.983333,51.733333,Dressel 20,Cirencester,ROMANI,16702,,,Cirencester,UK
215,1.333333,51.283333,Dressel 20,Edinburgh,LIT,16211,,,Edinburgh,UK
216,0.9,51.883333,Dressel 20,Colchester,LQS,16657,,,Colchester,UK
217,1.333333,51.283333,Dressel 20,Edinburgh,QVETI,15575,,,Edinburgh,UK
218,-0.093145,51.514248,Dressel 20,London,PAH,15413,,,London,UK
219,-0.093145,51.514248,Dressel 20,London,CSTERTINIPAVLLINI,16995,,,London,UK
220,0.9,51.883333,Dressel 20,Colchester,ISSISE,16292,,,Colchester,UK
221,0.9,51.883333,Dressel 20,Colchester,CSEMPRONIPOLYCLITI,16965,,,Colchester,UK
222,-0.093145,51.514248,Dressel 20,London,LFC,15965,,,London,UK
223,-1.383333,54.083333,Ignotus,Aldborough,SARR,30725,,,Aldborough,UK
224,-2.333333,54.966667,Dressel 20,Bardon Mill,LVBC,17072,,,Bardon Mill,UK
225,-2.933333,54.883333,Dressel 20,Carlisle,LVC,32258,,,Carlisle,UK
226,0.9,51.883333,Dressel 20,Colchester,QMCALIAIDIS,16349,,,Colchester,UK
227,1.333333,51.283333,Dressel 20,Edinburgh,SOALVEN,16524,,,Edinburgh,UK
228,-2.333333,54.966667,Dressel 20,Bardon Mill,LQA,33390,,,Bardon Mill,UK
229,-2.333333,54.966667,Dressel 20,Bardon Mill,FSCIMNIANO,33385,,,Bardon Mill,UK
230,-0.093145,51.514248,Dressel 20,London,MIM,16143,,,London,UK
231,0.9,51.883333,Dressel 20,Colchester,TATILIASIATICI,15645,,,Colchester,UK
232,-1.619444,54.988056,Dressel 20,Newcastle upon Tyne,CAPF,15625,,,Newcastle upon Tyne,UK
233,-1.166667,52.25,Dressel 20,Daventry,ACIRGI,15486,,,Daventry,UK
234,1.333333,51.283333,Dressel 20,Edinburgh,CANTONIQVIETI,15578,,,Edinburgh,UK
235,-0.533333,53.233333,Dressel 20,Lincoln,NEVAE,16521,,,Lincoln,UK
236,-2.333333,55.016667,Dressel 20,Housesteads,CMM,16367,,,Housesteads,UK
237,-2.016667,54.966667,Dressel 20,Corbridge,LAF,15402,,,Corbridge,UK
238,-1.983333,51.733333,Dressel 20,Cirencester,SALS,15434,,,Cirencester,UK
239,-1.066667,53.783333,Dressel 20,Selby,FSCIMNIANO,16893,,,Selby,UK
240,1.333333,51.283333,Dressel 20,Edinburgh,LCFPC,15743,,,Edinburgh,UK
241,-0.093145,51.514248,Dressel 2-4,London,EXFIGLINCAESARIS,25465,,,London,UK
242,-0.083333,51.5,Dressel 20,Southwark,CALPVRNIAB,15837,,,Southwark,UK
243,-2.6,53.383333,Dressel 20,Warrington,QSA,16829,,,Warrington,UK
244,-0.093145,51.514248,Dressel 20,London,SP,16793,,,London,UK
245,-2.65,52.666667,Dressel 20,Wroxeter,ACIRGI,15499,,,Wroxeter,UK
246,-1.133333,52.633333,Dressel 20,Leicester,QVV,17213,,,Leicester,UK
247,-0.933333,51.166667,Dressel 20,Holybourne,FSCIMNIANO,16906,,,Holybourne,UK
248,0.483333,51.733333,Dressel 20,Chelmsford,MQFF,16640,,,Chelmsford,UK
249,-0.093145,51.514248,Dressel 20,London,MIMOPSI,16147,,,London,UK
250,1.333333,51.283333,Dressel 20,Edinburgh,PVC,17022,,,Edinburgh,UK
251,-0.083333,51.5,Dressel 20,Southwark,ARAXIFM,15686,,,Southwark,UK
252,-2.766667,51.61,Dressel 20,Caerwent,QSR,16799,,,Caerwent,UK
253,-2.65,52.666667,Dressel 20,Wroxeter,MEEVPRO,15891,,,Wroxeter,UK
254,-1.083333,53.966667,Mortarium,York,SVVVIIIITR,30682,,,York,UK
255,-3.482778,51.405556,Dressel 20,Llantwit Major,VICTORICI,25459,,,Llantwit Major,UK
256,-2.65,52.666667,Dressel 20,Wroxeter,QFC,15984,,,Wroxeter,UK
257,1.333333,51.283333,Dressel 20,Edinburgh,MSM,16771,,,Edinburgh,UK
258,-4.266667,53.15,Dressel 20,Caernarfon,QIC,16118,,,Caernarfon,UK
259,-2.333333,54.966667,Dressel 20,Bardon Mill,CAVM,18694,,,Bardon Mill,UK
260,-3.533333,50.7,Dressel 20,Exeter,LSL,16758,,,Exeter,UK
261,0.9,51.883333,Dressel 20,Colchester,CSEMPRONIPOLYCLITI,16969,,,Colchester,UK
262,-1.083333,53.966667,Dressel 20,York,SNR,16501,,,York,UK
263,0.9,51.883333,Amphora incerta,Colchester,FAVS,20525,,,Colchester,UK
264,-1.383333,54.083333,Mortarium,Aldborough,VOROU,30733,,,Aldborough,UK
265,-0.093145,51.514248,Dressel 20,London,QFG,16009,,,London,UK
266,0.9,51.883333,Dressel 20,Colchester,PNN,16475,,,Colchester,UK
267,-1.133333,52.633333,Dressel 20,Leicester,HISPANI,16073,,,Leicester,UK
268,0.9,51.883333,Dressel 20,Colchester,PATERNI,16622,,,Colchester,UK
269,0.9,51.883333,Dressel 20,Colchester,CSEMPRONIPOLYCLITI,16951,,,Colchester,UK
270,-0.093145,51.514248,Dressel 20,London,CANTONIQVIETI,15603,,,London,UK
271,-1.133333,52.633333,Dressel 20,Leicester,CTYC,17006,,,Leicester,UK
272,0.9,51.883333,Dressel 20,Colchester,AELIFVSCIANI,15908,,,Colchester,UK
273,-0.093145,51.514248,Dressel 20,London,SA,17161,,,London,UK
274,-2.016667,54.966667,Dressel 20,Corbridge,SEX,16986,,,Corbridge,UK
275,-1.066667,51.35,Dressel 20,Silchester,LIVNIMELISSI,16236,,,Silchester,UK
276,0.9,51.883333,Dressel 20,Colchester,CSEMPRONIPOLYCLITI,16962,,,Colchester,UK
277,-0.093145,51.514248,Amphora incerta,London,AME,30677,,,London,UK
278,-0.093145,51.514248,Dressel 20,London,QIM,16163,,,London,UK
279,-2.916667,53.2,Dressel 20,Chester,SF,15997,,,Chester,UK
280,0.716667,52.25,Dressel 20,Bury Saint Edmunds,LIDFIT,16122,,,Bury Saint Edmunds,UK
281,-0.8,50.833333,Dressel 20,Fishbourne,QCALMARSI,15844,,,Fishbourne,UK
282,-0.316667,51.616667,Amphora incerta,Stanmore,MAROF,20582,,,Stanmore,UK
283,1.333333,51.283333,Dressel 20,Edinburgh,MSP,20607,,,Edinburgh,UK
284,-1.083333,53.966667,Ignotus,York,MEICCVL,30712,,,York,UK
285,-2.016667,54.966667,Dressel 20,Corbridge,ALBMFMALCACIRC,15550,,,Corbridge,UK
286,-2.016667,54.966667,Dressel 20,Corbridge,VIRG,17098,,,Corbridge,UK
287,-0.25,51.833333,Gauloise,St. Albans,MATVRI,20583,,,St. Albans,UK
288,1.333333,51.283333,Dressel 20,Edinburgh,MNC,16454,,,Edinburgh,UK
289,-0.093145,51.514248,Dressel 20,London,QC,15728,,,London,UK
290,-3.833333,53.216667,Dressel 20,Caerhûn,GAF,15391,,,Caerhûn,UK
291,1.083333,51.266667,Dressel 20,Canterbury,PANNIRVFI,15559,,,Canterbury,UK
292,-1.983333,51.733333,Dressel 20,Cirencester,LAF,15401,,,Cirencester,UK
293,-2.016667,54.966667,Dressel 20,Corbridge,ENNIORVMIVLIORVM,15921,,,Corbridge,UK
294,-2.333333,55.016667,Dressel 20,Housesteads,DOM,16541,,,Housesteads,UK
295,-2.333333,54.966667,Dressel 20,Bardon Mill,LCM,18699,,,Bardon Mill,UK
296,-1.983333,51.733333,Dressel 20,Cirencester,MMCS,15813,,,Cirencester,UK
297,-1.133333,52.633333,Dressel 20,Leicester,CLPV,16332,,,Leicester,UK
298,-1.083333,53.966667,Dressel 20,York,AEMEVP,15526,,,York,UK
299,-2.65,52.666667,Dressel 20,Wroxeter,PSMARN,16776,,,Wroxeter,UK
300,-2.016667,54.966667,Dressel 20,Corbridge,ACIRGI,15508,,,Corbridge,UK
301,-0.093145,51.514248,Dressel 20,London,QMR,16391,,,London,UK
302,-1.619444,54.988056,Dressel 20,Newcastle upon Tyne,QMCALIAIDIS,16352,,,Newcastle upon Tyne,UK
303,-2.433333,53.183333,Dressel 20,Middlewich,QCOCL,15876,,,Middlewich,UK
304,1.333333,51.283333,Dressel 20,Edinburgh,FPC,16172,,,Edinburgh,UK
305,-1.083333,53.966667,Dressel 20,York,CIALB,16101,,,York,UK
306,-1.133333,52.633333,Dressel 20,Leicester,DOM,16558,,,Leicester,UK
307,-2.333333,54.966667,Dressel 20,Bardon Mill,PNN,33396,,,Bardon Mill,UK
308,-1.083333,53.966667,Dressel 20,York,QCC,15724,,,York,UK
309,0.35,52.266667,Dressel 20,Exning,LIVNIMELISSI,16234,,,Exning,UK
310,-1.983333,51.733333,Dressel 20,Cirencester,LQA,16638,,,Cirencester,UK
311,-1.216667,53.066667,Dressel 20,Newstead,LQS,16668,,,Newstead,UK
312,-0.093145,51.514248,Dressel 20,London,MIM,16130,,,London,UK
313,-0.093145,51.514248,Dressel 20,London,QMR,16387,,,London,UK
314,-1.583333,53.166667,Dressel 20,Derby,VIRG,17097,,,Derby,UK
315,-0.25,51.833333,Dressel 20,St. Albans,AC,17172,,,St. Albans,UK
316,-2.15,55.016667,Dressel 20,Chesters,LIVNIMELISSI,16261,,,Chesters,UK
317,-0.093145,51.514248,Dressel 20,London,LAT,15661,,,London,UK
318,0.9,51.883333,Dressel 20,Colchester,CANTONIQVIETI,15584,,,Colchester,UK
319,-0.093145,51.514248,Dressel 20,London,LVALERITROPHIMI,17058,,,London,UK
320,-2.15,55.016667,Dressel 20,Chesters,ACIRGI,15510,,,Chesters,UK
321,-0.093145,51.514248,Dressel 20,London,QIA,16097,,,London,UK
322,-0.093145,51.514248,Amphora incerta,London,LPCATVL,30716,,,London,UK
323,-4.064722,51.662222,Dressel 20,Loughor,CANTONIQVIETI,15600,,,Loughor,UK
324,-2.916667,53.2,Dressel 20,Chester,QME,16354,,,Chester,UK
325,-0.25,51.833333,Dressel 20,St. Albans,LMA,16347,,,St. Albans,UK
326,-1.083333,53.966667,Ignotus,York,DIVIC,30693,,,York,UK
327,-1.421389,54.987778,Dressel 20,South Shields,BVRB,15700,,,South Shields,UK
328,-0.25,51.833333,Dressel 20,St. Albans,LFC,15978,,,St. Albans,UK
329,-0.093145,51.514248,Dressel 20,London,MIM,16135,,,London,UK
330,-1.983333,51.733333,Dressel 20,Cirencester,LIVNIMELISSI,16294,,,Cirencester,UK
331,-2.533333,53.8,Dressel 20,Ribchester,M,17204,,,Ribchester,UK
332,-0.25,51.833333,Dressel 20,St. Albans,SAENB,16816,,,St. Albans,UK
333,-4.266667,53.15,Dressel 20,Caernarfon,LSPBO,16780,,,Caernarfon,UK
334,-0.093145,51.514248,Dressel 20,London,SVRIVS,16999,,,London,UK
335,-0.533333,53.233333,Dressel 20,Lincoln,SNI,16458,,,Lincoln,UK
336,-2.6,53.383333,Dressel 20,Warrington,LA,15429,,,Warrington,UK
337,-2.533333,53.8,Dressel 20,Ribchester,CA,17117,,,Ribchester,UK
338,-1.983333,51.733333,Dressel 20,Cirencester,LFO,16016,,,Cirencester,UK
339,-2.016667,54.966667,Dressel 20,Corbridge,DAP,15448,,,Corbridge,UK
340,-2.75,54.316667,Dressel 20,Watercrook,LFFPC,16002,,,Watercrook,UK
341,-2.916667,53.2,Dressel 20,Chester,QCCA,15732,,,Chester,UK
342,-1.066667,51.35,Dressel 20,Silchester,ALFO,16317,,,Silchester,UK
343,0.9,51.883333,Dressel 20,Colchester,CEC,15888,,,Colchester,UK
344,-2.333333,54.966667,Dressel 20,Bardon Mill,CLPV,18720,,,Bardon Mill,UK
345,-2.15,55.016667,Dressel 20,Chesters,SAXOFERRO,16858,,,Chesters,UK
346,-0.093145,51.514248,Dressel 20,London,CSEMPRONIPOLYCLITI,16952,,,London,UK
347,-2.75,54.316667,Dressel 20,Watercrook,VIRGINENSIA,17089,,,Watercrook,UK
348,-1.066667,51.35,Dressel 20,Silchester,LCM,15769,,,Silchester,UK
349,1.083333,51.266667,Dressel 20,Canterbury,SFE,15987,,,Canterbury,UK
350,-1.083333,53.966667,Dressel 20,York,CENNIHISPANI,16077,,,York,UK
351,0.9,51.883333,Dressel 20,Colchester,LFS,29365,,,Colchester,UK
352,1.333333,51.283333,Dressel 20,Edinburgh,MVRVC,17034,,,Edinburgh,UK
353,-2.016667,54.966667,Dressel 20,Corbridge,ENNIORVMIVLIORVM,15916,,,Corbridge,UK
354,-0.25,51.833333,Dressel 20,St. Albans,ICI,15761,,,St. Albans,UK
355,-2.958889,51.613333,Dressel 20,Caerleon,SEX,16987,,,Caerleon,UK
356,-2.333333,54.966667,Dressel 20,Bardon Mill,MFA,18748,,,Bardon Mill,UK
357,-2.016667,54.966667,Amphora incerta,Corbridge,PSAL,20725,,,Corbridge,UK
358,-2.333333,54.966667,Dressel 20,Bardon Mill,SCALCELS,33403,,,Bardon Mill,UK
359,-2.333333,54.966667,Dressel 20,Bardon Mill,MAEME,20449,,,Bardon Mill,UK
360,-0.783333,50.833333,Dressel 20,Chicester,QCR,15785,,,Chicester,UK
361,-0.093145,51.514248,Dressel 20,London,N,16488,,,London,UK
362,-1.983333,51.733333,Dressel 20,Cirencester,CAS,15476,,,Cirencester,UK
363,-1.983333,51.733333,Dressel 20,Cirencester,QND,16455,,,Cirencester,UK
364,-0.093145,51.514248,Dressel 20,London,QMR,16374,,,London,UK
365,-2.65,52.666667,Dressel 20,Wroxeter,CIALB,16108,,,Wroxeter,UK
366,-2.65,52.666667,Dressel 20,Wroxeter,T,16215,,,Wroxeter,UK
367,-2.8,52.1,Dressel 20,Credenhill,AEMPLA,15528,,,Credenhill,UK
368,-0.093145,51.514248,Mortarium,London,SANNVS,30723,,,London,UK
369,-0.533333,53.233333,Dressel 20,Lincoln,Q,17156,,,Lincoln,UK
370,1.333333,51.283333,Dressel 20,Edinburgh,CLPV,16331,,,Edinburgh,UK
371,0.9,51.883333,Dressel 20,Colchester,QSD,16752,,,Colchester,UK
372,0.9,51.883333,Dressel 20,Colchester,LCANT,15706,,,Colchester,UK
373,-1.083333,53.966667,Mortarium,York,IIIAIC,30737,,,York,UK
374,-3,53.416667,Dressel 20,Liverpool,STCA,17000,,,Liverpool,UK
375,-0.25,51.833333,Dressel 20,St. Albans,MSM,16774,,,St. Albans,UK
376,1.333333,51.283333,Dressel 20,Edinburgh,QIA,20697,,,Edinburgh,UK
377,-2.65,52.666667,Dressel 20,Wroxeter,MPF,16593,,,Wroxeter,UK
378,-0.093145,51.514248,Dressel 20,London,PMANISVP,16421,,,London,UK
379,-0.093145,51.514248,Dressel 20,London,QC,15719,,,London,UK
380,-0.093145,51.514248,Dressel 20,London,LCFPC,15744,,,London,UK
381,-0.093145,51.514248,Dressel 20,London,MAR,15467,,,London,UK
382,0.9,51.883333,Dressel 20,Colchester,SISEN,16191,,,Colchester,UK
383,-3.533333,50.7,Dressel 20,Exeter,MIMOPSI,16149,,,Exeter,UK
384,-2.016667,54.966667,Dressel 20,Corbridge,CMM,16363,,,Corbridge,UK
385,-2.15,55.016667,Dressel 20,Chesters,FSCIMNIANO,16920,,,Chesters,UK
386,-2.65,52.666667,Dressel 20,Wroxeter,QMR,16377,,,Wroxeter,UK
387,-3.283333,54.383333,Dressel 20,Beckfoot,MFF,16004,,,Beckfoot,UK
388,-2.333333,54.966667,Dressel 20,Bardon Mill,AP,33382,,,Bardon Mill,UK
389,0.9,51.883333,Dressel 20,Colchester,PSAVITI,16743,,,Colchester,UK
390,-2.766667,51.61,Dressel 20,Caerwent,SER,16979,,,Caerwent,UK
391,-1.133333,52.633333,Dressel 20,Leicester,ROMANI,16705,,,Leicester,UK
392,0.9,51.883333,Dressel 20,Colchester,LQS,16658,,,Colchester,UK
393,0.9,51.883333,Amphora incerta,Colchester,CSL,20510,,,Colchester,UK
394,-0.093145,51.514248,Dressel 20,London,BELLVCI,15697,,,London,UK
395,1.333333,51.283333,Dressel 20,Edinburgh,LFS,16021,,,Edinburgh,UK
396,-1.316667,51.016667,Dressel 20,Winchester,QAR,15522,,,Winchester,UK
397,-0.093145,51.514248,Dressel 20,London,FCON,15879,,,London,UK
398,-1.983333,51.733333,Dressel 20,Cirencester,QIM,16168,,,Cirencester,UK
399,1.333333,51.283333,Dressel 20,Edinburgh,QMR,16390,,,Edinburgh,UK
400,-1.216667,53.066667,Dressel 20,Newstead,LIQ,16174,,,Newstead,UK
401,-2.65,52.666667,Dressel 20,Wroxeter,LAP,15623,,,Wroxeter,UK
402,0.9,51.883333,Dressel 20,Colchester,ACIRGI,15512,,,Colchester,UK
403,-0.093145,51.514248,Dressel 20,London,PHILO,16053,,,London,UK
404,-0.25,51.833333,Dressel 20,St. Albans,STATIANIENSIA,16993,,,St. Albans,UK
405,-1.216667,53.066667,Dressel 20,Newstead,FCMA,15774,,,Newstead,UK
406,0.9,51.883333,Dressel 20,Colchester,SAXFER,16864,,,Colchester,UK
407,-2.533333,53.8,Dressel 20,Ribchester,AGRICOLAE,15549,,,Ribchester,UK
408,-0.093145,51.514248,Dressel 20,London,LSL,16939,,,London,UK
409,-2.216667,53.5,Dressel 20,Manchester,LMVE,16409,,,Manchester,UK
410,-2.958889,51.613333,Dressel 20,Caerleon,CANTONIQVIETI,15598,,,Caerleon,UK
411,-2.958889,51.613333,Dressel 20,Caerleon,LVALERITROPHIMI,17055,,,Caerleon,UK
412,0.9,51.883333,Dressel 20,Colchester,LSL,16941,,,Colchester,UK
413,-2.016667,54.966667,Dressel 20,Corbridge,SFE,15999,,,Corbridge,UK
414,-2.016667,54.966667,Dressel 20,Corbridge,LQS,16663,,,Corbridge,UK
415,-2.016667,54.966667,Dressel 20,Corbridge,CSTERTINIPAVLINI,15943,,,Corbridge,UK
416,-2.016667,54.966667,Dressel 20,Corbridge,FSCIMNIANO,16928,,,Corbridge,UK
417,-0.093145,51.514248,Dressel 20,London,CANTONIQVIETI,15612,,,London,UK
418,-2.016667,54.966667,Dressel 20,Corbridge,MMCS,15822,,,Corbridge,UK
419,-0.093145,51.514248,Dressel 20,London,PMH,16360,,,London,UK
420,-2.766667,51.61,Dressel 20,Caerwent,MSM,16769,,,Caerwent,UK
421,-2.666667,52.683333,Amphora incerta,Attingham,SPAH,30728,,,Attingham,UK
422,-1.748246,50.71376,Dressel 20,Hengistbury Head,BELLICANAPAGALENI,15694,,,Hengistbury Head,UK
423,-1.983333,51.733333,Dressel 20,Cirencester,FSCIMNIANO,16919,,,Cirencester,UK
424,-2.016667,54.966667,Dressel 20,Corbridge,ACIRGI,15491,,,Corbridge,UK
425,-0.093145,51.514248,Amphora incerta,London,CALBVCI,32486,,,London,UK
426,0.016667,51.9,Dressel 1A,Braughing,SIGNUM,32484,,,Braughing,UK
427,-0.093145,51.514248,Dressel 20,London,C,17111,,,London,UK
428,-2.916667,53.2,Dressel 20,Chester,ALFO,16313,,,Chester,UK
429,-2.958889,51.613333,Dressel 20,Caerleon,PMSC,16397,,,Caerleon,UK
430,1.333333,51.283333,Dressel 20,Edinburgh,QCR,15800,,,Edinburgh,UK
431,-1.316667,51.016667,Dressel 20,Winchester,PANNIRVFI,15556,,,Winchester,UK
432,-2.958889,51.613333,Dressel 20,Caerleon,DOM,16560,,,Caerleon,UK
433,0.9,51.883333,Dressel 20,Colchester,QCC,15731,,,Colchester,UK
434,-2.166667,55.166667,Dressel 20,West Woodburn,PCLODICELI,15869,,,West Woodburn,UK
435,-0.093145,51.514248,Dressel 20,London,LAT,15658,,,London,UK
436,-2.958889,51.613333,Dressel 20,Caerleon,GAF,15393,,,Caerleon,UK
437,0.533333,51.216667,Dressel 1,Boughton Monchelsea,EB,27981,,,Boughton Monchelsea,UK
438,0.9,51.883333,Dressel 20,Colchester,EV,16813,,,Colchester,UK
439,-1.066667,51.35,Dressel 20,Silchester,LCFPC,15747,,,Silchester,UK
440,-2.333333,54.966667,Dressel 20,Bardon Mill,LAFP,33389,,,Bardon Mill,UK
441,-0.093145,51.514248,Dressel 20,London,PMANISVP,16418,,,London,UK
442,-2.958889,51.613333,Dressel 20,Caerleon,IVEP,16217,,,Caerleon,UK
443,-2.016667,54.966667,Dressel 20,Corbridge,MFC,15979,,,Corbridge,UK
444,1.333333,51.283333,Dressel 20,Edinburgh,QANTR,15617,,,Edinburgh,UK
445,-0.093145,51.514248,Dressel 20,London,OPTA,16580,,,London,UK
446,-0.093145,51.514248,Dressel 20,London,MFN,16014,,,London,UK
447,-0.093145,51.514248,Dressel 20,London,QCCLE,15739,,,London,UK
448,-0.093145,51.514248,Dressel 20,London,CIVR,16220,,,London,UK
449,1.333333,51.283333,Dressel 20,Edinburgh,TCI,15650,,,Edinburgh,UK
450,0.9,51.883333,Dressel 20,Colchester,LFS,16026,,,Colchester,UK
451,-2.333333,54.966667,Dressel 20,Bardon Mill,LCFPC,20440,,,Bardon Mill,UK
452,-0.093145,51.514248,Ignotus,London,EROVIF,30698,,,London,UK
453,-2.15,55.016667,Dressel 20,Chesters,AEBEAEPE,17173,,,Chesters,UK
454,-0.093145,51.514248,Dressel 20,London,AAF,15382,,,London,UK
455,-1.083333,53.966667,Dressel 20,York,SAXOFERREO,16853,,,York,UK
456,-2.916667,53.2,Dressel 20,Chester,LSL,16759,,,Chester,UK
457,1.333333,51.283333,Dressel 20,Edinburgh,CLRCLR,17185,,,Edinburgh,UK
458,-2.970556,51.168333,Dressel 20,Puriton,VIEE,33419,,,Puriton,UK
459,1.333333,51.283333,Dressel 20,Edinburgh,SATVRNINI,16839,,,Edinburgh,UK
460,-0.25,51.833333,Dressel 20,St. Albans,MA,17137,,,St. Albans,UK
461,-2.65,52.666667,Dressel 20,Wroxeter,SCAV,16878,,,Wroxeter,UK
462,-1.216667,53.066667,Amphora incerta,Newstead,CSA,27980,,,Newstead,UK
463,-1.133333,52.633333,Dressel 20,Leicester,AMETHYST,15552,,,Leicester,UK
464,-2.333333,54.966667,Dressel 20,Bardon Mill,QSP,18729,,,Bardon Mill,UK
465,-2.766667,51.61,Dressel 20,Caerwent,MAEMRV,15535,,,Caerwent,UK
466,0.9,51.883333,Dressel 20,Colchester,CFAV,15953,,,Colchester,UK
467,1.333333,51.283333,Dressel 20,Edinburgh,QCH,20689,,,Edinburgh,UK
468,-1.083333,53.966667,Mortarium,York,NIACO,30737,,,York,UK
469,-2.016667,54.966667,Dressel 20,Corbridge,IIIMINICIOR,16433,,,Corbridge,UK
470,-2.65,52.666667,Dressel 20,Wroxeter,CSEMPRONIPOLYCLITI,16957,,,Wroxeter,UK
471,-1.083333,53.966667,Amphora incerta,York,TMF,30709,,,York,UK
472,-2.904167,51.7025,Dressel 20,Usk,PROCVLINI,16636,,,Usk,UK
473,-0.093145,51.514248,Dressel 20,London,BELLIB,15692,,,London,UK
474,-2.958889,51.613333,Dressel 20,Caerleon,LQS,16661,,,Caerleon,UK
475,-0.093145,51.514248,Dressel 20,London,SAN,16840,,,London,UK
476,-0.093145,51.514248,Dressel 20,London,S,17160,,,London,UK
477,-0.093145,51.514248,Dressel 20,London,PORLAR,15457,,,London,UK
478,-1.383333,54.083333,Dressel 20,Aldborough,ARVA,15638,,,Aldborough,UK
479,-2.333333,54.966667,Dressel 20,Bardon Mill,LIVNIMELISSI,16263,,,Bardon Mill,UK
480,-2.766667,51.61,Dressel 20,Caerwent,IMELISSI,16257,,,Caerwent,UK
481,-2.016667,54.966667,Dressel 20,Corbridge,CALLISTVS,15836,,,Corbridge,UK
482,-2.016667,54.966667,Dressel 20,Corbridge,ACIRGI,15493,,,Corbridge,UK
483,-2.933333,54.883333,Dressel 20,Carlisle,SCALENSIA,16874,,,Carlisle,UK
484,-1.133333,52.633333,Dressel 20,Leicester,LCM,15768,,,Leicester,UK
485,-0.116667,51.516667,Amphora incerta,Holborn,SENECIONIS,32485,,,Holborn,UK
486,-2.958889,51.613333,Dressel 20,Caerleon,CANTONIQVIETI,15605,,,Caerleon,UK
487,-0.533333,53.233333,Dressel 20,Lincoln,COL,16528,,,Lincoln,UK
488,-2.333333,54.966667,Imbrex,Bardon Mill,CO,33173,,,Bardon Mill,UK
489,-3.383333,51.95,Dressel 20,Brecon,PANNIRVFI,15557,,,Brecon,UK
490,1.333333,51.283333,Dressel 20,Edinburgh,TAA,15653,,,Edinburgh,UK
491,-1.066667,51.35,Dressel 20,Silchester,LIVNIMELISSI,16271,,,Silchester,UK
492,1.333333,51.283333,Dressel 20,Edinburgh,QCR,15789,,,Edinburgh,UK
493,-0.093145,51.514248,Amphora incerta,London,TICLVIITAC,30686,,,London,UK
494,-2.65,52.666667,Dressel 20,Wroxeter,PCLODICELI,15870,,,Wroxeter,UK
495,-1.216667,53.066667,Dressel 20,Newstead,MIM,16125,,,Newstead,UK
496,-2.6,53.383333,Dressel 20,Warrington,QPPHRYXI,16610,,,Warrington,UK
497,-0.093145,51.514248,Dressel 20,London,CFAV,15951,,,London,UK
498,-0.093145,51.514248,Dressel 20,London,CANTONIQVIETI,15608,,,London,UK
499,-1.133333,52.633333,Dressel 20,Leicester,CANTONIQVIETI,15586,,,Leicester,UK
500,-1.066667,51.35,Dressel 20,Silchester,ATTENIAECYTONIDIS,20458,,,Silchester,UK
501,-2.016667,54.966667,Dressel 20,Corbridge,LCFPC,15740,,,Corbridge,UK
502,-1.421389,54.987778,Dressel 20,South Shields,FC,17124,,,South Shields,UK
503,-0.093145,51.514248,Dressel 20,London,CALPVRNICALPVRN,15841,,,London,UK
504,-2.016667,54.966667,Dressel 20,Corbridge,LIVNIMELISSI,16279,,,Corbridge,UK
505,-1.4,50.9,Dressel 20,Southampton,TATILIASIATICI,15644,,,Southampton,UK
506,-0.25,51.833333,Dressel 20,St. Albans,LFCRES,15977,,,St. Albans,UK
507,-2.916667,53.2,Dressel 20,Chester,CANTONIQVIETI,15566,,,Chester,UK
508,-1.133333,52.633333,Dressel 20,Leicester,SAENIANES,16815,,,Leicester,UK
509,-1.133333,52.633333,Dressel 20,Leicester,IIIIEN,15937,,,Leicester,UK
510,-0.093145,51.514248,Dressel 20,London,EROTIS,15939,,,London,UK
511,-0.25,51.833333,Dressel 20,St. Albans,LIDFIT,16121,,,St. Albans,UK
512,-2.65,52.666667,Dressel 20,Wroxeter,LIVNIMELISSI,16298,,,Wroxeter,UK
513,-0.093145,51.514248,Dressel 20,London,SIR,16182,,,London,UK
514,-0.083333,51.5,Dressel 20,Southwark,LVALEVIT,17062,,,Southwark,UK
515,-1.383333,54.083333,Dressel 20,Aldborough,LCF,20494,,,Aldborough,UK
516,-0.25,51.833333,Dressel 20,St. Albans,LIVNIMELISSI,16297,,,St. Albans,UK
517,-1.983333,51.733333,Dressel 20,Cirencester,QCR,15799,,,Cirencester,UK
518,-2.916667,53.2,Dressel 20,Chester,QMR,16381,,,Chester,UK
519,1.333333,51.283333,Dressel 20,Edinburgh,QMR,16389,,,Edinburgh,UK
520,-1.083333,53.966667,Dressel 20,York,QCCE,15735,,,York,UK
521,-2.016667,54.966667,Dressel 20,Corbridge,FSCIMNIANO,16929,,,Corbridge,UK
522,-0.533333,53.233333,Dressel 20,Lincoln,MFS,16030,,,Lincoln,UK
523,-1.066667,51.35,Dressel 20,Silchester,PQHEHE,16060,,,Silchester,UK
524,-0.093145,51.514248,Dressel 20,London,SIREXOFANI,16184,,,London,UK
525,-2.25,51.833333,Dressel 20,Gloucester,LSSEPT,16805,,,Gloucester,UK
526,-2.65,52.666667,Dressel 20,Wroxeter,LFC,15968,,,Wroxeter,UK
527,0.9,51.883333,Dressel 20,Colchester,QS,16731,,,Colchester,UK
528,-0.093145,51.514248,Dressel 20,London,QIA,16089,,,London,UK
529,-0.093145,51.514248,Dressel 20,London,VENVSTI,17068,,,London,UK
530,-2.65,52.666667,Dressel 20,Wroxeter,LQS,16665,,,Wroxeter,UK
531,-2.916667,53.2,Dressel 20,Chester,A,15380,,,Chester,UK
532,-2.916667,53.2,Dressel 20,Chester,OC,17208,,,Chester,UK
533,-1.383333,54.083333,Mortarium,Aldborough,HSR,20538,,,Aldborough,UK
534,-0.093145,51.514248,Dressel 20,London,QIA,16099,,,London,UK
535,-1.983333,51.733333,Dressel 20,Cirencester,MMCS,15824,,,Cirencester,UK
536,1.333333,51.283333,Dressel 20,Edinburgh,CANTONIQVIETI,15580,,,Edinburgh,UK
537,-0.093145,51.514248,Dressel 20,London,QFV,16032,,,London,UK
538,-2.333333,54.966667,Dressel 20,Bardon Mill,LIVNIMELISSI,18715,,,Bardon Mill,UK
539,-0.093145,51.514248,Dressel 20,London,PORDV,16572,,,London,UK
540,0.9,51.883333,Dressel 20,Colchester,IVNIMISSIP,16283,,,Colchester,UK
541,-1.816667,53.916667,Dressel 20,Ilkley,CAMILISILVESTRI,15850,,,Ilkley,UK
542,1.333333,51.283333,Dressel 20,Edinburgh,SAENIANES,16810,,,Edinburgh,UK
543,-1.066667,51.35,Dressel 20,Silchester,MFTHRE,20590,,,Silchester,UK
544,-0.093145,51.514248,Dressel 20,London,ENNIORVMIVLIORVM,15936,,,London,UK
545,-1.066667,51.35,Dressel 20,Silchester,FSCIMNIANO,16932,,,Silchester,UK
546,-1.216667,53.066667,Dressel 20,Newstead,FMA,16426,,,Newstead,UK
547,-0.633333,53.75,Dressel 20,Newport,FSCIMNIANO,16885,,,Newport,UK
548,0.9,51.883333,Dressel 20,Colchester,SISEN,16190,,,Colchester,UK
549,1.15,52.316667,Dressel 20,Eye,ENNIORVMIVLIORVM,15917,,,Eye,UK
550,-2.016667,54.966667,Dressel 20,Corbridge,DOM,16534,,,Corbridge,UK
551,-1.35,53.716667,Dressel 20,Wakefield,MSEMPHEL,33421,,,Wakefield,UK
552,-0.316667,51.583333,Amphora incerta,Harrow,DARESFE,32326,,,Harrow,UK
553,-0.093145,51.514248,Dressel 20,London,PMANISVP,16420,,,London,UK
554,0.9,51.883333,Dressel 20,Colchester,ACIRGI,15489,,,Colchester,UK
555,-1.083333,53.966667,Mortarium,York,MARCIILI,30711,,,York,UK
556,-1.816667,53.916667,Dressel 20,Ilkley,VGLE,15867,,,Ilkley,UK
557,1.333333,51.283333,Dressel 20,Edinburgh,M,17136,,,Edinburgh,UK
558,0.9,51.883333,Dressel 20,Colchester,PORD,15885,,,Colchester,UK
559,-0.093145,51.514248,Dressel 20,London,CSEMPRONIPOLYCLITI,16948,,,London,UK
560,-1.133333,52.633333,Dressel 20,Leicester,NERVAE,16520,,,Leicester,UK
561,-1.066667,51.35,Dressel 20,Silchester,FSCIMNIANO,16913,,,Silchester,UK
562,-0.783333,50.833333,Dressel 20,Chicester,CIALB,16109,,,Chicester,UK
563,-2.933333,54.883333,Dressel 20,Carlisle,CALLAS,16353,,,Carlisle,UK
564,-0.783333,50.833333,Dressel 20,Chicester,SA,15385,,,Chicester,UK
565,-0.093145,51.514248,Amphora incerta,London,MCV,30691,,,London,UK
566,-1.083333,53.966667,Dressel 20,York,LIVNIMELISSI,16253,,,York,UK
567,-2.65,52.666667,Dressel 20,Wroxeter,FSCIMNIANO,16934,,,Wroxeter,UK
568,-1.983333,51.733333,Dressel 20,Cirencester,BELSI,15695,,,Cirencester,UK
569,-2.016667,54.966667,Dressel 20,Corbridge,LQS,16664,,,Corbridge,UK
570,1.333333,51.283333,Amphora incerta,Edinburgh,LIT,20654,,,Edinburgh,UK
571,-1.316667,51.016667,Dressel 20,Winchester,LIVNIMELISSI,16260,,,Winchester,UK
572,-0.093145,51.514248,Dressel 20,London,TATILIASIATICI,15646,,,London,UK
573,-2.016667,54.966667,Dressel 20,Corbridge,MESI,32746,,,Corbridge,UK
574,0.9,51.883333,Dressel 20,Colchester,PNN,16482,,,Colchester,UK
575,-2.333333,54.966667,Dressel 20,Bardon Mill,GRA,16689,,,Bardon Mill,UK
576,-2.016667,54.966667,Dressel 20,Corbridge,SNR,16504,,,Corbridge,UK
577,-2.766667,51.61,Dressel 20,Caerwent,APM,16598,,,Caerwent,UK
578,-2.933333,54.883333,Dressel 20,Carlisle,CANTONIQVIETI,32255,,,Carlisle,UK
579,-2.016667,54.966667,Dressel 20,Corbridge,L,32747,,,Corbridge,UK
580,-0.093145,51.514248,Dressel 20,London,ROMANI,16715,,,London,UK
581,0.9,51.883333,Dressel 20,Colchester,SLTSAXFERR,16338,,,Colchester,UK
582,-0.25,51.833333,Dressel 20,St. Albans,TALFM,16304,,,St. Albans,UK
583,-1.316667,51.016667,Dressel 20,Winchester,MSSI,16278,,,Winchester,UK
584,-2.016667,54.966667,Dressel 20,Corbridge,CMM,16366,,,Corbridge,UK
585,0.9,51.883333,Dressel 20,Colchester,PNN,16494,,,Colchester,UK
586,-2.65,52.666667,Dressel 20,Wroxeter,CVVA,17039,,,Wroxeter,UK
587,0.9,51.883333,Dressel 20,Colchester,PCHO,15760,,,Colchester,UK
588,-2.916667,53.2,Dressel 20,Chester,AGRICOLAE,15540,,,Chester,UK
589,-1.421389,54.987778,Dressel 20,South Shields,COLOBRARIA,15878,,,South Shields,UK
590,-0.093145,51.514248,Dressel 20,London,CSTERTINIPAVLLINI,16994,,,London,UK
591,-2.016667,54.966667,Dressel 20,Corbridge,CAPF,15627,,,Corbridge,UK
592,-1.421389,54.987778,Dressel 20,South Shields,CVF,17026,,,South Shields,UK
593,-0.093145,51.514248,Dressel 20,London,CANTONIQVIETI,15611,,,London,UK
594,-0.093145,51.514248,Dressel 20,London,VRITILIL,17105,,,London,UK
595,-0.8,50.833333,Amphora incerta,Fishbourne,SIR,32355,,,Fishbourne,UK
596,-2.333333,54.966667,Dressel 20,Bardon Mill,POROCODV,18703,,,Bardon Mill,UK
597,-0.093145,51.514248,Dressel 20,London,SAENIANES,16812,,,London,UK
598,-2.15,55.016667,Dressel 20,Chesters,QCC,15727,,,Chesters,UK
599,-1.983333,51.733333,Dressel 20,Cirencester,MIARV,16082,,,Cirencester,UK
600,-2.016667,54.966667,Dressel 20,Corbridge,ENNIORVMIVLIORVM,15919,,,Corbridge,UK
601,-0.093145,51.514248,Dressel 20,London,ACIRGI,15495,,,London,UK
602,-0.25,51.833333,Dressel 20,St. Albans,MF,15980,,,St. Albans,UK
603,-2.016667,54.966667,Dressel 20,Corbridge,LFC,15971,,,Corbridge,UK
604,-0.25,51.833333,Dressel 20,St. Albans,MMCS,15821,,,St. Albans,UK
605,-2.65,52.666667,Dressel 20,Wroxeter,QIM,16165,,,Wroxeter,UK
606,-0.093145,51.514248,Dressel 20,London,PIRP,16181,,,London,UK
607,-0.25,51.833333,Dressel 20,St. Albans,MS,16783,,,St. Albans,UK
608,-2.333333,54.966667,Dressel 20,Bardon Mill,PORTAR,18726,,,Bardon Mill,UK
609,-3.433333,52.516667,Dressel 20,Caersws,O,17207,,,Caersws,UK
610,0.9,51.883333,Dressel 20,Colchester,POROCODV,16575,,,Colchester,UK
611,-0.093145,51.514248,Dressel 20,London,ACIRGI,15502,,,London,UK
612,-0.093145,51.514248,Dressel 20,London,QND,16456,,,London,UK
613,0.9,51.883333,Dressel 20,Colchester,SCL,20732,,,Colchester,UK
614,-1.066667,51.35,Dressel 20,Silchester,LSSEPT,16807,,,Silchester,UK
615,-2.016667,54.966667,Dressel 20,Corbridge,SEMETPPI,15903,,,Corbridge,UK
616,-1.983333,51.733333,Dressel 20,Cirencester,CAMILIMELISSI,15849,,,Cirencester,UK
617,1.333333,51.283333,Dressel 20,Edinburgh,OIA,17209,,,Edinburgh,UK
618,0.9,51.883333,Dressel 20,Colchester,LFS,16023,,,Colchester,UK
619,0.9,51.883333,Dressel 20,Colchester,DFN,16013,,,Colchester,UK
620,-1.316667,51.016667,Dressel 20,Winchester,PCLODICELI,15875,,,Winchester,UK
621,-2.933333,54.9,Dressel 20,Stanwix,LQS,16650,,,Stanwix,UK
622,-1.748246,50.71376,Dressel 20,Hengistbury Head,QSERVIBROC,16996,,,Hengistbury Head,UK
623,-1.383333,54.083333,Mortarium,Aldborough,ANDIDF,30747,,,Aldborough,UK
624,-2.016667,54.966667,Dressel 20,Corbridge,VIRAV,25462,,,Corbridge,UK
625,-2.65,52.666667,Dressel 20,Wroxeter,LF,17130,,,Wroxeter,UK
626,-0.093145,51.514248,Dressel 20,London,SATVRNINI,16835,,,London,UK
627,-0.093145,51.514248,Dressel 20,London,LSS,16803,,,London,UK
628,-2.333333,54.966667,Dressel 20,Bardon Mill,ENNIORVMIVLIORVM,33388,,,Bardon Mill,UK
629,1.333333,51.283333,Dressel 20,Edinburgh,HERMES,16064,,,Edinburgh,UK
630,-2.333333,54.966667,Dressel 20,Bardon Mill,QIM,18710,,,Bardon Mill,UK
631,-0.093145,51.514248,Dressel 20,London,LCANT,15705,,,London,UK
632,-0.093145,51.514248,Dressel 20,London,LVALERITERNI,17045,,,London,UK
633,-1.748246,50.71376,Amphora incerta,Hengistbury Head,CRISPIN,20505,,,Hengistbury Head,UK
634,-2.65,52.666667,Dressel 20,Wroxeter,PORPS,16726,,,Wroxeter,UK
635,-1.216667,53.066667,Dressel 20,Newstead,PA,17142,,,Newstead,UK
636,-1.083333,53.966667,Dressel 20,York,MAEMRV,15532,,,York,UK
637,-0.093145,51.514248,Dressel 20,London,SATVRNINI,16847,,,London,UK
638,-2.016667,54.966667,Dressel 20,Corbridge,OFGRAROP,16688,,,Corbridge,UK
639,-2.916667,53.2,Amphora incerta,Chester,VETTACI,17069,,,Chester,UK
640,-0.093145,51.514248,Dressel 20,London,LIT,16203,,,London,UK
641,-0.533333,53.233333,Dressel 20,Lincoln,LMVE,16407,,,Lincoln,UK
642,-2.016667,54.966667,Dressel 20,Corbridge,FSCIMNIANO,16930,,,Corbridge,UK
643,1.083333,51.266667,Dressel 20,Canterbury,SATVRNINI,16841,,,Canterbury,UK
644,-2.916667,53.2,Dressel 20,Chester,LME,16356,,,Chester,UK
645,1.333333,51.283333,Dressel 20,Edinburgh,PNN,16483,,,Edinburgh,UK
646,-2.016667,54.966667,Dressel 20,Corbridge,GE,32745,,,Corbridge,UK
647,0.9,51.883333,Dressel 20,Colchester,SVR,16998,,,Colchester,UK
648,1.333333,51.283333,Dressel 20,Edinburgh,SFE,15993,,,Edinburgh,UK
649,-2.333333,54.966667,Dressel 20,Bardon Mill,LAVRELIGERMANI,18693,,,Bardon Mill,UK
650,-2.65,52.666667,Dressel 20,Wroxeter,CIALB,16110,,,Wroxeter,UK
651,1.333333,51.283333,Dressel 20,Edinburgh,PAH,15418,,,Edinburgh,UK
652,-0.083333,51.5,Dressel 20,Southwark,CMARISILVANI,16424,,,Southwark,UK
653,-2.916667,53.2,Dressel 20,Chester,CANTONIQVIETI,15591,,,Chester,UK
654,-1.083333,53.966667,Dressel 20,York,ACIRGI,15488,,,York,UK
655,-0.093145,51.514248,Dressel 20,London,ROMA,16709,,,London,UK
656,-0.25,51.833333,Dressel 20,St. Albans,CAPACAPN,15624,,,St. Albans,UK
657,-0.6,53.65,Dressel 20,Winterton,MAERVF,15529,,,Winterton,UK
658,-1.619444,54.988056,Dressel 20,Newcastle upon Tyne,CIB,16115,,,Newcastle upon Tyne,UK
659,-0.533333,53.233333,Dressel 20,Lincoln,IIIMINICIOR,16436,,,Lincoln,UK
660,0.9,51.883333,Dressel 20,Colchester,PNN,16477,,,Colchester,UK
661,-2.016667,54.966667,Dressel 20,Corbridge,SPP,16606,,,Corbridge,UK
662,-1.066667,51.35,Dressel 20,Silchester,ODV,16573,,,Silchester,UK
663,-0.093145,51.514248,Dressel 20,London,QIM,16160,,,London,UK
664,0.9,51.883333,Dressel 20,Colchester,LFS,16020,,,Colchester,UK
665,-0.093145,51.514248,Dressel 20,London,PSA,16736,,,London,UK
666,-0.093145,51.514248,Dressel 20,London,BFIG,15699,,,London,UK
667,-0.783333,50.833333,Dressel 2-4 Cilician,Chicester,SVR,33177,,,Chicester,UK
668,-2.333333,54.966667,Dressel 20,Bardon Mill,GRA,18727,,,Bardon Mill,UK
669,-3.433333,52.516667,Dressel 20,Caersws,HISPANI,16069,,,Caersws,UK
670,0.9,51.883333,Dressel 20,Colchester,SAENIANES,16817,,,Colchester,UK
671,-0.093145,51.514248,Dressel 20,London,CANTONIQVIETI,15595,,,London,UK
672,-2.333333,55.016667,Dressel 20,Housesteads,LIVNIMELISSI,16267,,,Housesteads,UK
673,-0.283333,52.116667,Dressel 20,Sandy,PORLATPA,15620,,,Sandy,UK
674,-2.016667,54.966667,Dressel 20,Corbridge,DOM,16535,,,Corbridge,UK
675,-1.983333,51.733333,Dressel 20,Cirencester,ANAR,16452,,,Cirencester,UK
676,-2.25,51.833333,Dressel 20,Gloucester,REP,15905,,,Gloucester,UK
677,-1.983333,51.733333,Dressel 20,Cirencester,GEMELLI,15856,,,Cirencester,UK
678,0.433333,51.316667,Africana,Snodland,TEPSVRI,17009,,,Snodland,UK
679,-2.333333,54.966667,Imbrex,Bardon Mill,CIIORIN,33172,,,Bardon Mill,UK
680,0.9,51.883333,Dressel 20,Colchester,SATVRNINI,16848,,,Colchester,UK
681,-0.093145,51.514248,Dressel 20,London,CIALB,16102,,,London,UK
682,-0.093145,51.514248,Dressel 20,London,POLAR,15460,,,London,UK
683,-0.25,51.833333,Dressel 20,St. Albans,APIAPM,17109,,,St. Albans,UK
684,-0.533333,53.233333,Dressel 20,Lincoln,POROCODV,28045,,,Lincoln,UK
685,-2.333333,54.966667,Dressel 20,Bardon Mill,QSP,16794,,,Bardon Mill,UK
686,-2.678333,51.007222,Dressel 20,Ilchester,CEFP,15896,,,Ilchester,UK
687,-2.916667,53.2,Dressel 20,Chester,SCALENSIAGEME,16871,,,Chester,UK
688,1.333333,51.283333,Dressel 20,Edinburgh,SATVRNINI,16838,,,Edinburgh,UK
689,-2.65,52.666667,Dressel 20,Wroxeter,SAXFER,16865,,,Wroxeter,UK
690,-1.083333,53.966667,Dressel 20,York,PNN,16476,,,York,UK
691,0.9,51.883333,Dressel 20,Colchester,PYR,16782,,,Colchester,UK
692,0.033333,52.95,Dressel 20,Fishtoft,GAF,15392,,,Fishtoft,UK
693,-1.066667,51.35,Dressel 20,Silchester,LQS,16672,,,Silchester,UK
694,-0.533333,53.233333,Dressel 20,Lincoln,CMM,16368,,,Lincoln,UK
695,-2.8,52.1,Dressel 20,Credenhill,LIT,16194,,,Credenhill,UK
696,-1.066667,51.35,Dressel 20,Silchester,GAVFL,15480,,,Silchester,UK
697,-2.333333,54.966667,Dressel 20,Bardon Mill,QSP,18730,,,Bardon Mill,UK
698,1.333333,51.283333,Dressel 20,Edinburgh,QSP,16788,,,Edinburgh,UK
699,-1.133333,52.633333,Dressel 20,Leicester,LCF,15742,,,Leicester,UK
700,-2.016667,54.966667,Dressel 20,Corbridge,QIA,16090,,,Corbridge,UK
701,-2.333333,54.966667,Dressel 20,Bardon Mill,Q,18741,,,Bardon Mill,UK
702,-1.683333,54.533333,Dressel 20,Piercebridge,LIVNIMELISSI,16246,,,Piercebridge,UK
703,-1.083333,53.966667,Dressel 20,York,LIT,16198,,,York,UK
704,-1.083333,53.966667,Dressel 20,York,ARAXIFM,15683,,,York,UK
705,-2.016667,54.966667,Dressel 20,Corbridge,SQF,16649,,,Corbridge,UK
706,-0.093145,51.514248,Dressel 20,London,CFVA,16034,,,London,UK
707,-2.333333,54.966667,Dressel 20,Bardon Mill,QFG,18706,,,Bardon Mill,UK
708,-0.25,51.833333,Dressel 20,St. Albans,SAENIANES,16826,,,St. Albans,UK
709,-2.916667,53.2,Dressel 20,Chester,FSCIMNIANO,16907,,,Chester,UK
710,-2.016667,54.966667,Dressel 20,Corbridge,LIT,16202,,,Corbridge,UK
711,0.9,51.883333,Dressel 20,Colchester,CLK,15863,,,Colchester,UK
712,-2.933333,54.883333,Dressel 20,Carlisle,FSCIMNIANO,16909,,,Carlisle,UK
713,-1.983333,51.733333,Dressel 20,Cirencester,DOM,16548,,,Cirencester,UK
714,0.9,51.883333,Dressel 20,Colchester,SATVRNINI,16842,,,Colchester,UK
715,-2.016667,54.966667,Dressel 20,Corbridge,QMCALIAIDIS,16351,,,Corbridge,UK
716,-2.333333,54.966667,Dressel 20,Bardon Mill,SCALHER,33404,,,Bardon Mill,UK
717,-2.65,52.666667,Dressel 20,Wroxeter,PO,17146,,,Wroxeter,UK
718,-2.933333,54.883333,Dressel 20,Carlisle,LIT,16212,,,Carlisle,UK
719,-0.533333,53.233333,Dressel 20,Lincoln,LIVNIMELISSI,16243,,,Lincoln,UK
720,-0.093145,51.514248,Dressel 20,London,CSEMPRONIPOLYCLITI,16960,,,London,UK
721,-2.566667,54.983333,Dressel 20,Gilsland,SER,17162,,,Gilsland,UK
722,-2.983333,51.583333,Dressel 20,Newport,MMCS,15802,,,Newport,UK
723,-1.983333,51.733333,Dressel 20,Cirencester,PNN,16478,,,Cirencester,UK
724,-0.093145,51.514248,Dressel 20,London,ALFO,16308,,,London,UK
725,-0.093145,51.514248,Dressel 20,London,QCR,15792,,,London,UK
726,-1.083333,53.966667,Amphora incerta,York,VDAP,30751,,,York,UK
727,-2.916667,53.2,Dressel 20,Chester,PNN,16479,,,Chester,UK
728,-2.016667,54.966667,Dressel 20,Corbridge,PNN,16474,,,Corbridge,UK
729,-2.333333,54.966667,Dressel 20,Bardon Mill,PNN,33397,,,Bardon Mill,UK
730,-0.25,51.833333,Dressel 20,St. Albans,LIVNIMELISSI,16254,,,St. Albans,UK
731,-2.333333,54.966667,Dressel 20,Bardon Mill,L,18740,,,Bardon Mill,UK
732,1.333333,51.283333,Dressel 20,Edinburgh,SCALENSIA,16869,,,Edinburgh,UK
733,-1.383333,54.083333,Dressel 20,Aldborough,CIB,16114,,,Aldborough,UK
734,-0.093145,51.514248,Dressel 20,London,OPTATIA,16583,,,London,UK
735,-2.6,53.383333,Dressel 20,Warrington,LLV,17131,,,Warrington,UK
736,-0.093145,51.514248,Dressel 20,London,LIVNIMELISSI,16244,,,London,UK
737,-2.916667,53.2,Dressel 20,Chester,CMM,16362,,,Chester,UK
738,-1.666667,54.65,Dressel 20,Bishop Auckland,LFC,15964,,,Bishop Auckland,UK
739,0.9,51.883333,Dressel 20,Colchester,CIVNCTINCIVNCITIN,15857,,,Colchester,UK
740,-0.25,51.833333,Dressel 20,St. Albans,AENA,17176,,,St. Albans,UK
741,-2.016667,54.966667,Dressel 20,Corbridge,MCSR,15829,,,Corbridge,UK
742,-0.533333,53.233333,Ignotus,Lincoln,SARR,30724,,,Lincoln,UK
743,1.083333,51.266667,Dressel 20,Canterbury,RI,17215,,,Canterbury,UK
744,-0.093145,51.514248,Dressel 20,London,CANTONIQVIETI,15610,,,London,UK
745,-2.016667,54.966667,Dressel 20,Corbridge,ENNIORVMIVLIORVM,15933,,,Corbridge,UK
746,-1.633333,54.366667,Dressel 20,Catterick,AVRELIHERACLAE,15677,,,Catterick,UK
747,-1.383333,54.083333,Dressel 20,Aldborough,CEFP,15901,,,Aldborough,UK
748,-2.933333,54.883333,Dressel 20,Carlisle,AE,33314,,,Carlisle,UK
749,-0.093145,51.514248,Dressel 20,London,GSP,16777,,,London,UK
750,-0.093145,51.514248,Dressel 20,London,LQS,16667,,,London,UK
751,-3,53.166667,Dressel 20,Broughton,MP,16282,,,Broughton,UK
752,1.333333,51.283333,Amphora incerta,Edinburgh,MSECFECIT,20608,,,Edinburgh,UK
753,-2.433333,50.716667,Dressel 20,Dorchester,M,17203,,,Dorchester,UK
754,-0.093145,51.514248,Amphora incerta,London,ADBVCIVSF,32487,,,London,UK
755,-0.093145,51.514248,Dressel 20,London,EXOFQRF,16863,,,London,UK
756,-0.093145,51.514248,Dressel 20,London,CIVLISVRI,16227,,,London,UK
757,-2.333333,54.966667,Dressel 20,Bardon Mill,SEI,33406,,,Bardon Mill,UK
758,-2.216667,53.5,Amphora incerta,Manchester,M,20577,,,Manchester,UK
759,0.9,51.883333,Dressel 20,Colchester,AFGRISSVS,15537,,,Colchester,UK
760,0.9,51.883333,Dressel 20,Colchester,LIVNIMELISSI,16284,,,Colchester,UK
761,-2.65,52.666667,Dressel 20,Wroxeter,RIVESRM,16694,,,Wroxeter,UK
762,-0.093145,51.514248,Mortarium,London,PPRB,30720,,,London,UK
763,-1.133333,52.633333,Dressel 20,Leicester,SAENIANES,16811,,,Leicester,UK
764,-2.916667,53.2,Dressel 20,Chester,R,17214,,,Chester,UK
765,-0.8,50.833333,Dressel 20,Fishbourne,PHILO,16050,,,Fishbourne,UK
766,1.333333,51.283333,Dressel 20,Edinburgh,CANTONIQVIETI,15579,,,Edinburgh,UK
767,-1.816667,53.916667,Dressel 20,Ilkley,CEFP,15897,,,Ilkley,UK
768,-1.383333,54.083333,Dressel 20,Aldborough,RIVS,16697,,,Aldborough,UK
769,1.333333,51.283333,Dressel 20,Edinburgh,QVINTSI,16681,,,Edinburgh,UK
770,0.716667,52.25,Dressel 20,Bury Saint Edmunds,SNR,16511,,,Bury Saint Edmunds,UK
771,0,51.916667,Dressel 20,Westmill,PRA,16691,,,Westmill,UK
772,-2.533333,53.8,Dressel 20,Ribchester,SLP,16322,,,Ribchester,UK
773,-1.133333,52.633333,Dressel 20,Leicester,QSR,16756,,,Leicester,UK
774,-0.093145,51.514248,Dressel 20,London,CCRASSISEMNI,15880,,,London,UK
775,-2.766667,51.61,Dressel 20,Caerwent,SER,16980,,,Caerwent,UK
776,-2.016667,54.966667,Dressel 20,Corbridge,MLFCTL,16303,,,Corbridge,UK
777,-0.093145,51.514248,Amphora incerta,London,SIGNUM,25469,,,London,UK
778,-0.093145,51.514248,Dressel 20,London,PSAVITI,16749,,,London,UK
779,1.333333,51.283333,Dressel 20,Edinburgh,MPM,16601,,,Edinburgh,UK
780,-2.016667,54.966667,Dressel 20,Corbridge,MNS,16516,,,Corbridge,UK
781,-2.916667,53.2,Dressel 20,Chester,MSFPC,16754,,,Chester,UK
782,-0.093145,51.514248,Dressel 20,London,SAENIANES,16818,,,London,UK
783,1.333333,51.283333,Dressel 20,Edinburgh,IRM,16041,,,Edinburgh,UK
784,-2.766667,51.61,Dressel 20,Caerwent,LAVRELIGERMANI,15673,,,Caerwent,UK
785,-1.983333,51.733333,Dressel 20,Cirencester,HISPANI,16071,,,Cirencester,UK
786,-0.093145,51.514248,Mortarium,London,PAVLVSF,30719,,,London,UK
787,-2.016667,54.966667,Dressel 20,Corbridge,VIRGINENSIA,17086,,,Corbridge,UK
788,-2.933333,54.883333,Dressel 20,Carlisle,VIRAV,17081,,,Carlisle,UK
789,-0.093145,51.514248,Dressel 20,London,QCC,15730,,,London,UK
790,-2.916667,53.2,Dressel 20,Chester,SCALCELS,16876,,,Chester,UK
791,-1.316667,51.016667,Dressel 20,Winchester,PASSERARIA,16621,,,Winchester,UK
792,-0.093145,51.514248,Dressel 20,London,PVIII,17150,,,London,UK
793,-2.15,55.016667,Dressel 20,Chesters,LCM,15767,,,Chesters,UK
794,0.9,51.883333,Dressel 20,Colchester,CALLISTVS,16751,,,Colchester,UK
795,-0.083333,51.5,Dressel 20,Southwark,CELSI,15854,,,Southwark,UK
796,-2.916667,53.2,Dressel 20,Chester,ROMANI,16703,,,Chester,UK
797,-0.093145,51.514248,Dressel 20,London,PORLAR,15453,,,London,UK
798,1.333333,51.283333,Dressel 20,Edinburgh,ENNIORVMIVLIORVM,15934,,,Edinburgh,UK
799,-2.65,52.666667,Dressel 20,Wroxeter,LSL,16942,,,Wroxeter,UK
800,-1.983333,51.733333,Dressel 20,Cirencester,IMIP,16280,,,Cirencester,UK
801,-2.6,53.383333,Dressel 20,Warrington,AIM,37055,,,Warrington,UK
802,0.9,51.883333,Dressel 20,Colchester,LVA,17014,,,Colchester,UK
803,1.333333,51.283333,Dressel 20,Edinburgh,ACIRGI,15487,,,Edinburgh,UK
804,-1.083333,53.966667,Dressel 20,York,QAGEMELLI,15405,,,York,UK
805,-0.093145,51.514248,Dressel 20,London,LVIB,17071,,,London,UK
806,-0.093145,51.514248,Mortarium,London,LLVRIVSPRISCVS,30707,,,London,UK
807,1.333333,51.283333,Dressel 20,Edinburgh,MAEME,15524,,,Edinburgh,UK
808,-0.093145,51.514248,Amphora incerta,London,RVFSANI,30721,,,London,UK
809,-2.958889,51.613333,Dressel 20,Caerleon,SFE,15998,,,Caerleon,UK
810,-2.916667,53.2,Dressel 20,Chester,QIA,16083,,,Chester,UK
811,-2.333333,54.966667,Dressel 20,Bardon Mill,QIMS,33400,,,Bardon Mill,UK
812,-0.093145,51.514248,Dressel 20,London,SAENIANES,17067,,,London,UK
813,-1.421389,54.987778,Dressel 20,South Shields,QPPHRYXI,16609,,,South Shields,UK
814,-0.25,51.833333,Dressel 20,St. Albans,QMR,16393,,,St. Albans,UK
815,0.9,51.883333,Dressel 20,Colchester,SI,16192,,,Colchester,UK
816,-0.093145,51.514248,Amphora incerta,London,AIOXICI,30735,,,London,UK
817,-2.333333,54.966667,Dressel 20,Bardon Mill,TANP,15447,,,Bardon Mill,UK
818,-0.093145,51.514248,Dressel 20,London,MI,16134,,,London,UK
819,-2.016667,54.966667,Dressel 20,Corbridge,AVRELIHERACLAE,15680,,,Corbridge,UK
820,-2.15,55.016667,Dressel 20,Chesters,MAS,17139,,,Chesters,UK
821,0.9,51.883333,Dressel 20,Colchester,LVARIONIS,17066,,,Colchester,UK
822,-1.083333,53.966667,Dressel 20,York,HISPANI,16075,,,York,UK
823,-2.016667,54.966667,Dressel 20,Corbridge,ACIRGI,15492,,,Corbridge,UK
824,-2.333333,54.966667,Dressel 20,Bardon Mill,LIVNIMELISSI,18717,,,Bardon Mill,UK
825,-2.333333,54.966667,Dressel 20,Bardon Mill,CANTONIQVIETI,33384,,,Bardon Mill,UK
826,-2.65,52.666667,Dressel 20,Wroxeter,QSEPSA,20707,,,Wroxeter,UK
827,-2.333333,54.966667,Dressel 20,Bardon Mill,AIF,18737,,,Bardon Mill,UK
828,-2.958889,51.613333,Dressel 20,Caerleon,HERMES,16065,,,Caerleon,UK
829,-0.093145,51.514248,Dressel 20,London,AGRICOLAE,15547,,,London,UK
830,-1.083333,53.966667,Dressel 20,York,VNMELISI,16264,,,York,UK
831,-0.093145,51.514248,Amphora incerta,London,ANTIOC,30679,,,London,UK
832,-1.316667,51.016667,Dressel 20,Winchester,SOND,33309,,,Winchester,UK
833,-1.833333,52.95,Dressel 20,Rocester,LAP,15622,,,Rocester,UK
834,-1.619444,54.988056,Dressel 20,Newcastle upon Tyne,QIA,16218,,,Newcastle upon Tyne,UK
835,-3.533333,50.7,Dressel 20,Exeter,ALFO,16311,,,Exeter,UK
836,-2.883333,53.066667,Dressel 20,Holt,QCCC,15734,,,Holt,UK
837,0.9,51.883333,Dressel 20,Colchester,MIM,16131,,,Colchester,UK
838,1.333333,51.283333,Dressel 20,Edinburgh,POLAR,15461,,,Edinburgh,UK
839,0.9,51.883333,Dressel 20,Colchester,IIIMINICIOR,16431,,,Colchester,UK
840,-2.333333,54.966667,Dressel 20,Bardon Mill,QCC,18696,,,Bardon Mill,UK
841,-0.166667,52.316667,Dressel 20,Godmanchester,HERMES,16063,,,Godmanchester,UK
842,-2.016667,54.966667,Dressel 20,Corbridge,MAMMAS,15440,,,Corbridge,UK
843,-2.65,52.666667,Dressel 20,Wroxeter,PANNIRVFI,15560,,,Wroxeter,UK
844,-0.093145,51.514248,Dressel 20,London,QND,28278,,,London,UK
845,1.083333,51.266667,Dressel 20,Canterbury,DOM,16531,,,Canterbury,UK
846,-0.093145,51.514248,Dressel 20,London,ROMANI,16698,,,London,UK
847,1.333333,51.283333,Dressel 20,Edinburgh,POROCODV,16574,,,Edinburgh,UK
848,-2.016667,54.966667,Dressel 20,Corbridge,HERMES,16062,,,Corbridge,UK
849,-1.066667,51.35,Dressel 20,Silchester,PQHEHE,16058,,,Silchester,UK
850,-2.016667,54.966667,Dressel 20,Corbridge,LCM,15766,,,Corbridge,UK
851,-0.093145,51.514248,Dressel 20,London,CFSAR,16031,,,London,UK
852,-2.016667,54.966667,Dressel 20,Corbridge,QCCL,15721,,,Corbridge,UK
853,-0.093145,51.514248,Dressel 20,London,CIREXOFARR,20496,,,London,UK
854,-1.983333,51.733333,Dressel 20,Cirencester,PIVLICRISPI,16223,,,Cirencester,UK
855,-1.383333,54.083333,Dressel 20,Aldborough,LCFPC,15750,,,Aldborough,UK
856,0.383333,52.583333,Dressel 20,Denver,LIT,16209,,,Denver,UK
857,0.9,51.883333,Dressel 20,Colchester,MAELIALEXANDRI,15516,,,Colchester,UK
858,0.9,51.883333,Dressel 20,Colchester,PSAVITI,25428,,,Colchester,UK
859,0.9,51.883333,Amphora incerta,Colchester,AQA,20650,,,Colchester,UK
860,-2.958889,51.613333,Dressel 20,Caerleon,COI,16526,,,Caerleon,UK
861,-0.093145,51.514248,Dressel 20,London,SCALENSIAACCI,16881,,,London,UK
862,-2.65,52.666667,Dressel 20,Wroxeter,IN,16444,,,Wroxeter,UK
863,-1.983333,51.733333,Dressel 20,Cirencester,FCVCV,15883,,,Cirencester,UK
864,-1.216667,53.066667,Dressel 20,Newstead,PCFCLBE,15756,,,Newstead,UK
865,-0.093145,51.514248,Dressel 20,London,CAMPGALOD,15553,,,London,UK
866,-1.816667,53.916667,Dressel 20,Ilkley,QCC,15723,,,Ilkley,UK
867,-0.093145,51.514248,Dressel 20,London,CIREXOFNS,16177,,,London,UK
868,-2.216667,53.5,Dressel 20,Manchester,QNTI,16680,,,Manchester,UK
869,-2.333333,55.016667,Dressel 20,Housesteads,LFO,15752,,,Housesteads,UK
870,-2.916667,53.2,Dressel 20,Chester,QSP,16798,,,Chester,UK
871,-2.958889,51.613333,Dressel 20,Caerleon,CAPF,15633,,,Caerleon,UK
872,-2.933333,54.883333,Dressel 20,Carlisle,CANTIQVIP,15602,,,Carlisle,UK
873,0.9,51.883333,Dressel 20,Colchester,LIVNIMELISSI,16249,,,Colchester,UK
874,-4.266667,53.15,Dressel 20,Caernarfon,LFO,16017,,,Caernarfon,UK
875,-2.916667,53.2,Dressel 20,Chester,LEF,16003,,,Chester,UK
876,-2.016667,54.966667,Dressel 20,Corbridge,QFF,16007,,,Corbridge,UK
877,-1.133333,52.633333,Dressel 20,Leicester,LPM,16602,,,Leicester,UK
878,-0.093145,51.514248,Dressel 20,London,C,17112,,,London,UK
879,-2.666667,53.733333,Dressel 20,Walton le Dale,FVCRM,17018,,,Walton le Dale,UK
880,-2.333333,54.966667,Dressel 20,Bardon Mill,SER,33405,,,Bardon Mill,UK
881,-2.016667,54.966667,Dressel 20,Corbridge,SNR,16503,,,Corbridge,UK
882,-0.093145,51.514248,Dressel 20,London,PORPSI,16809,,,London,UK
883,1.083333,51.266667,Dressel 20,Canterbury,LIT,16208,,,Canterbury,UK
884,-2.958889,51.613333,Dressel 20,Caerleon,FSCIMNIANO,16916,,,Caerleon,UK
885,-2.933333,54.883333,Dressel 20,Carlisle,DECCA,33316,,,Carlisle,UK
886,-1.083333,53.966667,Dressel 20,York,SALS,15435,,,York,UK
887,-1.983333,51.733333,Dressel 20,Cirencester,CSEMPRONIPOLYCLITI,16950,,,Cirencester,UK
888,-2.65,52.666667,Dressel 20,Wroxeter,QC,15720,,,Wroxeter,UK
889,-2.933333,54.883333,Dressel 20,Carlisle,PQHEHE,16061,,,Carlisle,UK
890,-0.093145,51.514248,Amphora incerta,London,A,36991,,,London,UK
891,-0.093145,51.514248,Mortarium,London,DOCCIVS,30696,,,London,UK
892,-2.016667,54.966667,Dressel 20,Corbridge,CIALB,16106,,,Corbridge,UK
893,0.216667,51.35,Dressel 20,Eynsford,QC,15718,,,Eynsford,UK
894,-2.65,52.666667,Dressel 20,Wroxeter,SNR,16507,,,Wroxeter,UK
895,-1.983333,51.733333,Dressel 20,Cirencester,MIM,16140,,,Cirencester,UK
896,0.9,51.883333,Dressel 20,Colchester,CSEMPRONIPOLYCLITI,16968,,,Colchester,UK
897,-2.958889,51.613333,Dressel 20,Caerleon,QFC,15983,,,Caerleon,UK
898,-0.093145,51.514248,Dressel 20,London,PMOCVFIGEDO,16440,,,London,UK
899,-0.093145,51.514248,Dressel 20,London,QAELIMINICIANI,15513,,,London,UK
900,0.9,51.883333,Dressel 20,Colchester,PHILO,16051,,,Colchester,UK
901,-1.983333,51.733333,Dressel 20,Cirencester,QFLAVIFLAVIANI,16648,,,Cirencester,UK
902,-1.816667,53.916667,Dressel 20,Ilkley,MCC,15712,,,Ilkley,UK
903,-2.533333,53.8,Dressel 20,Ribchester,LIVNIMELISSI,16293,,,Ribchester,UK
904,-0.093145,51.514248,Amphora incerta,London,OFSANI,30722,,,London,UK
905,1.083333,51.266667,Dressel 20,Canterbury,NFR,17206,,,Canterbury,UK
906,-0.093145,51.514248,Dressel 20,London,LMVE,16412,,,London,UK
907,-2.904167,51.7025,Dressel 20,Usk,RIVESRM,16696,,,Usk,UK
908,-0.093145,51.514248,Dressel 20,London,MIM,16144,,,London,UK
909,1.333333,51.283333,Dressel 20,Edinburgh,LIT,16204,,,Edinburgh,UK
910,1.333333,51.283333,Dressel 20,Edinburgh,PC,17211,,,Edinburgh,UK
911,-0.533333,53.233333,Dressel 20,Lincoln,IIV,17128,,,Lincoln,UK
912,-0.083333,51.5,Dressel 20,Southwark,MIM,16142,,,Southwark,UK
913,-0.093145,51.514248,Dressel 20,London,GALLICI,16046,,,London,UK
914,-0.093145,51.514248,Dressel 20,London,PNN,16491,,,London,UK
915,0.9,51.883333,Dressel 20,Colchester,MAR,15472,,,Colchester,UK
916,-0.093145,51.514248,Dressel 20,London,RVFINIATITTAE,16721,,,London,UK
917,-2.016667,54.966667,Dressel 20,Corbridge,ACIRGI,15490,,,Corbridge,UK
918,-1.133333,52.633333,Dressel 20,Leicester,MPF,16594,,,Leicester,UK
919,-2.766667,51.61,Dressel 20,Caerwent,QAR,15521,,,Caerwent,UK
920,-0.093145,51.514248,Dressel 20,London,QCR,15795,,,London,UK
921,-0.093145,51.514248,Dressel 20,London,MAELIALEXANDRI,15519,,,London,UK
922,-0.25,51.833333,Dressel 20,St. Albans,QCR,15787,,,St. Albans,UK
923,-2.833333,54.066667,Dressel 20,Lancaster,IVLITEREN,16230,,,Lancaster,UK
924,-2.016667,54.966667,Dressel 20,Corbridge,CAPF,15397,,,Corbridge,UK
925,-2.333333,54.966667,Dressel 20,Bardon Mill,GRA,18746,,,Bardon Mill,UK
926,-1.421389,54.987778,Dressel 20,South Shields,MMR,16371,,,South Shields,UK
927,-2.933333,54.883333,Dressel 20,Carlisle,TFA,33317,,,Carlisle,UK
928,-2.333333,55.016667,Dressel 20,Housesteads,LIT,16193,,,Housesteads,UK
929,-1.083333,53.966667,Ignotus,York,ICOSV,30701,,,York,UK
930,-0.093145,51.514248,Dressel 20,London,QCL,15764,,,London,UK
931,-0.093145,51.514248,Dressel 20,London,AGRICOLAE,15542,,,London,UK
932,-2.016667,54.966667,Dressel 20,Corbridge,MSP,16739,,,Corbridge,UK
933,-1.083333,53.966667,Amphora incerta,York,SLR,30703,,,York,UK
934,-1.7,51.416667,Dressel 20,Mildenhall,AVGN,15672,,,Mildenhall,UK
935,0.9,51.883333,Dressel 20,Colchester,QVINTI,16679,,,Colchester,UK
936,0.9,51.883333,Dressel 20,Colchester,MAEMRV,15530,,,Colchester,UK
937,-0.093145,51.514248,Dressel 20,London,LCT,15835,,,London,UK
938,-2.6,53.383333,Dressel 20,Warrington,MCC,15716,,,Warrington,UK
939,-2.333333,54.966667,Dressel 20,Bardon Mill,IVLITEREN,20443,,,Bardon Mill,UK
940,-1.083333,53.966667,Dressel 20,York,PNN,16495,,,York,UK
941,1.333333,51.283333,Dressel 20,Edinburgh,SERROM,16983,,,Edinburgh,UK
942,-0.093145,51.514248,Dressel 20,London,AMPPLPS,17108,,,London,UK
943,-0.093145,51.514248,Dressel 20,London,CFAV,15952,,,London,UK
944,-0.533333,53.233333,Dressel 20,Lincoln,PSAENI,16822,,,Lincoln,UK
945,1.333333,51.283333,Dressel 20,Edinburgh,PATVIC,15663,,,Edinburgh,UK
946,-1.133333,52.633333,Dressel 20,Leicester,PIVLICRISPI,16222,,,Leicester,UK
947,1.333333,51.283333,Dressel 20,Edinburgh,TATILIASIATICI,15652,,,Edinburgh,UK
948,1.083333,51.266667,Dressel 20,Canterbury,SO,17166,,,Canterbury,UK
949,1.333333,51.283333,Dressel 20,Edinburgh,LAR,17199,,,Edinburgh,UK
950,-0.093145,51.514248,Amphora incerta,London,SOLINIO,30726,,,London,UK
951,-0.093145,51.514248,Dressel 20,London,CIVLI,16228,,,London,UK
952,1.333333,51.283333,Dressel 20,Edinburgh,SFE,25434,,,Edinburgh,UK
953,-1.216667,53.066667,Dressel 20,Newstead,CMARISILVANI,16422,,,Newstead,UK
954,0.9,51.883333,Dressel 20,Colchester,SATVRNINI,16846,,,Colchester,UK
955,0.9,51.883333,Dressel 20,Colchester,PSAVITI,16737,,,Colchester,UK
956,0.2,52.066667,Dressel 20,Chesterford,CAMILIMELISSI,15846,,,Chesterford,UK
957,-0.093145,51.514248,Dressel 20,London,LIVNIMELISSI,16287,,,London,UK
958,-0.093145,51.514248,Dressel 20,London,PAR,15474,,,London,UK
959,-3.533333,50.7,Dressel 20,Exeter,FC,15986,,,Exeter,UK
960,-2.933333,54.883333,Dressel 20,Carlisle,PAL,15430,,,Carlisle,UK
961,-2.016667,54.966667,Dressel 20,Corbridge,CAPF,15628,,,Corbridge,UK
962,-2.933333,54.883333,Dressel 20,Carlisle,ARAXIFM,15687,,,Carlisle,UK
963,1.333333,51.283333,Dressel 20,Edinburgh,LPMS,16605,,,Edinburgh,UK
964,-1.066667,51.35,Dressel 20,Silchester,QCCLE,15738,,,Silchester,UK
965,-2.333333,54.966667,Dressel 20,Bardon Mill,QCR,18700,,,Bardon Mill,UK
966,-0.093145,51.514248,Dressel 20,London,STPR,17002,,,London,UK
967,0.9,51.883333,Dressel 20,Colchester,PHILO,16052,,,Colchester,UK
968,0.933333,51.833333,Dressel 20,Fingringhoe,LHIPO,16068,,,Fingringhoe,UK
969,-2.916667,53.2,Dressel 20,Chester,CANQVCANOV,15585,,,Chester,UK
970,1.333333,51.283333,Dressel 20,Edinburgh,SA,16730,,,Edinburgh,UK
971,0.9,51.883333,Ignotus,Colchester,ANDON,30678,,,Colchester,UK
972,-0.093145,51.514248,Mortarium,London,ERM,30746,,,London,UK
973,-0.093145,51.514248,Dressel 20,London,FORTVNATI,17048,,,London,UK
974,-0.25,51.833333,Dressel 20,St. Albans,FSCIMNIANO,16924,,,St. Albans,UK
975,-2.333333,54.966667,Dressel 20,Bardon Mill,LFO,18707,,,Bardon Mill,UK
976,-2.333333,54.966667,Dressel 20,Bardon Mill,LQS,18725,,,Bardon Mill,UK
977,-0.533333,53.233333,Dressel 20,Lincoln,LIT,16201,,,Lincoln,UK
978,-0.783333,50.833333,Dressel 20,Chicester,ISSI,16277,,,Chicester,UK
979,-2.333333,54.966667,Dressel 20,Bardon Mill,AA,18749,,,Bardon Mill,UK
980,-1.066667,51.35,Dressel 20,Silchester,LVALERIVITALIS,17064,,,Silchester,UK
981,-0.093145,51.514248,Dressel 20,London,PASSERARIA,16620,,,London,UK
982,0.9,51.883333,Dressel 20,Colchester,CSEMPRONIPOLYCLITI,16970,,,Colchester,UK
983,-2.65,52.666667,Dressel 20,Wroxeter,QFLVP,16010,,,Wroxeter,UK
984,-0.093145,51.514248,Dressel 20,London,POROCODV,16565,,,London,UK
985,-0.533333,53.233333,Dressel 20,Lincoln,LIVNIMELISSI,16295,,,Lincoln,UK
986,-2.933333,54.883333,Dressel 20,Carlisle,QIM,16169,,,Carlisle,UK
987,-2.678333,51.007222,Dressel 20,Ilchester,CENNIHISPANI,15915,,,Ilchester,UK
988,0.9,51.883333,Dressel 20,Colchester,TATILIASIATICI,15651,,,Colchester,UK
989,-0.093145,51.514248,Dressel 20,London,CLPV,16326,,,London,UK
990,-2.333333,50.75,Dressel 20,Dorset,VRITTIMA,17104,,,Dorset,UK
991,-2.016667,54.966667,Dressel 20,Corbridge,EXEGYYYMAS,32744,,,Corbridge,UK
992,-2.016667,54.966667,Dressel 20,Corbridge,VIRGINENSIA,17087,,,Corbridge,UK
993,-0.6,53.65,Dressel 20,Winterton,FFC,16001,,,Winterton,UK
994,-0.083333,51.5,Dressel 20,Southwark,ANO,17177,,,Southwark,UK
995,-2.883333,53.066667,Dressel 20,Holt,RRVS,16722,,,Holt,UK
996,-0.25,51.833333,Dressel 20,St. Albans,MLFN,16305,,,St. Albans,UK
997,-2.016667,54.966667,Dressel 20,Corbridge,DOM,16555,,,Corbridge,UK
998,-2.933333,54.883333,Dressel 20,Carlisle,SCLT,15864,,,Carlisle,UK
999,-2.016667,54.966667,Dressel 20,Corbridge,LFC,15973,,,Corbridge,UK
1000,-1.633333,54.366667,Dressel 20,Catterick,IPSI,16781,,,Catterick,UK
1001,-2.016667,54.966667,Dressel 20,Corbridge,FSCIMNIANO,16926,,,Corbridge,UK
1002,-1.083333,53.966667,Dressel 20,York,PE,17143,,,York,UK
1003,-0.093145,51.514248,Dressel 20,London,DFIA,17121,,,London,UK
1004,-0.093145,51.514248,Ignotus,London,BRVSA,30745,,,London,UK
1005,-0.093145,51.514248,Dressel 20,London,CANTONIQVIETI,15594,,,London,UK
1006,-0.093145,51.514248,Dressel 20,London,LAP,15449,,,London,UK
1007,-1.316667,51.016667,Dressel 20,Winchester,MSM,16775,,,Winchester,UK
1008,-3.016667,51.833333,Dressel 20,Abergavenny,CANTONIQVIETI,15599,,,Abergavenny,UK
1009,-2.533333,53.8,Dressel 20,Ribchester,AGRICOLAE,15545,,,Ribchester,UK
1010,-2.333333,54.966667,Dressel 20,Bardon Mill,CANTONIQVIETI,18689,,,Bardon Mill,UK
1011,-1.133333,52.633333,Dressel 20,Leicester,LSLVPI,16762,,,Leicester,UK
1012,-2.933333,54.883333,Dressel 20,Carlisle,FPPOR,16607,,,Carlisle,UK
1013,0.9,51.883333,Dressel 20,Colchester,MCC,15713,,,Colchester,UK
1014,1.083333,51.266667,Dressel 20,Canterbury,VRS,17106,,,Canterbury,UK
1015,-2.65,52.666667,Dressel 20,Wroxeter,CSTERTINIPAVLINI,15942,,,Wroxeter,UK
1016,0.9,51.883333,Dressel 20,Colchester,AIS,16186,,,Colchester,UK
1017,-0.093145,51.514248,Dressel 20,London,CIVII,16219,,,London,UK
1018,-2.15,55.016667,Dressel 20,Chesters,LIVNIMELISSI,16262,,,Chesters,UK
1019,-2.016667,54.966667,Dressel 20,Corbridge,DOM,16533,,,Corbridge,UK
1020,-2.65,52.666667,Dressel 20,Wroxeter,QFLAVIFLAVIANI,16646,,,Wroxeter,UK
1021,1.333333,51.283333,Dressel 20,Edinburgh,LSERLVPI,16765,,,Edinburgh,UK
1022,1.083333,51.266667,Dressel 20,Canterbury,APM,16599,,,Canterbury,UK
1023,-2.15,55.016667,Dressel 20,Chesters,FSCIMNIANO,16921,,,Chesters,UK
1024,-2.65,51.483333,Dressel 20,Sea Mills,ROMANI,16714,,,Sea Mills,UK
1025,1.333333,51.283333,Dressel 20,Edinburgh,CRATI,15882,,,Edinburgh,UK
1026,-0.25,51.833333,Dressel 20,St. Albans,OPRVI,16615,,,St. Albans,UK
1027,-2.65,52.666667,Dressel 20,Wroxeter,CAPF,15631,,,Wroxeter,UK
1028,0.9,51.883333,Dressel 20,Colchester,LANNISEC,15561,,,Colchester,UK
1029,-0.093145,51.514248,Dressel 20,London,AR,15451,,,London,UK
1030,-0.093145,51.514248,Dressel 20,London,LMVE,16408,,,London,UK
1031,-1.133333,52.633333,Dressel 20,Leicester,CANIVET,15607,,,Leicester,UK
1032,-0.093145,51.514248,Dressel 20,London,LCF,15751,,,London,UK
1033,-1.133333,52.633333,Dressel 20,Leicester,PORPS,16724,,,Leicester,UK
1034,-2.65,52.666667,Dressel 20,Wroxeter,PATVIC,15662,,,Wroxeter,UK
1035,-2.933333,54.883333,Dressel 20,Carlisle,QIC,33312,,,Carlisle,UK
1036,-2.333333,54.966667,Dressel 20,Bardon Mill,LCF,15757,,,Bardon Mill,UK
1037,-2.6,53.383333,Dressel 20,Warrington,TATILIASIATICI,15649,,,Warrington,UK
1038,0.9,51.883333,Dressel 20,Colchester,ALB,16103,,,Colchester,UK
1039,-2.016667,54.966667,Dressel 20,Corbridge,VIRI,17094,,,Corbridge,UK
1040,-0.533333,53.233333,Dressel 20,Lincoln,LIVNIMELISSI,16269,,,Lincoln,UK
1041,-2.333333,54.966667,Dressel 20,Bardon Mill,CSEMPRONIPOLYCLITI,18734,,,Bardon Mill,UK
1042,-0.533333,53.233333,Dressel 20,Lincoln,QCR,15798,,,Lincoln,UK
1043,-2.333333,54.966667,Dressel 20,Bardon Mill,LIVNIMELISSI,18714,,,Bardon Mill,UK
1044,-2.916667,53.2,Dressel 20,Chester,RSV,17216,,,Chester,UK
1045,-0.093145,51.514248,Dressel 20,London,LFC,15963,,,London,UK
1046,-2.016667,54.966667,Dressel 20,Corbridge,VIRGINENSIA,17090,,,Corbridge,UK
1047,-2.333333,55.016667,Dressel 20,Housesteads,ENNIORVMIVLIORVM,15935,,,Housesteads,UK
1048,-1.619444,54.988056,Dressel 20,Newcastle upon Tyne,LIVNIMELISSI,16256,,,Newcastle upon Tyne,UK
1049,0.9,51.883333,Dressel 20,Colchester,SLTSAXFERR,16337,,,Colchester,UK
1050,1.333333,51.283333,Dressel 20,Edinburgh,PSAVITI,16742,,,Edinburgh,UK
1051,-1.983333,51.733333,Dressel 20,Cirencester,ROMANI,16707,,,Cirencester,UK
1052,-2.333333,54.966667,Dressel 20,Bardon Mill,CANTONIQVIETI,18691,,,Bardon Mill,UK
1053,-3.533333,50.7,Dressel 20,Exeter,CS,16723,,,Exeter,UK
1054,-0.25,51.833333,Dressel 20,St. Albans,LVARIONIS,17065,,,St. Albans,UK
1055,-2.958889,51.613333,Dressel 20,Caerleon,MAC,15386,,,Caerleon,UK
1056,-0.093145,51.514248,Mortarium,London,APRILIS,30681,,,London,UK
1057,-2.25,51.833333,Dressel 20,Gloucester,MQFFT,16645,,,Gloucester,UK
1058,-2.333333,54.966667,Dressel 20,Bardon Mill,MIM,18708,,,Bardon Mill,UK
1059,-2.333333,54.966667,Dressel 20,Bardon Mill,CANTONIQVIETI,15601,,,Bardon Mill,UK
1060,-2.65,52.666667,Dressel 20,Wroxeter,QIA,16094,,,Wroxeter,UK
1061,-0.093145,51.514248,Dressel 20,London,MVR,16430,,,London,UK
1062,-0.093145,51.514248,Dressel 20,London,QSP,16790,,,London,UK
1063,-2.6,53.383333,Dressel 20,Warrington,PCI,15873,,,Warrington,UK
1064,-0.083333,51.5,Dressel 20,Southwark,QCR,15783,,,Southwark,UK
1065,-2.933333,54.883333,Dressel 20,Carlisle,ROMANI,16712,,,Carlisle,UK
1066,-0.093145,51.514248,Dressel 20,London,FIRMANI,16042,,,London,UK
1067,-2.883333,53.066667,Dressel 20,Holt,ENNIORVMIVLIORVM,15928,,,Holt,UK
1068,-0.093145,51.514248,Dressel 20,London,POROCODV,16569,,,London,UK
1069,-2.25,51.833333,Dressel 20,Gloucester,QPPHRYXI,16611,,,Gloucester,UK
1070,-1.983333,51.733333,Dressel 20,Cirencester,ATSP,15660,,,Cirencester,UK
1071,1.333333,51.283333,Dressel 20,Edinburgh,HLQC,16335,,,Edinburgh,UK
1072,-1.748246,50.71376,Amphora incerta,Hengistbury Head,BAV,20464,,,Hengistbury Head,UK
1073,-0.093145,51.514248,Dressel 20,London,PASSERARIA,16619,,,London,UK
1074,-0.25,51.833333,Dressel 20,St. Albans,SALSE,15436,,,St. Albans,UK
1075,-2.433333,54.983333,Dressel 20,Great Chesters,MAEMRV,15533,,,Great Chesters,UK
1076,-3.383333,51.95,Dressel 20,Brecon,CANTONIQVIETI,15573,,,Brecon,UK
1077,-1.133333,52.633333,Dressel 20,Leicester,MIR,16178,,,Leicester,UK
1078,-2.016667,54.966667,Dressel 20,Corbridge,MCLS,15825,,,Corbridge,UK
1079,-0.093145,51.514248,Dressel 20,London,LCSOL,15834,,,London,UK
1080,-0.093145,51.514248,Dressel 20,London,GRA,16684,,,London,UK
1081,-2.958889,51.613333,Dressel 20,Caerleon,ALFO,16319,,,Caerleon,UK
1082,-0.093145,51.514248,Dressel 20,London,AGRICOLAE,15541,,,London,UK
1083,-2.958889,51.613333,Dressel 20,Caerleon,LIVNIMELISSI,16285,,,Caerleon,UK
1084,-0.093145,51.514248,Dressel 20,London,LCSOL,15833,,,London,UK
1085,-0.093145,51.514248,Dressel 20,London,CENNIHISPANI,15913,,,London,UK
1086,-0.093145,51.514248,Dressel 20,London,QC,15717,,,London,UK
1087,-2.65,52.666667,Dressel 20,Wroxeter,SNR,16513,,,Wroxeter,UK
1088,-1.416667,53.25,Dressel 20,Chesterfield,BRAR,16690,,,Chesterfield,UK
1089,-2.933333,54.883333,Dressel 20,Carlisle,CALPVRPOT,17100,,,Carlisle,UK
1090,-0.433333,53.366667,Dressel 20,Toft Newton,FSCIMNIANO,16882,,,Toft Newton,UK
1091,-2.333333,54.966667,Dressel 20,Bardon Mill,CSTERTINIPAVLLINI,20446,,,Bardon Mill,UK
1092,-2.916667,53.2,Dressel 20,Chester,AGRICOLAE,15546,,,Chester,UK
1093,-1.216667,53.066667,Dressel 20,Newstead,ALFO,16312,,,Newstead,UK
1094,-1.816667,53.916667,Dressel 20,Ilkley,LIVNIMELISSI,16242,,,Ilkley,UK
1095,-2.333333,54.966667,Dressel 20,Bardon Mill,LIVNIMELISSI,18744,,,Bardon Mill,UK
1096,-0.093145,51.514248,Dressel 20,London,LQS,16656,,,London,UK
1097,-2.65,52.666667,Dressel 20,Wroxeter,RVFIPO,16718,,,Wroxeter,UK
1098,-2.016667,54.966667,Dressel 20,Corbridge,LFC,15958,,,Corbridge,UK
1099,-2.6,53.383333,Dressel 20,Warrington,IIIMINICIOR,16435,,,Warrington,UK
1100,-0.093145,51.514248,Dressel 20,London,CAM,15438,,,London,UK
1101,-0.093145,51.514248,Dressel 20,London,ACIRGI,15511,,,London,UK
1102,0.9,51.883333,Dressel 20,Colchester,LCFPC,15746,,,Colchester,UK
1103,-0.25,51.833333,Dressel 20,St. Albans,AEN,16827,,,St. Albans,UK
1104,0.9,51.883333,Dressel 20,Colchester,CSEMPRONIPOLYCLITI,16964,,,Colchester,UK
1105,1.333333,51.283333,Dressel 20,Edinburgh,EROTIS,15941,,,Edinburgh,UK
1106,-2.533333,53.8,Dressel 20,Ribchester,CVA,17013,,,Ribchester,UK
1107,-2.916667,53.2,Dressel 20,Chester,CANTONIQVIETI,15606,,,Chester,UK
1108,-2.016667,54.966667,Dressel 20,Corbridge,LFC,15960,,,Corbridge,UK
1109,-2.016667,54.966667,Dressel 20,Corbridge,FSCIMNIANO,16903,,,Corbridge,UK
1110,-2.333333,54.966667,Dressel 20,Bardon Mill,AELITALSEN,18712,,,Bardon Mill,UK
1111,0.9,51.883333,Dressel 20,Colchester,SER,16978,,,Colchester,UK
1112,0.9,51.883333,Dressel 20,Colchester,AVPNN,16485,,,Colchester,UK
1113,-0.093145,51.514248,Dressel 20,London,LFCRES,15976,,,London,UK
1114,-0.093145,51.514248,Dressel 20,London,ACIRGI,15501,,,London,UK
1115,-0.093145,51.514248,Dressel 20,London,LCFPC,15749,,,London,UK
1116,-1.216667,53.066667,Amphora incerta,Newstead,CSA,20506,,,Newstead,UK
1117,-0.783333,50.833333,Dressel 20,Chicester,OPLEI,17210,,,Chicester,UK
1118,1.333333,51.283333,Dressel 20,Edinburgh,LFC,15956,,,Edinburgh,UK
1119,-1.083333,53.966667,Dressel 20,York,PNN,16472,,,York,UK
1120,1.333333,51.283333,Dressel 20,Edinburgh,LSLVPI,16760,,,Edinburgh,UK
1121,-2.333333,54.966667,Dressel 20,Bardon Mill,QCOCL,18702,,,Bardon Mill,UK
1122,-0.093145,51.514248,Dressel 20,London,ACAGI,15503,,,London,UK
1123,-0.25,51.833333,Dressel 20,St. Albans,SAMIS,15443,,,St. Albans,UK
1124,-2.733333,54.65,Dressel 20,Penrith,LQS,16662,,,Penrith,UK
1125,-1.983333,51.733333,Dressel 20,Cirencester,MCLS,15826,,,Cirencester,UK
1126,-3.016667,51.833333,Dressel 20,Abergavenny,SAENIANES,16814,,,Abergavenny,UK
1127,-1.816667,53.916667,Dressel 20,Ilkley,DOM,16557,,,Ilkley,UK
1128,-0.093145,51.514248,Dressel 20,London,E,17123,,,London,UK
1129,-1.983333,51.733333,Dressel 20,Cirencester,PARVA,15635,,,Cirencester,UK
1130,-0.093145,51.514248,Dressel 20,London,LCANSEC,15562,,,London,UK
1131,-1.421389,54.987778,Dressel 20,South Shields,CIB,16113,,,South Shields,UK
1132,-3.4,54.35,Dressel 20,Ravenglass,MR,16384,,,Ravenglass,UK
1133,-0.8,50.833333,Amphora incerta,Fishbourne,MON,32358,,,Fishbourne,UK
1134,-0.093145,51.514248,Dressel 20,London,PORTARVA,15642,,,London,UK
1135,-0.093145,51.514248,Dressel 20,London,ITICI,15654,,,London,UK
1136,-2.916667,53.2,Dressel 20,Chester,QCC,15726,,,Chester,UK
1137,-2.958889,51.613333,Dressel 20,Caerleon,LQS,16660,,,Caerleon,UK
1138,-2.65,52.666667,Amphora incerta,Wroxeter,PAC,20624,,,Wroxeter,UK
1139,-2.016667,54.966667,Dressel 20,Corbridge,SNR,16506,,,Corbridge,UK
1140,-2.6,53.383333,Dressel 20,Warrington,LICISPE,16340,,,Warrington,UK
1141,0.9,51.883333,Dressel 20,Colchester,SAMIS,15441,,,Colchester,UK
1142,-2.016667,54.966667,Dressel 20,Corbridge,LFC,15966,,,Corbridge,UK
1143,-1.083333,53.966667,Amphora incerta,York,COSVA,30700,,,York,UK
1144,-1.066667,51.35,Dressel 20,Silchester,FGFIVSFM,15741,,,Silchester,UK
1145,-2.333333,54.966667,Dressel 20,Bardon Mill,CANTONIQVIETI,18690,,,Bardon Mill,UK
1146,-0.533333,53.233333,Dressel 20,Lincoln,QSA,16830,,,Lincoln,UK
1147,1.333333,51.283333,Dressel 20,Edinburgh,LCFPC,15754,,,Edinburgh,UK
1148,-2.916667,53.2,Dressel 20,Chester,PAH,15420,,,Chester,UK
1149,-1.316667,51.016667,Dressel 20,Winchester,CCCA,17183,,,Winchester,UK
1150,0.9,51.883333,Dressel 20,Colchester,ROM,16710,,,Colchester,UK
1151,-0.093145,51.514248,Dressel 20,London,CANTONIQVIETI,15574,,,London,UK
1152,-2.016667,54.966667,Dressel 20,Corbridge,LIT,16200,,,Corbridge,UK
1153,-0.783333,50.833333,Dressel 20,Chicester,SFE,15996,,,Chicester,UK
1154,-2.433333,50.716667,Dressel 20,Dorchester,PMANISVP,16415,,,Dorchester,UK
1155,-0.25,51.833333,Dressel 20,St. Albans,QMR,16379,,,St. Albans,UK
1156,-0.093145,51.514248,Dressel 20,London,PIQIALP,16639,,,London,UK
1157,-2.916667,53.2,Dressel 20,Chester,ROMANI,16700,,,Chester,UK
1158,-1.983333,51.733333,Dressel 20,Cirencester,PNS,16517,,,Cirencester,UK
1159,-2.333333,55.016667,Dressel 20,Housesteads,FELICIS,16038,,,Housesteads,UK
1160,-1.133333,52.633333,Dressel 20,Leicester,CENNIHISPANI,15911,,,Leicester,UK
1161,-1.983333,51.733333,Dressel 20,Cirencester,CMAQOF,16413,,,Cirencester,UK
1162,-0.25,51.833333,Dressel 20,St. Albans,NI,32498,,,St. Albans,UK
1163,1.333333,51.283333,Dressel 20,Edinburgh,ENNIORVMIVLIORVM,15924,,,Edinburgh,UK
1164,-1.316667,51.016667,Dressel 20,Winchester,SCALENSIAACCI,16879,,,Winchester,UK
1165,-1.083333,53.966667,Ignotus,York,DOCA,30695,,,York,UK
1166,0.9,51.883333,Dressel 20,Colchester,CIR,16175,,,Colchester,UK
1167,-2.966667,54.416667,Dressel 20,Ambleside,QMR,16376,,,Ambleside,UK
1168,-0.093145,51.514248,Dressel 20,London,QCOCL,15877,,,London,UK
1169,-0.093145,51.514248,Dressel 20,London,HISPANI,16074,,,London,UK
1170,-2.916667,53.2,Dressel 20,Chester,SECVND,16938,,,Chester,UK
1171,-1.083333,53.966667,Dressel 20,York,SAXOFERREO,16852,,,York,UK
1172,0.216667,51.35,Dressel 20,Eynsford,ACIRGI,15507,,,Eynsford,UK
1173,-0.25,51.833333,Dressel 20,St. Albans,CSEMPRONIPOLYCLITI,16971,,,St. Albans,UK
1174,-2.75,54.316667,Dressel 20,Watercrook,QDC,15886,,,Watercrook,UK
1175,-1.133333,52.633333,Dressel 20,Leicester,QIA,16092,,,Leicester,UK
1176,-0.093145,51.514248,Dressel 20,London,ROMANI,16708,,,London,UK
1177,-2.333333,54.966667,Dressel 20,Bardon Mill,QCOCL,18701,,,Bardon Mill,UK
1178,-0.093145,51.514248,Amphora incerta,London,AEL,20638,,,London,UK
1179,-1.421389,54.987778,Dressel 20,South Shields,PCLODICELI,15874,,,South Shields,UK
1180,-0.533333,53.233333,Dressel 20,Lincoln,PECV,15890,,,Lincoln,UK
1181,1.333333,51.283333,Dressel 20,Edinburgh,MMCS,15806,,,Edinburgh,UK
1182,-2.333333,55.016667,Dressel 20,Housesteads,DOM,16542,,,Housesteads,UK
1183,-0.093145,51.514248,Dressel 20,London,MAR,15464,,,London,UK
1184,-2.15,55.016667,Dressel 20,Chesters,BYY,17181,,,Chesters,UK
1185,-1.066667,51.35,Dressel 20,Silchester,LCM,15770,,,Silchester,UK
1186,-0.093145,51.514248,Dressel 20,London,MAVRI,16429,,,London,UK
1187,-1.783333,51.066667,Dressel 20,Salisbury,ALFO,16315,,,Salisbury,UK
1188,-2.904167,51.7025,Dressel 20,Usk,MMCS,15807,,,Usk,UK
1189,-4.064722,51.662222,Dressel 20,Loughor,GAF,15396,,,Loughor,UK
1190,-0.333333,52.566667,Dressel 20,Castor,LIVNIMELISSI,16238,,,Castor,UK
1191,-2.333333,54.966667,Dressel 20,Bardon Mill,MSEHELC,33394,,,Bardon Mill,UK
1192,0.8,51.533333,Dressel 20,Great Wakering,FSCIMNIANO,16894,,,Great Wakering,UK
1193,1.166667,52.366667,Dressel 20,Scole,LVALERITROPHIMI,17050,,,Scole,UK
1194,0.9,51.883333,Amphora incerta,Colchester,MNIHP,20598,,,Colchester,UK
1195,-2.933333,54.883333,Dressel 20,Carlisle,QSP,16797,,,Carlisle,UK
1196,0.083333,52.55,Dressel 20,March,PIVLITFILI,16229,,,March,UK
1197,-0.093145,51.514248,Dressel 20,London,FSCIMNIANO,16890,,,London,UK
1198,-0.093145,51.514248,Dressel 20,London,CSEMPRONIPOLYCLITI,16959,,,London,UK
1199,-2.016667,54.966667,Dressel 20,Corbridge,CAF,15399,,,Corbridge,UK
1200,-2.016667,54.966667,Dressel 20,Corbridge,PCLODICELI,15762,,,Corbridge,UK
1201,-1.983333,51.733333,Dressel 20,Cirencester,IIAALIM,15381,,,Cirencester,UK
1202,0.9,51.883333,Dressel 2-4 Catalan,Colchester,BAR,26550,,,Colchester,UK
1203,0.9,51.883333,Dressel 20,Colchester,QCR,15793,,,Colchester,UK
1204,-2.016667,54.966667,Dressel 20,Corbridge,SABEL,32741,,,Corbridge,UK
1205,-2.016667,54.966667,Dressel 20,Corbridge,QVC,17024,,,Corbridge,UK
1206,-1.083333,53.966667,Dressel 20,York,CCCOV,15707,,,York,UK
1207,0.9,51.883333,Dressel 20,Colchester,SAMIS,15442,,,Colchester,UK
1208,-1.983333,51.733333,Dressel 20,Cirencester,MMCS,15811,,,Cirencester,UK
1209,0.9,51.883333,Dressel 20,Colchester,TERTI,25449,,,Colchester,UK
1210,-2.916667,53.2,Dressel 20,Chester,LMVE,16404,,,Chester,UK
1211,-2.958889,51.613333,Dressel 20,Caerleon,VIRG,17095,,,Caerleon,UK
1212,-2.016667,54.966667,Dressel 20,Corbridge,DIA,16078,,,Corbridge,UK
1213,-2.433333,53.183333,Dressel 20,Middlewich,MCLFF,15859,,,Middlewich,UK
1214,-2.533333,53.8,Dressel 20,Ribchester,ARCIRGI,15483,,,Ribchester,UK
1215,-4.266667,53.15,Dressel 20,Caernarfon,LSLVPI,16763,,,Caernarfon,UK
1216,-2.916667,53.2,Dressel 20,Chester,FSCIMNIANO,16887,,,Chester,UK
1217,-1.083333,53.966667,Dressel 20,York,ISM,17129,,,York,UK
1218,-2.533333,53.8,Dressel 20,Ribchester,QIM,16166,,,Ribchester,UK
1219,-1.619444,54.988056,Dressel 20,Newcastle upon Tyne,FSCIMNIANO,16235,,,Newcastle upon Tyne,UK
1220,-2.916667,53.2,Dressel 20,Chester,LAP,15621,,,Chester,UK
1221,-1.619444,54.988056,Dressel 20,Newcastle upon Tyne,FSCIMNIANO,16883,,,Newcastle upon Tyne,UK
1222,0.9,51.883333,Dressel 20,Colchester,CIALB,16111,,,Colchester,UK
1223,-3.533333,50.7,Dressel 20,Exeter,POROCODV,16563,,,Exeter,UK
1224,1.333333,51.283333,Dressel 20,Edinburgh,QCR,15791,,,Edinburgh,UK
1225,-1.083333,53.966667,Dressel 20,York,LCOC,15776,,,York,UK
1226,-3.833333,53.216667,Dressel 20,Caerhûn,PASSERARIA,16617,,,Caerhûn,UK
1227,-1.133333,52.633333,Dressel 20,Leicester,M,16146,,,Leicester,UK
1228,-2.6,53.383333,Dressel 20,Warrington,AN,16451,,,Warrington,UK
1229,1.083333,51.266667,Dressel 20,Canterbury,QPPHRYXI,16608,,,Canterbury,UK
1230,-0.093145,51.514248,Ignotus,London,VE,30730,,,London,UK
1231,0.9,51.883333,Dressel 20,Colchester,PS,16748,,,Colchester,UK
1232,0.9,51.883333,Dressel 20,Colchester,LAR,15452,,,Colchester,UK
1233,-0.093145,51.514248,Dressel 20,London,LIVNIMELISSI,16245,,,London,UK
1234,-1.983333,51.733333,Dressel 20,Cirencester,LFS,16027,,,Cirencester,UK
1235,-1.983333,51.733333,Dressel 20,Cirencester,LAVIVA,15682,,,Cirencester,UK
1236,-0.25,51.833333,Dressel 20,St. Albans,CSEMPRONIPOLYCLITI,16972,,,St. Albans,UK
1237,-0.8,50.833333,Dressel 20,Fishbourne,SIR,16183,,,Fishbourne,UK
1238,-2.016667,54.966667,Dressel 20,Corbridge,NICXIIII,16119,,,Corbridge,UK
1239,-0.783333,50.833333,Dressel 20,Chicester,QCR,15786,,,Chicester,UK
1240,-2.333333,54.966667,Dressel 20,Bardon Mill,LFC,18705,,,Bardon Mill,UK
1241,-2.916667,53.2,Dressel 20,Chester,PAH,15415,,,Chester,UK
1242,1.333333,51.283333,Dressel 20,Edinburgh,LAEL,15427,,,Edinburgh,UK
1243,-2.333333,54.966667,Dressel 20,Bardon Mill,MIVS,33408,,,Bardon Mill,UK
1244,-1.083333,53.966667,Dressel 20,York,ROMVLVS,16716,,,York,UK
1245,-1.083333,53.966667,Mortarium,York,ALBINVS,30676,,,York,UK
1246,0.216667,51.35,Dressel 20,Eynsford,SCLT,15865,,,Eynsford,UK
1247,-0.093145,51.514248,Dressel 20,London,LVALERITROPHIMI,17052,,,London,UK
1248,-1.619444,54.988056,Dressel 20,Newcastle upon Tyne,FSCIMNIANO,16884,,,Newcastle upon Tyne,UK
1249,-2.958889,51.613333,Dressel 20,Caerleon,PNN,16484,,,Caerleon,UK
1250,1.333333,51.283333,Dressel 20,Edinburgh,OFGRARLVC,20504,,,Edinburgh,UK
1251,0.5,51.383333,Dressel 20,Strood,TFA,15945,,,Strood,UK
1252,-0.083333,51.5,Dressel 20,Southwark,CSEMPRONIPOLYCLITI,16944,,,Southwark,UK
1253,0.366667,51.883333,Dressel 20,Great Dunmow,ONES,16577,,,Great Dunmow,UK
1254,-0.093145,51.514248,Dressel 20,London,LIVNIMELISSI,16274,,,London,UK
1255,-1.083333,53.966667,Dressel 20,York,PNN,16464,,,York,UK
1256,0.9,51.883333,Dressel 20,Colchester,MCLS,15862,,,Colchester,UK
1257,-0.25,51.833333,Dressel 20,St. Albans,VALFAVS,32499,,,St. Albans,UK
1258,0.9,51.883333,Dressel 20,Colchester,QFALBQFAP,15947,,,Colchester,UK
1259,-1.216667,53.066667,Dressel 20,Newstead,SERB,16982,,,Newstead,UK
1260,0.9,51.883333,Dressel 20,Colchester,LPMS,16603,,,Colchester,UK
1261,0.9,51.883333,Dressel 20,Colchester,LFCL,15970,,,Colchester,UK
1262,-2.016667,54.966667,Dressel 20,Corbridge,VIRAV,17082,,,Corbridge,UK
1263,0.9,51.883333,Dressel 20,Colchester,SATVRNINI,16844,,,Colchester,UK
1264,-3.216667,51.583333,Dressel 20,Caerphilly,ALFO,16316,,,Caerphilly,UK
1265,1.333333,51.283333,Dressel 20,Edinburgh,PSA,16738,,,Edinburgh,UK
1266,-2.1,54.966667,Dressel 20,Hexham,DOM,16540,,,Hexham,UK
1267,0.9,51.883333,Dressel 20,Colchester,M,17135,,,Colchester,UK
1268,-2.333333,54.966667,Dressel 20,Bardon Mill,OO,20451,,,Bardon Mill,UK
1269,-1.066667,51.35,Dressel 20,Silchester,ARVA,17074,,,Silchester,UK
1270,-2.6,53.383333,Amphora incerta,Warrington,FPM,30717,,,Warrington,UK
1271,-2.016667,54.966667,Dressel 20,Corbridge,ACIRGI,15509,,,Corbridge,UK
1272,-1.083333,53.966667,Dressel 20,York,ENNIORVMIVLIORVM,15927,,,York,UK
1273,-2.333333,54.966667,Dressel 20,Bardon Mill,MIA,33393,,,Bardon Mill,UK
1274,-0.093145,51.514248,Dressel 20,London,VALERI,17043,,,London,UK
1275,-2.333333,54.966667,Dressel 20,Bardon Mill,SANNIRGR,33402,,,Bardon Mill,UK
1276,0.9,51.883333,Amphora incerta,Colchester,B,20467,,,Colchester,UK
1277,-0.466667,53.183333,Dressel 20,Branston,EROTIS,15940,,,Branston,UK
1278,-0.093145,51.514248,Dressel 20,London,CCRASSISEMNI,15881,,,London,UK
1279,-2.916667,53.2,Dressel 20,Chester,QANTRVG,15616,,,Chester,UK
1280,-1.083333,53.966667,Amphora incerta,York,MERCATOR,30713,,,York,UK
1281,-2.833333,54.066667,Dressel 20,Lancaster,CANTONIQVIETI,15568,,,Lancaster,UK
1282,-0.533333,53.233333,Dressel 20,Lincoln,MSM,16773,,,Lincoln,UK
1283,-0.093145,51.514248,Dressel 20,London,PONTICI,16629,,,London,UK
1284,-0.25,51.833333,Dressel 20,St. Albans,AELIFVSCIANI,15910,,,St. Albans,UK
1285,-0.093145,51.514248,Dressel 20,London,SNR,16508,,,London,UK
1286,-1.066667,51.35,Dressel 20,Silchester,MMCMF,15828,,,Silchester,UK
1287,-1.383333,54.083333,Dressel 20,Aldborough,QVS,17035,,,Aldborough,UK
1288,-3.533333,50.7,Dressel 20,Exeter,LMIL,17132,,,Exeter,UK
1289,-1.216667,53.066667,Gauloise 5,Newstead,QCA,27978,,,Newstead,UK
1290,-0.093145,51.514248,Dressel 20,London,ATITAE,15670,,,London,UK
1291,0.9,51.883333,Dressel 20,Colchester,CLPV,16329,,,Colchester,UK
1292,1.333333,51.283333,Dressel 20,Edinburgh,CLPV,16330,,,Edinburgh,UK
1293,-0.093145,51.514248,Dressel 20,London,MAR,15466,,,London,UK
1294,-2.2,52.2,Dressel 20,Worcester,SAXOFERREO,16849,,,Worcester,UK
1295,-2.016667,54.966667,Dressel 20,Corbridge,CMM,16365,,,Corbridge,UK
1296,-1.983333,51.733333,Dressel 20,Cirencester,LVALERIVITALIS,17060,,,Cirencester,UK
1297,-0.783333,50.833333,Dressel 20,Chicester,MMCE,15810,,,Chicester,UK
1298,-0.093145,51.514248,Dressel 20,London,LACONFLACONE,15388,,,London,UK
1299,-2.916667,53.2,Dressel 20,Chester,LIVNIMELISSI,16252,,,Chester,UK
1300,1.333333,51.283333,Dressel 20,Edinburgh,VRO,17221,,,Edinburgh,UK
1301,1.333333,51.283333,Dressel 20,Edinburgh,LAF,15403,,,Edinburgh,UK
1302,-0.25,51.833333,Dressel 20,St. Albans,DOM,16552,,,St. Albans,UK
1303,-2.883333,53.066667,Dressel 20,Holt,GRVS,17125,,,Holt,UK
1304,-2.933333,54.883333,Dressel 20,Carlisle,ALFO,33313,,,Carlisle,UK
1305,-1.983333,51.733333,Dressel 20,Cirencester,AVGN,15671,,,Cirencester,UK
1306,-2.65,52.666667,Dressel 20,Wroxeter,SNRVF,16515,,,Wroxeter,UK
1307,-2.916667,53.2,Dressel 20,Chester,CALV,15551,,,Chester,UK
1308,-0.083333,51.5,Dressel 20,Southwark,LVA,17016,,,Southwark,UK
1309,-0.083333,51.5,Dressel 20,Southwark,MAR,15471,,,Southwark,UK
1310,-0.093145,51.514248,Dressel 20,London,LIVNIMELISSI,16290,,,London,UK
1311,0.9,51.883333,Dressel 20,Colchester,CAMILIMELISSI,15848,,,Colchester,UK
1312,1.333333,51.283333,Dressel 20,Edinburgh,APH,16596,,,Edinburgh,UK
1313,-0.093145,51.514248,Dressel 20,London,LCSOL,15831,,,London,UK
1314,-2.016667,54.966667,Dressel 20,Corbridge,CIS,16189,,,Corbridge,UK
1315,-2.016667,54.966667,Dressel 20,Corbridge,AECAAFCA,15975,,,Corbridge,UK
1316,-2.65,52.666667,Dressel 20,Wroxeter,MAR,15468,,,Wroxeter,UK
1317,0.9,51.883333,Dressel 20,Colchester,QVIELANIANI,17030,,,Colchester,UK
1318,1.333333,51.283333,Dressel 20,Edinburgh,SAN,16820,,,Edinburgh,UK
1319,-1.216667,53.066667,Dressel 20,Newstead,POR,16631,,,Newstead,UK
1320,-2.016667,54.966667,Dressel 20,Corbridge,LFC,32480,,,Corbridge,UK
1321,-2.958889,51.613333,Dressel 20,Caerleon,MAEMRV,15534,,,Caerleon,UK
1322,-0.25,51.833333,Dressel 20,St. Albans,TATILIASIATICI,15648,,,St. Albans,UK
1323,1.333333,51.283333,Dressel 20,Edinburgh,PORLAR,15454,,,Edinburgh,UK
1324,-2.916667,53.2,Dressel 20,Chester,LAVRELIGERMANI,15412,,,Chester,UK
1325,-1.983333,51.733333,Dressel 20,Cirencester,ACIRGI,15482,,,Cirencester,UK
1326,-2.016667,54.966667,Dressel 20,Corbridge,SFE,15992,,,Corbridge,UK
1327,-2.65,52.666667,Dressel 20,Wroxeter,PAH,15419,,,Wroxeter,UK
1328,0.516667,51.383333,Dressel 20,Rochester,CNVIT,15581,,,Rochester,UK
1329,0.9,51.883333,Dressel 20,Colchester,QSP,16786,,,Colchester,UK
1330,1.333333,51.283333,Dressel 20,Edinburgh,DATSCOL,15666,,,Edinburgh,UK
1331,-0.093145,51.514248,Dressel 20,London,PORRO,16633,,,London,UK
1332,-0.093145,51.514248,Dressel 20,London,PIROPPIROIP,16180,,,London,UK
1333,1.333333,51.283333,Dressel 20,Edinburgh,ACIRGI,15498,,,Edinburgh,UK
1334,1.333333,51.283333,Dressel 20,Edinburgh,TATI,16582,,,Edinburgh,UK
1335,-2.333333,54.966667,Dressel 20,Bardon Mill,MCLS,33392,,,Bardon Mill,UK
1336,-1.4,50.9,Dressel 20,Southampton,AGRICOLAE,15539,,,Southampton,UK
1337,1.333333,51.283333,Dressel 20,Edinburgh,LQS,16669,,,Edinburgh,UK
1338,-0.093145,51.514248,Dressel 20,London,NR,16682,,,London,UK
1339,0.9,51.883333,Dressel 20,Colchester,POR,16632,,,Colchester,UK
1340,-0.093145,51.514248,Dressel 20,London,CSEMPRONIPOLYCLITI,16973,,,London,UK
1341,-2.933333,54.883333,Dressel 20,Carlisle,DOM,16529,,,Carlisle,UK
1342,-0.093145,51.514248,Dressel 20,London,PMFRPO,16358,,,London,UK
1343,-1.083333,53.966667,Ignotus,York,DIVIC,30694,,,York,UK
1344,-2.65,52.666667,Dressel 20,Wroxeter,ECTYCES,15944,,,Wroxeter,UK
1345,0.9,51.883333,Dressel 20,Colchester,LIVNIMELISSI,16240,,,Colchester,UK
1346,-0.093145,51.514248,Dressel 20,London,HILARI,16067,,,London,UK
1347,-2.916667,53.2,Dressel 20,Chester,ENNIORVMIVLIORVM,15932,,,Chester,UK
1348,-0.25,52.583333,Dressel 20,Peterborough,AEMEVP,15527,,,Peterborough,UK
1349,-2.958889,51.613333,Dressel 20,Caerleon,ROM,16711,,,Caerleon,UK
1350,-3.533333,50.7,Dressel 20,Exeter,LFO,16015,,,Exeter,UK
1351,0.9,51.883333,Dressel 20,Colchester,QIA,16088,,,Colchester,UK
1352,0.9,51.883333,Dressel 20,Colchester,MIM,16128,,,Colchester,UK
1353,-4.266667,53.15,Dressel 20,Caernarfon,C,17113,,,Caernarfon,UK
1354,-1.316667,51.016667,Dressel 20,Winchester,SFE,15991,,,Winchester,UK
1355,-0.093145,51.514248,Dressel 20,London,SERVILILVPI,16981,,,London,UK
1356,-1.216667,53.066667,Dressel 20,Newstead,FSS,16801,,,Newstead,UK
1357,-1.083333,53.966667,Ignotus,York,CAIVS,30684,,,York,UK
1358,-2.016667,54.966667,Dressel 20,Corbridge,PMV,16403,,,Corbridge,UK
1359,1.233333,51.15,Dressel 20,Dover,MIM,16127,,,Dover,UK
1360,-0.093145,51.514248,Dressel 20,London,CSEMPRONIPOLYCLITI,16953,,,London,UK
1361,-1.983333,51.733333,Dressel 20,Cirencester,CR,17119,,,Cirencester,UK
1362,-1.116667,53.533333,Dressel 20,Doncaster,LMVE,16410,,,Doncaster,UK
1363,-1.083333,53.966667,Dressel 20,York,PIVLICRISPI,16224,,,York,UK
1364,-2.533333,53.8,Dressel 20,Ribchester,CIS,16188,,,Ribchester,UK
1365,0.9,51.883333,Dressel 20,Colchester,CSEMPRONIPOLYCLITI,16956,,,Colchester,UK
1366,-0.093145,51.514248,Dressel 20,London,IIIVNIMELISSILISSE,16289,,,London,UK
1367,-1.983333,51.733333,Dressel 20,Cirencester,VIRGIN,17092,,,Cirencester,UK
1368,-0.093145,51.514248,Dressel 20,London,LAVRELIGERMANI,15410,,,London,UK
1369,-1.983333,51.733333,Dressel 20,Cirencester,MQFF,16641,,,Cirencester,UK
1370,1.333333,51.283333,Dressel 20,Edinburgh,CANTONIQVIETI,15577,,,Edinburgh,UK
1371,-2.533333,53.8,Dressel 20,Ribchester,TAN,15446,,,Ribchester,UK
1372,-2.916667,53.2,Dressel 20,Chester,MFELICIS,16039,,,Chester,UK
1373,1.333333,51.283333,Dressel 20,Edinburgh,CSEMPRONIPOLYCLITI,16949,,,Edinburgh,UK
1374,-0.083333,51.5,Dressel 20,Southwark,PQHEHE,16059,,,Southwark,UK
1375,-4.266667,53.15,Dressel 20,Caernarfon,CENNIHISPANI,15912,,,Caernarfon,UK
1376,-0.093145,51.514248,Dressel 20,London,LVA,17044,,,London,UK
1377,-0.093145,51.514248,Ignotus,London,LCS,30687,,,London,UK
1378,-2.016667,54.966667,Dressel 20,Corbridge,GAF,15398,,,Corbridge,UK
1379,-0.093145,51.514248,Dressel 20,London,MFLAVITITVRI,16043,,,London,UK
1380,-0.093145,51.514248,Dressel 20,London,LIVNIMELISSI,16291,,,London,UK
1381,-0.093145,51.514248,Dressel 20,London,IHNA,17127,,,London,UK
1382,-1.666667,54.65,Dressel 20,Bishop Auckland,FCCVC,15708,,,Bishop Auckland,UK
1383,-0.8,50.833333,Amphora incerta,Fishbourne,POROCODV,32357,,,Fishbourne,UK
1384,-2.933333,54.883333,Dressel 20,Carlisle,PCLODICELI,15871,,,Carlisle,UK
1385,-0.093145,51.514248,Dressel 20,London,FOP,16579,,,London,UK
1386,-3.533333,50.7,Dressel 20,Exeter,PAVR,15676,,,Exeter,UK
1387,-2.016667,54.966667,Dressel 20,Corbridge,LIVNIMELISSI,16266,,,Corbridge,UK
1388,-0.4,52.983333,Dressel 20,Sleaford,MIM,16138,,,Sleaford,UK
1389,-1.983333,51.733333,Dressel 20,Cirencester,SAXOFERREO,16860,,,Cirencester,UK
1390,-0.783333,50.833333,Dressel 20,Chicester,FSCIMNIANO,16904,,,Chicester,UK
1391,-1.133333,52.633333,Dressel 20,Leicester,LIOPVSNNI,16170,,,Leicester,UK
1392,-1.133333,52.633333,Dressel 20,Leicester,LFCF,15969,,,Leicester,UK
1393,-1.983333,51.733333,Dressel 20,Cirencester,LRPHCO,16692,,,Cirencester,UK
1394,-0.093145,51.514248,Mortarium,London,LIICIMISSA,30704,,,London,UK
1395,-1.133333,52.633333,Dressel 20,Leicester,ROMANI,16706,,,Leicester,UK
1396,-1.983333,51.733333,Dressel 20,Cirencester,FSCIMNIANO,16923,,,Cirencester,UK
1397,-1.066667,51.35,Dressel 20,Silchester,LQS,16671,,,Silchester,UK
1398,-0.093145,51.514248,Dressel 20,London,AIS,16185,,,London,UK
1399,-2.333333,54.966667,Dressel 20,Bardon Mill,PIVLICRISPI,18713,,,Bardon Mill,UK
1400,0.516667,51.383333,Dressel 20,Chatham,LAT,15657,,,Chatham,UK
1401,-4.266667,53.15,Dressel 20,Caernarfon,QANTALB,15563,,,Caernarfon,UK
1402,-2.016667,54.966667,Dressel 20,Corbridge,FSCIMNIANO,16912,,,Corbridge,UK
1403,-2.333333,54.966667,Dressel 20,Bardon Mill,OLEASTRO,33395,,,Bardon Mill,UK
1404,-0.093145,51.514248,Ignotus,London,M,30708,,,London,UK
1405,-2.016667,53.75,Dressel 20,Heptonstall,AGRICOLAE,15544,,,Heptonstall,UK
1406,-2.016667,54.966667,Dressel 20,Corbridge,SFE,15988,,,Corbridge,UK
1407,-2.65,52.666667,Dressel 20,Wroxeter,SILVESTRI,16988,,,Wroxeter,UK
1408,-2.916667,53.2,Dressel 20,Chester,PAH,15417,,,Chester,UK
1409,-0.093145,51.514248,Dressel 20,London,PONTICI,16628,,,London,UK
1410,-1.083333,53.966667,Dressel 20,York,LFC,15851,,,York,UK
1411,-2.65,51.483333,Dressel 20,Sea Mills,HISPANI,16072,,,Sea Mills,UK
1412,-2.016667,54.966667,Dressel 20,Corbridge,DEF,15894,,,Corbridge,UK
1413,-2.016667,54.966667,Dressel 20,Corbridge,QMR,16383,,,Corbridge,UK
1414,-2.016667,54.966667,Dressel 20,Corbridge,MQFF,16643,,,Corbridge,UK
1415,0.633333,51.783333,Dressel 20,Witham,QIM,16161,,,Witham,UK
1416,-0.093145,51.514248,Dressel 20,London,QCR,15781,,,London,UK
1417,-2.016667,54.966667,Dressel 20,Corbridge,C,17182,,,Corbridge,UK
1418,-0.533333,53.233333,Dressel 20,Lincoln,LPAEOA,16584,,,Lincoln,UK
1419,-0.533333,53.233333,Dressel 20,Lincoln,PSAVITI,16744,,,Lincoln,UK
1420,1.333333,51.283333,Dressel 20,Edinburgh,CANTONIQVIETI,15571,,,Edinburgh,UK
1421,-2.016667,54.966667,Dressel 20,Corbridge,LIT,16214,,,Corbridge,UK
1422,-0.093145,51.514248,Dressel 20,London,LFC,15957,,,London,UK
1423,0.9,51.883333,Dressel 20,Colchester,LQS,28104,,,Colchester,UK
1424,0.9,51.883333,Dressel 2-4 Catalan,Colchester,BI,26550,,,Colchester,UK
1425,-2.016667,54.966667,Dressel 20,Corbridge,LP,32748,,,Corbridge,UK
1426,-0.093145,51.514248,Dressel 20,London,MIM,16132,,,London,UK
1427,-3.5,54.7,Amphora incerta,Maryport,AEL,30673,,,Maryport,UK
1428,-0.093145,51.514248,Dressel 20,London,SCALENSIA,16867,,,London,UK
1429,-1.066667,51.35,Dressel 20,Silchester,MQFFT,16644,,,Silchester,UK
1430,-2.016667,54.966667,Dressel 20,Corbridge,LIT,16199,,,Corbridge,UK
1431,-2.333333,54.966667,Dressel 20,Bardon Mill,LSL,18728,,,Bardon Mill,UK
1432,-2.958889,51.613333,Dressel 20,Caerleon,PORPS,16727,,,Caerleon,UK
1433,-0.783333,50.833333,Dressel 20,Chicester,CANTONIQVIETI,15592,,,Chicester,UK
1434,-1.166667,52.25,Dressel 20,Daventry,ACIRGI,15485,,,Daventry,UK
1435,-0.783333,50.833333,Dressel 20,Chicester,DOM,16559,,,Chicester,UK
1436,0.9,51.883333,Dressel 20,Colchester,MHAS,16057,,,Colchester,UK
1437,-1.421389,54.987778,Dressel 20,South Shields,PNI,16457,,,South Shields,UK
1438,-2.333333,54.966667,Dressel 20,Bardon Mill,QIM,33399,,,Bardon Mill,UK
1439,-0.093145,51.514248,Dressel 20,London,RVFIPO,16719,,,London,UK
1440,-1.133333,52.633333,Dressel 20,Leicester,MMCS,15809,,,Leicester,UK
1441,-1.916667,51.8,Dressel 20,Chedworth,QIM,16156,,,Chedworth,UK
1442,-2.916667,53.2,Dressel 20,Chester,AVIH,17075,,,Chester,UK
1443,-4.266667,53.15,Dressel 20,Caernarfon,CANTONIQVIETI,15582,,,Caernarfon,UK
1444,-1.416667,53.25,Dressel 20,Chesterfield,SILVESTRI,16990,,,Chesterfield,UK
1445,-3.416667,53.333333,Dressel 20,Prestatyn,SE,16936,,,Prestatyn,UK
1446,-2.166667,51.85,Dressel 20,Brockworth,QIA,16096,,,Brockworth,UK
1447,-0.093145,51.514248,Dressel 20,London,GSAP,16735,,,London,UK
1448,-2.333333,54.966667,Dressel 20,Bardon Mill,LIRTOR,18711,,,Bardon Mill,UK
1449,1.333333,51.283333,Dressel 20,Edinburgh,LCAE,15703,,,Edinburgh,UK
1450,-3.383333,51.95,Dressel 20,Brecon,ANTONIQ,15572,,,Brecon,UK
1451,-2.333333,54.966667,Amphora incerta,Bardon Mill,ATCALM,33407,,,Bardon Mill,UK
1452,-2.958889,51.613333,Dressel 20,Caerleon,DOM,16549,,,Caerleon,UK
1453,1.333333,51.283333,Dressel 20,Edinburgh,SCAL,16873,,,Edinburgh,UK
1454,-0.093145,51.514248,Dressel 20,London,QIM,16167,,,London,UK
1455,1.333333,51.283333,Dressel 20,Edinburgh,MFM,16012,,,Edinburgh,UK
1456,-2.016667,54.966667,Dressel 20,Corbridge,LSV,16808,,,Corbridge,UK
1457,-1.066667,51.35,Dressel 20,Silchester,SILVESTRI,16991,,,Silchester,UK
1458,-2.016667,54.966667,Dressel 20,Corbridge,CIVNAPNNARARVA,16232,,,Corbridge,UK
1459,0.716667,51.833333,Dressel 20,Kelvedon,HLQ,16334,,,Kelvedon,UK
1460,-2.65,52.666667,Dressel 20,Wroxeter,LQS,16652,,,Wroxeter,UK
1461,-2.016667,54.966667,Dressel 20,Corbridge,LCQ,15779,,,Corbridge,UK
1462,0.9,51.883333,Dressel 20,Colchester,PQSF,16677,,,Colchester,UK
1463,-1.316667,51.016667,Dressel 20,Winchester,I,17126,,,Winchester,UK
1464,0.9,51.883333,Mortarium,Colchester,CRICIROF,30690,,,Colchester,UK
1465,-0.093145,51.514248,Dressel 20,London,PAH,15421,,,London,UK
1466,0.9,51.883333,Amphora incerta,Colchester,HIHI,20536,,,Colchester,UK
1467,-2.333333,54.966667,Dressel 20,Bardon Mill,APN,33383,,,Bardon Mill,UK
1468,-0.093145,51.514248,Dressel 20,London,MAR,15470,,,London,UK
1469,-2.65,52.666667,Dressel 20,Wroxeter,DATSCOL,15667,,,Wroxeter,UK
1470,-2.65,52.666667,Dressel 20,Wroxeter,CSEMPRONIPOLYCLITI,16955,,,Wroxeter,UK
1471,-0.093145,51.514248,Dressel 20,London,ATICI,15647,,,London,UK
1472,-0.633333,53.75,Dressel 20,Newport,AVRELIHERACLAE,15679,,,Newport,UK
1473,-2.333333,54.966667,Dressel 20,Bardon Mill,SE,18745,,,Bardon Mill,UK
1474,-3.533333,50.7,Dressel 20,Exeter,LMVE,16411,,,Exeter,UK
1475,-1.083333,53.966667,Dressel 20,York,MARS,16427,,,York,UK
1476,-2.533333,53.8,Dressel 20,Ribchester,POLAR,15462,,,Ribchester,UK
1477,-0.25,51.833333,Dressel 20,St. Albans,QFAT,15950,,,St. Albans,UK
1478,-0.25,51.833333,Dressel 20,St. Albans,LIVNIMELISSI,16272,,,St. Albans,UK
1479,-2.916667,53.2,Dressel 20,Chester,LMVE,16405,,,Chester,UK
1480,-2.333333,54.966667,Dressel 20,Bardon Mill,ACIRGI,18687,,,Bardon Mill,UK
1481,-0.8,50.833333,Dressel 20,Fishbourne,ROMANI,16704,,,Fishbourne,UK
1482,-0.093145,51.514248,Dressel 20,London,CMARISILVANI,16425,,,London,UK
1483,-1.316667,51.016667,Dressel 20,Winchester,HEV,16066,,,Winchester,UK
1484,-2.016667,54.966667,Dressel 20,Corbridge,SALS,15432,,,Corbridge,UK
1485,-2.766667,51.61,Dressel 20,Caerwent,QSA,16831,,,Caerwent,UK
1486,-1.133333,52.633333,Dressel 20,Leicester,HISPANISAEN,16076,,,Leicester,UK
1487,-1.216667,53.066667,Dressel 20,Newstead,LVALERITERNI,17049,,,Newstead,UK
1488,-2.333333,54.966667,Dressel 20,Bardon Mill,APCR,18722,,,Bardon Mill,UK
1489,1.333333,51.283333,Dressel 20,Edinburgh,CNACOR,16447,,,Edinburgh,UK
1490,1.083333,51.266667,Dressel 20,Canterbury,MCLS,15860,,,Canterbury,UK
1491,-1.983333,51.733333,Dressel 20,Cirencester,SAT,17218,,,Cirencester,UK
1492,-0.533333,53.233333,Mortarium,Lincoln,VSISFECITAESVMI,30748,,,Lincoln,UK
1493,-2.916667,53.2,Dressel 20,Chester,LVIST,17076,,,Chester,UK
1494,-2.016667,54.966667,Dressel 20,Corbridge,SVP,17032,,,Corbridge,UK
1495,1.333333,51.283333,Haltern 70,Edinburgh,DSD,20521,,,Edinburgh,UK
1496,-2.533333,53.8,Dressel 20,Ribchester,LVC,17019,,,Ribchester,UK
1497,-2.65,52.666667,Dressel 20,Wroxeter,MMCS,15812,,,Wroxeter,UK
1498,-2.65,52.666667,Dressel 20,Wroxeter,QCR,15796,,,Wroxeter,UK
1499,-0.25,51.833333,Dressel 20,St. Albans,LQS,16674,,,St. Albans,UK
1500,-0.093145,51.514248,Dressel 20,London,CAPF,15626,,,London,UK
1501,-0.093145,51.514248,Dressel 20,London,CSEMPRONIPOLYCLITI,16961,,,London,UK
1502,-3.533333,50.7,Dressel 20,Exeter,QAGEMELLI,15406,,,Exeter,UK
1503,-2.933333,54.883333,Dressel 20,Carlisle,CTYC,17004,,,Carlisle,UK
1504,-0.25,51.833333,Dressel 20,St. Albans,QFC,15985,,,St. Albans,UK
1505,0.9,51.883333,Dressel 20,Colchester,LIVNIMELISSI,16300,,,Colchester,UK
1506,-1.983333,51.733333,Dressel 20,Cirencester,CANTONIQVIETI,15593,,,Cirencester,UK
1507,1.333333,51.283333,Dressel 20,Edinburgh,QCR,15788,,,Edinburgh,UK
1508,-1.619444,54.988056,Dressel 20,Newcastle upon Tyne,LIVNIMELISSI,16235,,,Newcastle upon Tyne,UK
1509,-1.316667,51.016667,Dressel 20,Winchester,FSCIMNIANO,16922,,,Winchester,UK
1510,-2.016667,54.966667,Dressel 20,Corbridge,LIVNIMELISSI,16265,,,Corbridge,UK
1511,-0.316667,54.083333,Dressel 20,Rudston,LIVNIMELISSI,16233,,,Rudston,UK
1512,-2.333333,54.966667,Dressel 20,Bardon Mill,AGRICOLAE,20439,,,Bardon Mill,UK
1513,-2.933333,54.883333,Dressel 20,Carlisle,DOM,16545,,,Carlisle,UK
1514,0.9,51.883333,Dressel 20,Colchester,CSEMPRONIPOLYCLITI,16966,,,Colchester,UK
1515,-1.816667,53.916667,Dressel 20,Ilkley,SAXOFERREO,16854,,,Ilkley,UK
1516,0.9,51.883333,Dressel 20,Colchester,SATVRNINI,16832,,,Colchester,UK
1517,1.333333,51.283333,Dressel 20,Edinburgh,QIA,16105,,,Edinburgh,UK
1518,-2.65,52.666667,Dressel 20,Wroxeter,CTYC,17005,,,Wroxeter,UK
1519,-0.093145,51.514248,Dressel 20,London,FAVSTINNIB,16036,,,London,UK
1520,-2.916667,53.2,Dressel 20,Chester,ALFO,16318,,,Chester,UK
1521,0.9,51.883333,Dressel 20,Colchester,AVRELIHERACLAE,15678,,,Colchester,UK
1522,-3.533333,50.7,Dressel 20,Exeter,QIM,16159,,,Exeter,UK
1523,-1.983333,51.733333,Dressel 20,Cirencester,MAVRI,16428,,,Cirencester,UK
1524,1.116667,51.283333,Dressel 20,Sturry,LIT,16196,,,Sturry,UK
1525,-0.093145,51.514248,Dressel 20,London,CLPV,16328,,,London,UK
1526,-2.916667,53.2,Dressel 20,Chester,CLM,16321,,,Chester,UK
1527,0.9,51.883333,Dressel 20,Colchester,DOM,16556,,,Colchester,UK
1528,-3.533333,50.7,Dressel 20,Exeter,LVAGAL,17047,,,Exeter,UK
1529,0.9,51.883333,Amphora incerta,Colchester,PEPHE,20631,,,Colchester,UK
1530,0.9,51.883333,Dressel 20,Colchester,LQS,16659,,,Colchester,UK
1531,0.9,51.883333,Dressel 20,Colchester,CSEMPRONIPOLYCLITI,16963,,,Colchester,UK
1532,-2.6,53.383333,Dressel 20,Warrington,CSL,16757,,,Warrington,UK
1533,-1.666667,54.65,Dressel 20,Bishop Auckland,ACIRGI,15484,,,Bishop Auckland,UK
1534,-2.970556,51.168333,Dressel 20,Puriton,SP,33420,,,Puriton,UK
1535,-1.133333,52.633333,Dressel 20,Leicester,CMS,16394,,,Leicester,UK
1536,-0.093145,51.514248,Dressel 20,London,QMS,16400,,,London,UK
1537,-2.333333,54.966667,Dressel 20,Bardon Mill,MV,20444,,,Bardon Mill,UK
1538,-1.066667,51.35,Dressel 20,Silchester,SNR,16510,,,Silchester,UK
1539,-1.083333,53.966667,Dressel 20,York,ACIRGI,15500,,,York,UK
1540,-2.333333,54.966667,Dressel 20,Bardon Mill,AVRELIHERACLAE,33386,,,Bardon Mill,UK
1541,-0.093145,51.514248,Dressel 20,London,PMANISVP,28313,,,London,UK
1542,-2.333333,54.966667,Dressel 20,Bardon Mill,QMR,33401,,,Bardon Mill,UK
1543,-1.983333,51.733333,Dressel 20,Cirencester,LIV,16281,,,Cirencester,UK
1544,-2.333333,54.966667,Dressel 20,Bardon Mill,CQ,18738,,,Bardon Mill,UK
1545,-0.093145,51.514248,Dressel 20,London,CVVA,17036,,,London,UK
1546,0.9,51.883333,Dressel 20,Colchester,FSCIMNIANO,16925,,,Colchester,UK
1547,-0.093145,51.514248,Dressel 20,London,LASTELLAMI,20655,,,London,UK
1548,-0.533333,53.233333,Dressel 20,Lincoln,ARAXIFM,15684,,,Lincoln,UK
1549,-4.064722,51.662222,Dressel 20,Loughor,GAF,15389,,,Loughor,UK
1550,0.9,51.883333,Dressel 20,Colchester,PONTICI,16626,,,Colchester,UK
1551,-2.333333,54.966667,Dressel 20,Bardon Mill,QIM,18709,,,Bardon Mill,UK
1552,-2.016667,53.75,Dressel 20,Heptonstall,QFVE,16035,,,Heptonstall,UK
1553,-1.983333,51.733333,Dressel 20,Cirencester,QIA,16087,,,Cirencester,UK
1554,-1.983333,51.733333,Dressel 20,Cirencester,Q,17153,,,Cirencester,UK
1555,-2.916667,53.2,Dressel 20,Chester,QMCALIAIDIS,16350,,,Chester,UK
1556,-0.093145,51.514248,Dressel 20,London,VM,16355,,,London,UK
1557,-2.533333,53.8,Dressel 20,Ribchester,APFS,16098,,,Ribchester,UK
1558,-2.958889,51.613333,Dressel 20,Caerleon,LCM,15772,,,Caerleon,UK
1559,0.9,51.883333,Dressel 20,Colchester,QS,16732,,,Colchester,UK
1560,-2.933333,54.883333,Dressel 20,Carlisle,PIR,16179,,,Carlisle,UK
1561,-2.65,52.666667,Dressel 20,Wroxeter,QFC,15981,,,Wroxeter,UK
1562,1.333333,51.283333,Dressel 20,Edinburgh,CVVA,17037,,,Edinburgh,UK
1563,-0.093145,51.514248,Dressel 20,London,CSEMPRONIPOLYCLITI,16954,,,London,UK
1564,-1.083333,53.966667,Dressel 20,York,VECAT,15889,,,York,UK
1565,1.333333,51.283333,Dressel 20,Edinburgh,PMVP,16417,,,Edinburgh,UK
1566,-1.619444,54.988056,Dressel 20,Newcastle upon Tyne,SAXOFERREO,16857,,,Newcastle upon Tyne,UK
1567,-0.25,51.833333,Dressel 20,St. Albans,LIVNIMELISSI,16288,,,St. Albans,UK
1568,-1.983333,51.733333,Dressel 20,Cirencester,FSCIMNIANO,16908,,,Cirencester,UK
1569,-0.093145,51.514248,Dressel 20,London,CCII,15753,,,London,UK
1570,-2.958889,51.613333,Dressel 20,Caerleon,MAEMRV,15531,,,Caerleon,UK
1571,-2.933333,54.883333,Dressel 20,Carlisle,LQS,16654,,,Carlisle,UK
1572,-0.25,51.833333,Dressel 20,St. Albans,FSCIMNIANO,16933,,,St. Albans,UK
1573,-1.983333,51.733333,Dressel 20,Cirencester,LSSEPT,16806,,,Cirencester,UK
1574,1.333333,51.283333,Dressel 20,Edinburgh,ENNIORVMIVLIORVM,15929,,,Edinburgh,UK
1575,-0.25,51.833333,Dressel 20,St. Albans,APCO,16591,,,St. Albans,UK
1576,-1.083333,53.966667,Dressel 20,York,SAXOFERREO,16855,,,York,UK
1577,-0.093145,51.514248,Dressel 20,London,LIVNIMELISSI,16268,,,London,UK
1578,-3.533333,50.7,Dressel 20,Exeter,MIM,16124,,,Exeter,UK
1579,-2.916667,53.2,Dressel 20,Chester,AVMONT,15675,,,Chester,UK
1580,-3.35,54.666667,Dressel 20,Cockermouth,QMR,16388,,,Cockermouth,UK
1581,-0.783333,50.833333,Dressel 20,Chicester,ACIRGI,15506,,,Chicester,UK
1582,0.9,51.883333,Dressel 20,Colchester,PNZI,16519,,,Colchester,UK
1583,-2.333333,54.966667,Dressel 20,Bardon Mill,GENETIV,20441,,,Bardon Mill,UK
1584,-2.333333,54.966667,Dressel 20,Bardon Mill,AH,18736,,,Bardon Mill,UK
1585,-1.083333,53.966667,Dressel 20,York,AIRXIMM,15685,,,York,UK
1586,1.333333,51.283333,Dressel 20,Edinburgh,LIVNIMELISSI,16296,,,Edinburgh,UK
1587,-0.533333,53.233333,Dressel 20,Lincoln,FSCIMNIANO,16918,,,Lincoln,UK
1588,-2.958889,51.613333,Dressel 20,Caerleon,PNN,16000,,,Caerleon,UK
1589,-1.083333,53.966667,Dressel 20,York,LIVNIMELISSI,16273,,,York,UK
1590,-0.093145,51.514248,Mortarium,London,ANVS,30744,,,London,UK
1591,-0.093145,51.514248,Dressel 20,London,QND,20704,,,London,UK
1592,0.9,51.883333,Dressel 20,Colchester,CSEMPRONIPOLYCLITI,16967,,,Colchester,UK
1593,-0.093145,51.514248,Dressel 20,London,PORCPR,16613,,,London,UK
1594,-1.983333,51.733333,Dressel 20,Cirencester,MIA,16081,,,Cirencester,UK
1595,-2.65,52.666667,Dressel 20,Wroxeter,CNACOR,16446,,,Wroxeter,UK
1596,-0.093145,51.514248,Dressel 20,London,HLQ,16333,,,London,UK
1597,-0.093145,51.514248,Dressel 20,London,CAM,15437,,,London,UK
1598,-2.766667,51.61,Dressel 20,Caerwent,PORPS,16728,,,Caerwent,UK
1599,-0.093145,51.514248,Dressel 20,London,CANTONIQVIETI,15609,,,London,UK
1600,1.333333,51.283333,Dressel 20,Edinburgh,LID,17198,,,Edinburgh,UK
1601,1.333333,51.283333,Dressel 20,Edinburgh,L,16216,,,Edinburgh,UK
1602,1.083333,51.266667,Dressel 20,Canterbury,KV,16301,,,Canterbury,UK
1603,-1.316667,51.016667,Dressel 20,Winchester,MASFGA,15478,,,Winchester,UK
1604,-0.8,54.133333,Dressel 20,Malton,LIVNIMELISSI,16250,,,Malton,UK
1605,0.9,51.883333,Dressel 20,Colchester,PORPSA,16729,,,Colchester,UK
1606,-0.093145,51.514248,Amphora incerta,London,MPR,30718,,,London,UK
1607,-1.066667,51.35,Dressel 20,Silchester,PNN,16461,,,Silchester,UK
1608,-0.093145,51.514248,Dressel 20,London,LAT,15659,,,London,UK
1609,1.333333,51.283333,Dressel 20,Edinburgh,LPAFIRMA,25426,,,Edinburgh,UK
1610,-1.983333,51.733333,Dressel 20,Cirencester,PORLAR,15456,,,Cirencester,UK
1611,-2.533333,53.8,Dressel 20,Ribchester,QIA,16093,,,Ribchester,UK
1612,-2.916667,53.2,Dressel 20,Chester,QCC,28054,,,Chester,UK
1613,0.533333,50.916667,Dressel 20,Sedlescombe,QIM,16154,,,Sedlescombe,UK
1614,0.9,51.883333,Dressel 20,Colchester,CSEMPRONIPOLYCLITI,16946,,,Colchester,UK
1615,-3.533333,50.7,Mortarium,Exeter,IIXVHM,30738,,,Exeter,UK
1616,-1.083333,53.966667,Ignotus,York,VST,30743,,,York,UK
1617,-0.093145,51.514248,Dressel 20,London,SIALI,17163,,,London,UK
1618,-2.033333,50.783333,Dressel 20,Corfe Mullen,CSEMPRONIPOLYCLITI,16943,,,Corfe Mullen,UK
1619,-0.093145,51.514248,Dressel 20,London,SCALENSIAACCI,16880,,,London,UK
1620,-2.333333,54.966667,Dressel 20,Bardon Mill,EVTICIO,18704,,,Bardon Mill,UK
1621,-0.093145,51.514248,Dressel 20,London,PHILO,16048,,,London,UK
1622,-3.833333,53.216667,Dressel 20,Caerhûn,LFO,16018,,,Caerhûn,UK
1623,-0.093145,51.514248,Dressel 20,London,MLFIDI,16306,,,London,UK
1624,-2.016667,54.966667,Dressel 20,Corbridge,DOM,16532,,,Corbridge,UK
1625,-0.093145,51.514248,Dressel 20,London,CANTONIQVIETI,15587,,,London,UK
1626,1.333333,51.283333,Dressel 20,Edinburgh,PNN,16487,,,Edinburgh,UK
1627,1.333333,51.283333,Dressel 20,Edinburgh,POROCODV,28050,,,Edinburgh,UK
1628,-2.65,51.483333,Dressel 20,Sea Mills,LIBER,16339,,,Sea Mills,UK
1629,-0.25,51.833333,Dressel 20,St. Albans,LIVNIMELISSI,16286,,,St. Albans,UK
1630,-2.333333,54.966667,Dressel 20,Bardon Mill,LIVNIMELISSI,18718,,,Bardon Mill,UK
1631,-0.4,52.983333,Dressel 20,Sleaford,MLPIG,16323,,,Sleaford,UK
1632,-0.093145,51.514248,Dressel 20,London,A,16825,,,London,UK
1633,-2.016667,54.966667,Dressel 20,Corbridge,LQS,16655,,,Corbridge,UK
1634,-2.916667,53.2,Dressel 20,Chester,PASSERARIA,16618,,,Chester,UK
1635,-2.016667,54.966667,Dressel 20,Corbridge,LCFPC,15745,,,Corbridge,UK
1636,-2.016667,54.966667,Dressel 20,Corbridge,VIRIII,25461,,,Corbridge,UK
1637,-2.016667,54.966667,Dressel 20,Corbridge,QMR,16385,,,Corbridge,UK
1638,-1.619444,54.988056,Amphora incerta,Newcastle upon Tyne,M,20619,,,Newcastle upon Tyne,UK
1639,-0.093145,51.514248,Dressel 20,London,LVALERITROPHIMI,17053,,,London,UK
1640,0.9,51.883333,Dressel 20,Colchester,CP,16587,,,Colchester,UK
1641,-2.916667,53.2,Dressel 20,Chester,ENNIORVMIVLIORVM,15918,,,Chester,UK
1642,-2.016667,54.966667,Dressel 20,Corbridge,LIVNIMELISSI,32481,,,Corbridge,UK
1643,-2.566667,54.983333,Dressel 20,Gilsland,QFF,16006,,,Gilsland,UK
1644,-2.433333,53.183333,Dressel 20,Middlewich,MMCS,15803,,,Middlewich,UK
1645,-1.066667,51.35,Dressel 20,Silchester,PSAVITI,16746,,,Silchester,UK
1646,-2.016667,54.966667,Dressel 20,Corbridge,LICISPE,16342,,,Corbridge,UK
1647,-2.653056,51.268611,Dressel 20,Mendip Hills,PMS,16395,,,Mendip Hills,UK
1648,-0.25,51.833333,Dressel 20,St. Albans,SNR,16498,,,St. Albans,UK
1649,1.333333,51.283333,Gauloise,Edinburgh,IVLIZOSIMI,20652,,,Edinburgh,UK
1650,-1.083333,53.966667,Dressel 20,York,AA,17170,,,York,UK
1651,-2.65,52.666667,Dressel 20,Wroxeter,PSAVITI,16745,,,Wroxeter,UK
1652,0.9,51.883333,Dressel 20,Colchester,FELICIS,16037,,,Colchester,UK
1653,-2.333333,54.966667,Dressel 20,Bardon Mill,QIFCOX,18750,,,Bardon Mill,UK
1654,0.9,51.883333,Dressel 20,Colchester,QS,16676,,,Colchester,UK
1655,-0.093145,51.514248,Dressel 20,London,PARVA,15639,,,London,UK
1656,-2.016667,54.966667,Dressel 20,Corbridge,LQS,32482,,,Corbridge,UK
1657,-0.093145,51.514248,Dressel 20,London,SVAVIS,16997,,,London,UK
1658,-2.016667,54.966667,Dressel 20,Corbridge,PAR,15475,,,Corbridge,UK
1659,-0.093145,51.514248,Dressel 20,London,GAF,15394,,,London,UK
1660,-0.533333,53.233333,Amphora incerta,Lincoln,QNA,30714,,,Lincoln,UK
1661,-1.083333,53.966667,Mortarium,York,SOLIVSF,30727,,,York,UK
1662,-3.5,54.7,Dressel 20,Maryport,LIT,16195,,,Maryport,UK
1663,0.083333,52.333333,Dressel 20,Cambridgeshire,CLK,32354,,,Cambridgeshire,UK
1664,-0.093145,51.514248,Dressel 20,London,CSEMPRONIPOLYCLITI,16947,,,London,UK
1665,-2.65,52.666667,Dressel 20,Wroxeter,IVLINIGRI,16226,,,Wroxeter,UK
1666,-2.916667,53.2,Dressel 20,Chester,RVFIPO,16717,,,Chester,UK
1667,-0.093145,51.514248,Ignotus,London,LIT,30706,,,London,UK
1668,-2.65,52.666667,Dressel 20,Wroxeter,LIVNIMELISSI,16247,,,Wroxeter,UK
1669,-2.6,53.383333,Dressel 20,Warrington,APH,16597,,,Warrington,UK
1670,-0.093145,51.514248,Dressel 20,London,LFC,15959,,,London,UK
1671,0.9,51.883333,Dressel 20,Colchester,PORFS,16022,,,Colchester,UK
1672,0.9,51.883333,Dressel 20,Colchester,QCR,15780,,,Colchester,UK
1673,1.083333,51.266667,Dressel 20,Canterbury,PONTICI,16627,,,Canterbury,UK
1674,-0.6,53.65,Dressel 20,Winterton,MAELIALEXANDRI,15517,,,Winterton,UK
1675,-2.433333,54.983333,Dressel 20,Great Chesters,CENNIHISPANI,15914,,,Great Chesters,UK
1676,-1.983333,51.733333,Dressel 20,Cirencester,SATVRNINI,16837,,,Cirencester,UK
1677,-2.65,52.666667,Dressel 20,Wroxeter,LQS,16653,,,Wroxeter,UK
1678,-0.093145,51.514248,Dressel 20,London,ROMANI,16713,,,London,UK
1679,-0.093145,51.514248,Dressel 20,London,LVA,17015,,,London,UK
1680,-1.416667,53.25,Dressel 20,Chesterfield,QSP,16795,,,Chesterfield,UK
1681,-3.533333,50.7,Dressel 20,Exeter,VA,17220,,,Exeter,UK
1682,-2.016667,54.966667,Dressel 20,Corbridge,SNR,16514,,,Corbridge,UK
1683,-2.65,52.666667,Dressel 20,Wroxeter,IN,16443,,,Wroxeter,UK
1684,1.333333,51.283333,Dressel 20,Edinburgh,SA,15384,,,Edinburgh,UK
1685,-3.833333,53.216667,Dressel 20,Caerhûn,SCALENSIA,16870,,,Caerhûn,UK
1686,-2.8,52.1,Dressel 20,Credenhill,MSM,16767,,,Credenhill,UK
1687,1.333333,51.283333,Dressel 20,Edinburgh,MP,16784,,,Edinburgh,UK
1688,-2.533333,53.8,Dressel 20,Ribchester,AQ,17107,,,Ribchester,UK
1689,-1.633333,54.366667,Dressel 20,Catterick,IICO,15775,,,Catterick,UK
1690,-0.783333,50.833333,Dressel 20,Chicester,POLAR,15463,,,Chicester,UK
1691,-2.333333,54.966667,Dressel 20,Bardon Mill,EL,15872,,,Bardon Mill,UK
1692,-3.433333,52.516667,Dressel 20,Caersws,VIRG,17096,,,Caersws,UK
1693,-2.333333,54.966667,Dressel 20,Bardon Mill,LQS,33391,,,Bardon Mill,UK
1694,-0.633333,52.9,Dressel 20,Grantham,VIRGINENSIA,17088,,,Grantham,UK
1695,-0.783333,50.833333,Dressel 2-4 Cilician,Chicester,AMPS,33177,,,Chicester,UK
1696,-2.65,52.666667,Dressel 20,Wroxeter,PHILO,16049,,,Wroxeter,UK
1697,-2.016667,54.966667,Dressel 20,Corbridge,DECEB,32743,,,Corbridge,UK
1698,-1.316667,51.016667,Dressel 20,Winchester,SFE,15990,,,Winchester,UK
1699,0.9,51.883333,Dressel 20,Colchester,QFR,16044,,,Colchester,UK
1700,-2.65,52.666667,Dressel 20,Wroxeter,CIALB,16107,,,Wroxeter,UK
1701,-2.75,54.316667,Dressel 20,Watercrook,QCR,15782,,,Watercrook,UK
1702,1.333333,51.283333,Dressel 20,Edinburgh,LQS,16670,,,Edinburgh,UK
1703,0.9,51.883333,Dressel 20,Colchester,LFS,16025,,,Colchester,UK
1704,-2.016667,54.966667,Dressel 20,Corbridge,M,17202,,,Corbridge,UK
1705,1.333333,51.283333,Dressel 20,Edinburgh,QIA,16084,,,Edinburgh,UK
1706,-1.083333,53.966667,Dressel 20,York,LFS,16024,,,York,UK
1707,-2.333333,54.966667,Dressel 20,Bardon Mill,SAXOFER,20450,,,Bardon Mill,UK
1708,-0.093145,51.514248,Dressel 20,London,GSAP,16734,,,London,UK
1709,-0.333333,54.033333,Dressel 20,Harpham,MAXIFAX,15688,,,Harpham,UK
1710,-2.016667,54.966667,Dressel 20,Corbridge,DOM,16550,,,Corbridge,UK
1711,-0.093145,51.514248,Dressel 20,London,FPS,16616,,,London,UK
1712,0.9,51.883333,Dressel 20,Colchester,LAM,15439,,,Colchester,UK
1713,-1.619444,54.988056,Dressel 20,Newcastle upon Tyne,FSCIMNIANO,16917,,,Newcastle upon Tyne,UK
1714,-1.083333,53.966667,Dressel 20,York,LIVNIMELISSI,16299,,,York,UK
1715,-2.958889,51.613333,Dressel 20,Caerleon,LAP,15450,,,Caerleon,UK
1716,-2.916667,53.2,Dressel 20,Chester,QSP,16785,,,Chester,UK
1717,-2.25,51.833333,Dressel 20,Gloucester,QAR,15523,,,Gloucester,UK
1718,1.333333,51.283333,Dressel 20,Edinburgh,QIM,16162,,,Edinburgh,UK
1719,0,51.916667,Dressel 20,Westmill,PARVA,15640,,,Westmill,UK
1720,-1.983333,51.733333,Dressel 20,Cirencester,LFC,15974,,,Cirencester,UK
1721,-2.433333,50.716667,Dressel 20,Dorchester,Q,17154,,,Dorchester,UK
1722,0.9,51.883333,Dressel 20,Colchester,PORLAR,15459,,,Colchester,UK
1723,0.366667,51.433333,Dressel 20,Gravesend,GSAP,16733,,,Gravesend,UK
1724,-1.083333,53.966667,Dressel 20,York,CEFP,15899,,,York,UK
1725,-0.093145,51.514248,Dressel 20,London,PP,16585,,,London,UK
1726,-0.25,51.833333,Dressel 20,St. Albans,LIT,16207,,,St. Albans,UK
1727,-2.333333,54.966667,Dressel 20,Bardon Mill,LCM,18698,,,Bardon Mill,UK
1728,-0.093145,51.514248,Ignotus,London,EARINVS,30697,,,London,UK
1729,1.333333,51.283333,Dressel 20,Edinburgh,PORPS,16725,,,Edinburgh,UK
1730,0.9,51.883333,Dressel 20,Colchester,CANTONIQVIETI,15569,,,Colchester,UK
1731,-2.333333,54.966667,Dressel 20,Bardon Mill,FSCIMNIANO,18733,,,Bardon Mill,UK
1732,-2.766667,51.61,Dressel 20,Caerwent,PROCVLINI,16635,,,Caerwent,UK
1733,-2.916667,53.2,Dressel 20,Chester,LIVNIMELISSI,16241,,,Chester,UK
1734,-2.916667,53.2,Dressel 20,Chester,MAR,15465,,,Chester,UK
1735,-3,53.166667,Dressel 20,Broughton,MSM,16770,,,Broughton,UK
1736,0.716667,51.833333,Dressel 20,Kelvedon,MRR,16693,,,Kelvedon,UK
1737,-0.783333,50.833333,Dressel 20,Chicester,C,17114,,,Chicester,UK
1738,-0.093145,51.514248,Dressel 20,London,PNN,16490,,,London,UK
1739,-0.093145,51.514248,Dressel 20,London,GAF,15395,,,London,UK
1740,-1.216667,53.066667,Dressel 20,Newstead,PORGSS,16802,,,Newstead,UK
1741,-2.016667,54.966667,Dressel 20,Corbridge,FVES,17192,,,Corbridge,UK
1742,-2.916667,53.2,Dressel 20,Chester,QCC,15733,,,Chester,UK
1743,-2.65,52.666667,Dressel 20,Wroxeter,QCR,15790,,,Wroxeter,UK
1744,-2.016667,54.966667,Dressel 20,Corbridge,LFC,15962,,,Corbridge,UK
1745,-2.65,52.666667,Dressel 20,Wroxeter,QCCLE,15737,,,Wroxeter,UK
1746,0.9,51.883333,Dressel 20,Colchester,GRVM,15884,,,Colchester,UK
1747,-0.093145,51.514248,Dressel 20,London,MANIMV,16414,,,London,UK
1748,-2.916667,53.2,Dressel 20,Chester,QAGEMELLI,15407,,,Chester,UK
1749,-2.333333,54.966667,Dressel 20,Bardon Mill,NIII,18686,,,Bardon Mill,UK
1750,-0.093145,51.514248,Dressel 20,London,CANTONIQVIETI,15596,,,London,UK
1751,-2.933333,54.883333,Dressel 20,Carlisle,LPLVCA,33311,,,Carlisle,UK
1752,1.333333,51.283333,Dressel 20,Edinburgh,PS,17148,,,Edinburgh,UK
1753,-2.333333,54.966667,Dressel 20,Bardon Mill,LCM,18697,,,Bardon Mill,UK
1754,-0.093145,51.514248,Dressel 20,London,PMANISVP,16419,,,London,UK
1755,-2.916667,53.2,Dressel 20,Chester,STATIANIENSIA,16992,,,Chester,UK
1756,-1.066667,51.35,Dressel 20,Silchester,QVINTANI,16678,,,Silchester,UK
1757,-0.093145,51.514248,Dressel 20,London,RSRIMFRER,16800,,,London,UK
1758,-1.133333,52.633333,Dressel 20,Leicester,CEC,15887,,,Leicester,UK
1759,-0.8,50.833333,Amphora incerta,Fishbourne,PHILO,32356,,,Fishbourne,UK
1760,-1.066667,51.35,Dressel 20,Silchester,BELLICANAPAGALENI,15693,,,Silchester,UK
1761,-0.25,51.833333,Dressel 20,St. Albans,MPF,16595,,,St. Albans,UK
1762,-2.15,55.016667,Dressel 20,Chesters,GMMF,16369,,,Chesters,UK
1763,-2.916667,53.2,Dressel 20,Chester,CVTC,17120,,,Chester,UK
1764,-2.733333,54.65,Dressel 20,Penrith,S,17159,,,Penrith,UK
1765,-0.093145,51.514248,Mortarium,London,FEC,30749,,,London,UK
1766,-1.983333,51.733333,Dressel 20,Cirencester,BARMASI,15691,,,Cirencester,UK
1767,-2.933333,54.883333,Dressel 20,Carlisle,PCHO,15759,,,Carlisle,UK
1768,-0.533333,53.233333,Dressel 20,Lincoln,POROCODV,16562,,,Lincoln,UK
1769,-0.25,51.833333,Dressel 20,St. Albans,SAXOFERREO,16861,,,St. Albans,UK
1770,-0.25,51.833333,Dressel 20,St. Albans,DIA,16080,,,St. Albans,UK
1771,-1.083333,53.966667,Dressel 20,York,BELSI,15696,,,York,UK
1772,-2.6,53.383333,Dressel 20,Warrington,LAEL,15426,,,Warrington,UK
1773,-0.093145,51.514248,Dressel 20,London,PRIM,16634,,,London,UK
1774,-2.016667,54.966667,Dressel 20,Corbridge,PMV,16402,,,Corbridge,UK
1775,-2.933333,54.883333,Dressel 20,Carlisle,CIA,17184,,,Carlisle,UK
1776,-1.216667,53.066667,Dressel 20,Newstead,MCFRIGIDI,15755,,,Newstead,UK
1777,0.9,51.883333,Dressel 20,Colchester,FSCIMNIANO,16905,,,Colchester,UK
1778,-1.983333,51.733333,Dressel 20,Cirencester,LSL,16940,,,Cirencester,UK
1779,-2.766667,51.61,Dressel 20,Caerwent,LPMS,16604,,,Caerwent,UK
1780,-0.093145,51.514248,Dressel 20,London,CANTONIQVIETI,15589,,,London,UK
1781,1.333333,51.283333,Dressel 20,Edinburgh,IA,17193,,,Edinburgh,UK
1782,-1.316667,51.016667,Dressel 20,Winchester,COL,17186,,,Winchester,UK
1783,0.866667,51.3,Dressel 20,Ospringe,LIVNIMELISSI,16251,,,Ospringe,UK
1784,-1.748246,50.71376,Dressel 20,Hengistbury Head,ROMANI,16701,,,Hengistbury Head,UK
1785,-1.683333,52.85,Dressel 20,Tutbury,PNN,16462,,,Tutbury,UK
1786,-0.533333,53.233333,Dressel 20,Lincoln,MIM,16139,,,Lincoln,UK
1787,-0.093145,51.514248,Dressel 20,London,AATRV,15656,,,London,UK
1788,-1.619444,54.988056,Dressel 20,Newcastle upon Tyne,FSCIMNIANO,16258,,,Newcastle upon Tyne,UK
1789,-1.983333,51.733333,Dressel 20,Cirencester,LQS,16651,,,Cirencester,UK
1790,-2.333333,54.966667,Dressel 20,Bardon Mill,QAEPO,33398,,,Bardon Mill,UK
1791,1.333333,51.283333,Amphora incerta,Edinburgh,IVVENALIS,20653,,,Edinburgh,UK
1792,-1.066667,51.35,Dressel 20,Silchester,LIVNIMELISSI,16270,,,Silchester,UK
1793,-1.983333,51.733333,Dressel 20,Cirencester,MIM,16141,,,Cirencester,UK
1794,-0.093145,51.514248,Dressel 20,London,QMR,16392,,,London,UK
1795,-3.802222,51.656111,Dressel 20,Neath,CR,15794,,,Neath,UK
1796,-2.016667,54.966667,Dressel 20,Corbridge,MSM,16772,,,Corbridge,UK
1797,-2.333333,54.966667,Dressel 20,Bardon Mill,HISPANI,20442,,,Bardon Mill,UK
1798,-0.533333,53.233333,Dressel 20,Lincoln,SAXOFERREO,16856,,,Lincoln,UK
1799,-2.333333,54.966667,Dressel 20,Bardon Mill,ACIRGI,15505,,,Bardon Mill,UK
1800,-1.216667,53.066667,Dressel 20,Newstead,MMCS,15820,,,Newstead,UK
1801,-2.333333,54.966667,Dressel 20,Bardon Mill,PNN,18721,,,Bardon Mill,UK
1802,1.333333,51.283333,Dressel 20,Edinburgh,LSERVFI,16984,,,Edinburgh,UK
1803,-0.25,51.833333,Dressel 20,St. Albans,OF,32498,,,St. Albans,UK
1804,-1.216667,53.066667,Dressel 20,Newstead,CANTONIQVIETI,15570,,,Newstead,UK
1805,-0.093145,51.514248,Dressel 20,London,BAETICI,15689,,,London,UK
1806,-1.983333,51.733333,Dressel 20,Cirencester,SAXOFERREO,16859,,,Cirencester,UK
1807,-2.333333,54.966667,Dressel 20,Bardon Mill,LQS,18724,,,Bardon Mill,UK
1808,-0.093145,51.514248,Dressel 20,London,QAGEMELLI,15408,,,London,UK
1809,-0.093145,51.514248,Dressel 20,London,FOIAS,16527,,,London,UK
1810,-3.383333,51.95,Dressel 20,Brecon,ENNIORVMIVLIORVM,15920,,,Brecon,UK
1811,-2.916667,53.2,Dressel 20,Chester,COO,17187,,,Chester,UK
1812,-0.093145,51.514248,Dressel 20,London,SCLT,15866,,,London,UK
1813,-0.093145,51.514248,Dressel 20,London,QANTRVG,15613,,,London,UK
1814,0.9,51.883333,Dressel 20,Colchester,QIM,16164,,,Colchester,UK
1815,-1.066667,51.35,Dressel 20,Silchester,SFE,15994,,,Silchester,UK
1816,-2.333333,54.966667,Dressel 20,Bardon Mill,Q,18742,,,Bardon Mill,UK
1817,-2.916667,53.2,Dressel 20,Chester,CAS,15477,,,Chester,UK
1818,-1.083333,53.966667,Mortarium,York,YOCCAY,30740,,,York,UK
1819,-2.65,52.666667,Dressel 20,Wroxeter,GAF,15390,,,Wroxeter,UK
1820,-0.25,51.833333,Dressel 20,St. Albans,QIA,16091,,,St. Albans,UK
1821,-0.093145,51.514248,Dressel 20,London,MCC,15714,,,London,UK
1822,-2.678333,51.007222,Dressel 20,Ilchester,PERANIRENSA,16624,,,Ilchester,UK
1823,-2.916667,53.2,Dressel 20,Chester,ATATFTATAF,15655,,,Chester,UK
1824,-2.766667,51.61,Dressel 20,Caerwent,OD,16571,,,Caerwent,UK
1825,-0.8,50.833333,Dressel 20,Fishbourne,LIT,16210,,,Fishbourne,UK
1826,-2.333333,54.966667,Dressel 20,Bardon Mill,LI,18747,,,Bardon Mill,UK
1827,-1.983333,51.733333,Dressel 20,Cirencester,RVFINIATITTAE,16720,,,Cirencester,UK
1828,0.9,51.883333,Dressel 20,Colchester,LFAXATI,20657,,,Colchester,UK
1829,0.9,51.883333,Dressel 20,Colchester,ANTHI,15564,,,Colchester,UK
1830,-0.783333,50.833333,Dressel 20,Chicester,QCR,15784,,,Chicester,UK
1831,-2.016667,54.966667,Dressel 20,Corbridge,MFS,16029,,,Corbridge,UK
1832,-2.733333,54.95,Dressel 20,Brampton,QMCCCAS,16348,,,Brampton,UK
1833,-2.766667,51.61,Dressel 20,Caerwent,VIRGIN,17093,,,Caerwent,UK
1834,-1.216667,53.066667,Dressel 20,Newstead,BOPI,16561,,,Newstead,UK
1835,0.9,51.883333,Dressel 20,Colchester,PSAVITI,16750,,,Colchester,UK
1836,-2.958889,51.613333,Dressel 20,Caerleon,DOM,16554,,,Caerleon,UK
1837,-2.216667,53.5,Dressel 20,Manchester,Q,17157,,,Manchester,UK
1838,-1.816667,53.916667,Dressel 20,Ilkley,MMR,16370,,,Ilkley,UK
1839,-2.533333,53.8,Dressel 20,Ribchester,CIS,16187,,,Ribchester,UK
1840,-0.093145,51.514248,Dressel 20,London,MRAMRR,15473,,,London,UK
1841,-2.958889,51.613333,Dressel 20,Caerleon,POROCODV,16570,,,Caerleon,UK
1842,1.333333,51.283333,Dressel 8,Edinburgh,CAPITOF,20489,,,Edinburgh,UK
1843,-0.093145,51.514248,Amphora incerta,London,INSTI,20539,,,London,UK
1844,-0.093145,51.514248,Dressel 20,London,OPTATI,16581,,,London,UK
1845,-2.916667,53.2,Dressel 20,Chester,PORLAR,15455,,,Chester,UK
1846,0.9,51.883333,Dressel 20,Colchester,POP,16630,,,Colchester,UK
1847,-0.093145,51.514248,Dressel 20,London,QCC,15729,,,London,UK
1848,-0.093145,51.514248,Dressel 20,London,PHILO,16054,,,London,UK
1849,-2.65,52.666667,Dressel 20,Wroxeter,CSEMPRONIPOLYCLITI,16958,,,Wroxeter,UK
1850,0.9,51.883333,Dressel 20,Colchester,CPC,16588,,,Colchester,UK
1851,1.333333,51.283333,Dressel 20,Edinburgh,QI,16095,,,Edinburgh,UK
1852,-0.8,50.833333,Dressel 20,Fishbourne,FSFAQVA,16753,,,Fishbourne,UK
1853,-0.093145,51.514248,Dressel 20,London,PNN,16496,,,London,UK
1854,-0.25,51.833333,Dressel 20,St. Albans,QSP,16796,,,St. Albans,UK
1855,-2.65,52.666667,Dressel 20,Wroxeter,CNACOR,16448,,,Wroxeter,UK
1856,-1.066667,51.35,Dressel 20,Silchester,CEFP,15898,,,Silchester,UK
1857,-1.783333,53.333333,Mortarium,Castleton,VITAVIVTR,30741,,,Castleton,UK
1858,-0.093145,51.514248,Dressel 20,London,MAELIALEXANDRI,15515,,,London,UK
1859,1.333333,51.283333,Dressel 20,Edinburgh,POROCODV,16568,,,Edinburgh,UK
1860,1.083333,51.266667,Dressel 20,Canterbury,BARCOLSICETAS,16302,,,Canterbury,UK
1861,-0.093145,51.514248,Dressel 20,London,CAMILIMELISSI,15847,,,London,UK
1862,-0.533333,53.233333,Dressel 20,Lincoln,MACCEMAGGE,15387,,,Lincoln,UK
1863,-2.25,51.833333,Dressel 20,Gloucester,CR,17188,,,Gloucester,UK
1864,-0.783333,50.833333,Dressel 20,Chicester,MIM,16126,,,Chicester,UK
1865,-0.25,51.833333,Dressel 20,St. Albans,QFA,15948,,,St. Albans,UK
1866,-0.093145,51.514248,Dressel 20,London,A,16824,,,London,UK
1867,-0.25,51.833333,Dressel 20,St. Albans,QIM,16157,,,St. Albans,UK
1868,0.9,51.883333,Dressel 20,Colchester,QS,16791,,,Colchester,UK
1869,-0.8,50.833333,Dressel 20,Fishbourne,POROCODV,16566,,,Fishbourne,UK
1870,-2.016667,54.966667,Dressel 20,Corbridge,QMS,16398,,,Corbridge,UK
1871,-2.65,52.666667,Dressel 20,Wroxeter,LAN,15445,,,Wroxeter,UK
1872,-1.133333,52.633333,Dressel 20,Leicester,CALPVR,15839,,,Leicester,UK
1873,-0.093145,51.514248,Dressel 20,London,SCOROBRES,16935,,,London,UK
1874,-1.066667,51.35,Amphora incerta,Silchester,AGTLOC,20639,,,Silchester,UK
1875,-0.093145,51.514248,Dressel 20,London,TAELPC,15514,,,London,UK
1876,-0.783333,50.833333,Dressel 2-4 Cilician,Chicester,MLIVICAVSORI,33177,,,Chicester,UK
1877,-2.933333,54.883333,Dressel 20,Carlisle,QFG,32256,,,Carlisle,UK
1878,-2.65,52.666667,Dressel 20,Wroxeter,SFE,15995,,,Wroxeter,UK
1879,-2.958889,51.613333,Dressel 20,Caerleon,PLS,16336,,,Caerleon,UK
1880,-3.256111,51.664444,Dressel 20,Gelligaer,CEFP,15900,,,Gelligaer,UK
1881,-1.083333,53.966667,Dressel 20,York,SAXOFER,16866,,,York,UK
1882,0.9,51.883333,Dressel 20,Colchester,GAF,20476,,,Colchester,UK
1883,-0.093145,51.514248,Dressel 20,London,QSP,20705,,,London,UK
1884,-0.783333,50.833333,Dressel 20,Chicester,CIALB,16100,,,Chicester,UK
1885,-2.75,52.666667,Dressel 20,"Shropshire, County of",QMR,16375,,,"Shropshire, County of",UK
1886,-2.333333,54.966667,Dressel 20,Bardon Mill,QCC,18695,,,Bardon Mill,UK
1887,0.9,51.883333,Dressel 20,Colchester,CFVA,16033,,,Colchester,UK
1888,-2.016667,54.966667,Dressel 20,Corbridge,SIP,16173,,,Corbridge,UK
1889,-2.65,52.666667,Dressel 20,Wroxeter,QIM,16151,,,Wroxeter,UK
1890,-2.933333,54.883333,Dressel 20,Carlisle,CANTONIQVIETI,32254,,,Carlisle,UK
1891,-0.093145,51.514248,Dressel 20,London,CSEMPRONIPOLYCLITI,16974,,,London,UK
1892,-2.016667,54.966667,Dressel 20,Corbridge,ENNIORVMIVLIORVM,15923,,,Corbridge,UK
1893,-0.25,51.833333,Dressel 20,St. Albans,IVLIANTCRI,16221,,,St. Albans,UK
1894,-1.066667,51.35,Dressel 20,Silchester,CANTONIQVIETI,15583,,,Silchester,UK
1895,1.333333,51.283333,Dressel 20,Edinburgh,TMCOR,17167,,,Edinburgh,UK
1896,-3.533333,50.7,Dressel 20,Exeter,MIM,16145,,,Exeter,UK
1897,-0.093145,51.514248,Dressel 20,London,HOFP,16525,,,London,UK
1898,-1.083333,53.966667,Dressel 20,York,HISPANI,16070,,,York,UK
1899,-2.333333,54.966667,Dressel 20,Bardon Mill,GQ,20448,,,Bardon Mill,UK
1900,0.9,51.883333,Dressel 20,Colchester,MIM,16136,,,Colchester,UK
1901,-2.333333,54.966667,Dressel 20,Bardon Mill,HISPANI,18732,,,Bardon Mill,UK
1902,-2.933333,54.883333,Amphora incerta,Carlisle,ARA,32365,,,Carlisle,UK
1903,-0.093145,51.514248,Dressel 20,London,QCALMARSI,15843,,,London,UK
1904,-0.093145,51.514248,Dressel 20,London,SIN,17164,,,London,UK
1905,-2.25,51.833333,Dressel 20,Gloucester,LSH,16755,,,Gloucester,UK
1906,-0.25,51.833333,Dressel 20,St. Albans,QCC,15725,,,St. Albans,UK
1907,0.9,51.883333,Dressel 20,Colchester,FPAT,16623,,,Colchester,UK
1908,-0.25,51.833333,Dressel 20,St. Albans,SSA,16823,,,St. Albans,UK
1909,-0.093145,51.514248,Dressel 20,London,STPR,17001,,,London,UK
1910,-1.983333,51.733333,Dressel 20,Cirencester,AVRELIHERACLAE,15681,,,Cirencester,UK
1911,0.9,51.883333,Dressel 20,Colchester,CSEMPRONIPOLYCLITI,16945,,,Colchester,UK
1912,-2.916667,53.2,Dressel 20,Chester,FSCIMNIANO,16888,,,Chester,UK
1913,-0.093145,51.514248,Dressel 20,London,PAH,15414,,,London,UK
1914,-0.093145,51.514248,Amphora incerta,London,OPIAPM,20620,,,London,UK
1915,-3.833333,53.216667,Dressel 20,Caerhûn,ALFO,16307,,,Caerhûn,UK
1916,-2.6,53.383333,Ignotus,Warrington,IVI,30739,,,Warrington,UK
1917,-2.016667,54.966667,Dressel 20,Corbridge,MCC,15715,,,Corbridge,UK
1918,-1.066667,51.35,Dressel 20,Silchester,LVALERIVITALIS,17063,,,Silchester,UK
1919,-1.133333,52.633333,Dressel 20,Leicester,IB,16116,,,Leicester,UK
1920,-2.333333,54.966667,Dressel 20,Bardon Mill,PLFMAVR,18719,,,Bardon Mill,UK
1921,-2.916667,53.2,Dressel 20,Chester,QAELIOPTATI,15520,,,Chester,UK
1922,0.8,51.533333,Dressel 20,Shoeburyness,CPCHO,16589,,,Shoeburyness,UK
1923,-2.75,54.316667,Dressel 20,Watercrook,QCC,15722,,,Watercrook,UK
1924,-0.093145,51.514248,Dressel 20,London,NYMPH,16523,,,London,UK
1925,-1.083333,53.966667,Ignotus,York,DIVIC,30692,,,York,UK
1926,0.083333,52.333333,Dressel 20,Cambridgeshire,PSAVITI,16741,,,Cambridgeshire,UK
1927,-1.316667,51.016667,Dressel 20,Winchester,QMS,16399,,,Winchester,UK
1928,-2.216667,53.5,Dressel 20,Manchester,ANTOCQVIT,15604,,,Manchester,UK
1929,1.333333,51.283333,Dressel 20,Edinburgh,VN,16459,,,Edinburgh,UK
1930,-2.678333,51.007222,Dressel 20,Ilchester,QIM,16150,,,Ilchester,UK
1931,0.9,51.883333,Dressel 20,Colchester,LQS,16675,,,Colchester,UK
1932,0.45,51.333333,Africana 2D Grande,Holborough,TEPSVRI,26343,,,Holborough,UK
1933,-2.933333,54.883333,Dressel 20,Carlisle,M,17201,,,Carlisle,UK
1934,0.9,51.883333,Dressel 20,Colchester,CAPF,15630,,,Colchester,UK
1935,-1.066667,51.35,Dressel 20,Silchester,FSCIMNIANO,16911,,,Silchester,UK
1936,-0.093145,51.514248,Dressel 20,London,CASTELANI,15853,,,London,UK
1937,-0.093145,51.514248,Dressel 20,London,TATILIASIATICI,33431,,,London,UK
1938,-2.916667,53.2,Dressel 20,Chester,PAH,15416,,,Chester,UK
1939,1.333333,51.283333,Dressel 20,Edinburgh,CSEMPRONIPOLYCLITI,16976,,,Edinburgh,UK
1940,-1.066667,51.35,Dressel 20,Silchester,ENNIORVMIVLIORVM,15938,,,Silchester,UK
1941,-0.093145,51.514248,Dressel 20,London,FCCVFIA,15711,,,London,UK
1942,-0.093145,51.514248,Dressel 20,London,LAEL,15428,,,London,UK
1943,-1.9,53.416667,Dressel 20,Glossop,SGA,15702,,,Glossop,UK
1944,-2.958889,51.613333,Dressel 20,Caerleon,LVALERITROPHIMI,17056,,,Caerleon,UK
1945,-2.333333,54.966667,Dressel 20,Bardon Mill,QMR,16380,,,Bardon Mill,UK
1946,-2.333333,54.966667,Dressel 20,Bardon Mill,QMM,20445,,,Bardon Mill,UK
1947,-2.933333,54.883333,Dressel 20,Carlisle,ROMANI,16699,,,Carlisle,UK
1948,-1.619444,54.988056,Dressel 20,Newcastle upon Tyne,LIVNIMELISSI,16258,,,Newcastle upon Tyne,UK
1949,-1.983333,51.733333,Dressel 20,Cirencester,SFE,15989,,,Cirencester,UK
1950,-0.093145,51.514248,Dressel 20,London,ALFO,16314,,,London,UK
1951,0.9,51.883333,Dressel 20,Colchester,LFS,16028,,,Colchester,UK
1952,-0.25,51.833333,Dressel 20,St. Albans,QFC,15982,,,St. Albans,UK
1953,-1.083333,53.966667,Dressel 20,York,CLPV,16327,,,York,UK
1954,-2.333333,54.966667,Dressel 20,Bardon Mill,PARVA,18692,,,Bardon Mill,UK
1955,-1.983333,51.733333,Dressel 20,Cirencester,SAXOFERREO,16862,,,Cirencester,UK
1956,-1.983333,51.733333,Dressel 20,Cirencester,CALPVRNIB,15842,,,Cirencester,UK
1957,0.9,51.883333,Dressel 20,Colchester,LAEM,15536,,,Colchester,UK
1958,0.9,51.883333,Dressel 20,Colchester,SALS,15433,,,Colchester,UK
1959,-2.533333,53.8,Dressel 20,Ribchester,CAN,15588,,,Ribchester,UK
1960,1.333333,51.283333,Dressel 20,Edinburgh,PVI,17028,,,Edinburgh,UK
1961,-0.25,51.833333,Dressel 20,St. Albans,C,17116,,,St. Albans,UK
1962,-0.093145,51.514248,Amphora incerta,London,AERI,30675,,,London,UK
1963,-0.533333,53.233333,Dressel 20,Lincoln,PONTICI,16625,,,Lincoln,UK
1964,-0.093145,51.514248,Dressel 20,London,GMT,16401,,,London,UK
1965,1.333333,51.283333,Dressel 20,Edinburgh,PSAVITI,16747,,,Edinburgh,UK
1966,-0.25,51.833333,Dressel 20,St. Albans,SNR,16509,,,St. Albans,UK
1967,-0.093145,51.514248,Dressel 20,London,LCSOL,15830,,,London,UK
1968,-2.933333,54.883333,Dressel 20,Carlisle,SCALENSIA,16868,,,Carlisle,UK
1969,-2.016667,54.966667,Dressel 20,Corbridge,CTYC,17007,,,Corbridge,UK
1970,-0.683333,53.116667,Dressel 20,Norton Disney,FSCIMNIANO,16891,,,Norton Disney,UK
1971,-2.6,53.383333,Dressel 20,Warrington,MLPIG,16324,,,Warrington,UK
1972,-0.093689,51.514125,Mortarium,London,FECIT,30750,,,London,UK
1973,-1.316667,51.016667,Dressel 20,Winchester,SO,17165,,,Winchester,UK
1974,-1.983333,51.733333,Dressel 20,Cirencester,MS,17141,,,Cirencester,UK
1975,-1.066667,51.35,Dressel 20,Silchester,DEF,15893,,,Silchester,UK
1976,-1.619444,54.988056,Dressel 20,Newcastle upon Tyne,PCLODICELI,15868,,,Newcastle upon Tyne,UK
1977,-2.904167,51.7025,Dressel 20,Usk,SATVRNINI,16834,,,Usk,UK
1978,1.333333,51.283333,Dressel 20,Edinburgh,PM,16359,,,Edinburgh,UK
1979,-0.093145,51.514248,Amphora incerta,London,CORI,30689,,,London,UK
1980,-0.093145,51.514248,Dressel 20,London,KASTELLANI,15852,,,London,UK